{
"type": "FeatureCollection",
"name": "Fire_Stations_(Statewide)",
"crs": { "type": "name", "properties": { "name": "urn:ogc:def:crs:OGC:1.3:CRS84" } },
"features": [
{ "type": "Feature", "properties": { "objectid": 1, "name": "Kawailani Fire Station", "island": "Hawaii" }, "geometry": { "type": "Point", "coordinates": [ -155.079486494306764, 19.683677327658447 ] } },
{ "type": "Feature", "properties": { "objectid": 2, "name": "Central Fire Station", "island": "Hawaii" }, "geometry": { "type": "Point", "coordinates": [ -155.086191489887881, 19.720312170403751 ] } },
{ "type": "Feature", "properties": { "objectid": 3, "name": "Waimea Fire Station", "island": "Hawaii" }, "geometry": { "type": "Point", "coordinates": [ -155.661208545782387, 20.0231312496845 ] } },
{ "type": "Feature", "properties": { "objectid": 4, "name": "North Kohala Fire Station", "island": "Hawaii" }, "geometry": { "type": "Point", "coordinates": [ -155.798333419064789, 20.229992625337658 ] } },
{ "type": "Feature", "properties": { "objectid": 5, "name": "Keauhou Fire Station", "island": "Hawaii" }, "geometry": { "type": "Point", "coordinates": [ -155.940487551806513, 19.560533528845546 ] } },
{ "type": "Feature", "properties": { "objectid": 6, "name": "Pahoa Fire Station", "island": "Hawaii" }, "geometry": { "type": "Point", "coordinates": [ -154.958357537348718, 19.509331382051059 ] } },
{ "type": "Feature", "properties": { "objectid": 7, "name": "Captain Cook Fire Station", "island": "Hawaii" }, "geometry": { "type": "Point", "coordinates": [ -155.909009885010448, 19.488492063101575 ] } },
{ "type": "Feature", "properties": { "objectid": 8, "name": "Waikoloa Fire Station", "island": "Hawaii" }, "geometry": { "type": "Point", "coordinates": [ -155.793878835749183, 19.924911378661069 ] } },
{ "type": "Feature", "properties": { "objectid": 9, "name": "Honokaa Fire Station", "island": "Hawaii" }, "geometry": { "type": "Point", "coordinates": [ -155.462546239124606, 20.077212351359545 ] } },
{ "type": "Feature", "properties": { "objectid": 10, "name": "Keaau Fire Station", "island": "Hawaii" }, "geometry": { "type": "Point", "coordinates": [ -155.040103629841781, 19.620931306925112 ] } },
{ "type": "Feature", "properties": { "objectid": 11, "name": "Waiakea Fire Station", "island": "Hawaii" }, "geometry": { "type": "Point", "coordinates": [ -155.058483395961844, 19.724114262066777 ] } },
{ "type": "Feature", "properties": { "objectid": 12, "name": "Kaumana Fire Station", "island": "Hawaii" }, "geometry": { "type": "Point", "coordinates": [ -155.108975124316459, 19.710797384769364 ] } },
{ "type": "Feature", "properties": { "objectid": 13, "name": "South Kohala Fire Station", "island": "Hawaii" }, "geometry": { "type": "Point", "coordinates": [ -155.833873894502972, 19.946751176599385 ] } },
{ "type": "Feature", "properties": { "objectid": 14, "name": "Hawaiian Paradise Park Fire Station", "island": "Hawaii" }, "geometry": { "type": "Point", "coordinates": [ -154.97411999605788, 19.574281316069452 ] } },
{ "type": "Feature", "properties": { "objectid": 15, "name": "Kailua Fire Station", "island": "Hawaii" }, "geometry": { "type": "Point", "coordinates": [ -155.9924113563319, 19.647346299261802 ] } },
{ "type": "Feature", "properties": { "objectid": 16, "name": "Hawaiian Ocean View Fire Station", "island": "Hawaii" }, "geometry": { "type": "Point", "coordinates": [ -155.778349717381758, 19.117483193461929 ] } },
{ "type": "Feature", "properties": { "objectid": 17, "name": "Pahala Fire Station", "island": "Hawaii" }, "geometry": { "type": "Point", "coordinates": [ -155.473110113539519, 19.200927489684027 ] } },
{ "type": "Feature", "properties": { "objectid": 18, "name": "Volcano Fire Station", "island": "Hawaii" }, "geometry": { "type": "Point", "coordinates": [ -155.275978464312999, 19.433977494582539 ] } },
{ "type": "Feature", "properties": { "objectid": 19, "name": "Laupahoehoe Fire Station", "island": "Hawaii" }, "geometry": { "type": "Point", "coordinates": [ -155.232843489286637, 19.983007464097081 ] } },
{ "type": "Feature", "properties": { "objectid": 20, "name": "Fire Department Maintenance Shop", "island": "Hawaii" }, "geometry": { "type": "Point", "coordinates": [ -155.058246861687167, 19.723850770827983 ] } },
{ "type": "Feature", "properties": { "objectid": 21, "name": "Fire Warehouse and Dispatch Center", "island": "Hawaii" }, "geometry": { "type": "Point", "coordinates": [ -155.086479840486874, 19.719945873034149 ] } },
{ "type": "Feature", "properties": { "objectid": 22, "name": "Makalei Fire Station", "island": "Hawaii" }, "geometry": { "type": "Point", "coordinates": [ -155.977304432462859, 19.733436329718003 ] } },
{ "type": "Feature", "properties": { "objectid": 23, "name": "Naalehu Medic 11", "island": "Hawaii" }, "geometry": { "type": "Point", "coordinates": [ -155.586848573404069, 19.061313861996688 ] } },
{ "type": "Feature", "properties": { "objectid": 24, "name": "HANALEI FIRE STATION", "island": "Kauai" }, "geometry": { "type": "Point", "coordinates": [ -159.479002486485797, 22.212268442661983 ] } },
{ "type": "Feature", "properties": { "objectid": 25, "name": "KOLOA FIRE STATION", "island": "Kauai" }, "geometry": { "type": "Point", "coordinates": [ -159.467439870040835, 21.883742880227299 ] } },
{ "type": "Feature", "properties": { "objectid": 26, "name": "WAIMEA FIRE STATION", "island": "Kauai" }, "geometry": { "type": "Point", "coordinates": [ -159.668203602198844, 21.955486608571114 ] } },
{ "type": "Feature", "properties": { "objectid": 27, "name": "LIHUE FIRE STATION", "island": "Kauai" }, "geometry": { "type": "Point", "coordinates": [ -159.363864619975686, 21.971375473261649 ] } },
{ "type": "Feature", "properties": { "objectid": 28, "name": "KAPAA FIRE STATION", "island": "Kauai" }, "geometry": { "type": "Point", "coordinates": [ -159.322251830194318, 22.060369508434199 ] } },
{ "type": "Feature", "properties": { "objectid": 29, "name": "HANAPEPE FIRE STATION", "island": "Kauai" }, "geometry": { "type": "Point", "coordinates": [ -159.588349200524476, 21.909491928958978 ] } },
{ "type": "Feature", "properties": { "objectid": 30, "name": "KALAHEO FIRE STATION", "island": "Kauai" }, "geometry": { "type": "Point", "coordinates": [ -159.52625527303212, 21.925256735383961 ] } },
{ "type": "Feature", "properties": { "objectid": 31, "name": "KAIAKEA FIRE STATION", "island": "Kauai" }, "geometry": { "type": "Point", "coordinates": [ -159.309220627644663, 22.087202348533982 ] } },
{ "type": "Feature", "properties": { "objectid": 32, "name": "Laupahoehoe - Volunteer", "island": "Hawaii" }, "geometry": { "type": "Point", "coordinates": [ -155.232890842704933, 19.982889423650668 ] } },
{ "type": "Feature", "properties": { "objectid": 33, "name": "Kalaoa Mauka - Volunteer", "island": "Hawaii" }, "geometry": { "type": "Point", "coordinates": [ -155.973112893902112, 19.707563028343927 ] } },
{ "type": "Feature", "properties": { "objectid": 34, "name": "Kohala Ranch - Volunteer", "island": "Hawaii" }, "geometry": { "type": "Point", "coordinates": [ -155.832625975031874, 20.082682149027676 ] } },
{ "type": "Feature", "properties": { "objectid": 35, "name": "Kona Paradise Subdivision - Volunteer", "island": "Hawaii" }, "geometry": { "type": "Point", "coordinates": [ -155.878615715387411, 19.314969886787022 ] } },
{ "type": "Feature", "properties": { "objectid": 36, "name": "Milolii - Volunteer", "island": "Hawaii" }, "geometry": { "type": "Point", "coordinates": [ -155.905295539198448, 19.189837295474874 ] } },
{ "type": "Feature", "properties": { "objectid": 37, "name": "Hawaiian Beaches - Volunteer", "island": "Hawaii" }, "geometry": { "type": "Point", "coordinates": [ -154.901602052304725, 19.547401723556259 ] } },
{ "type": "Feature", "properties": { "objectid": 38, "name": "Waa Waa - Volunteer", "island": "Hawaii" }, "geometry": { "type": "Point", "coordinates": [ -154.857843465850692, 19.542948618112408 ] } },
{ "type": "Feature", "properties": { "objectid": 39, "name": "Waikoloa Village - Volunteer", "island": "Hawaii" }, "geometry": { "type": "Point", "coordinates": [ -155.787482772512107, 19.926315172958624 ] } },
{ "type": "Feature", "properties": { "objectid": 40, "name": "Kona Village - Volunteer", "island": "Hawaii" }, "geometry": { "type": "Point", "coordinates": [ -155.982413849257, 19.830471976071998 ] } },
{ "type": "Feature", "properties": { "objectid": 41, "name": "Discovery Harbour - Volunteer", "island": "Hawaii" }, "geometry": { "type": "Point", "coordinates": [ -155.635322041597078, 19.040407928705967 ] } },
{ "type": "Feature", "properties": { "objectid": 42, "name": "Volcano Village - Volunteer", "island": "Hawaii" }, "geometry": { "type": "Point", "coordinates": [ -155.230567566804552, 19.4344652017996 ] } },
{ "type": "Feature", "properties": { "objectid": 43, "name": "Ocean View - Volunteer", "island": "Hawaii" }, "geometry": { "type": "Point", "coordinates": [ -155.778300251642634, 19.117475608409134 ] } },
{ "type": "Feature", "properties": { "objectid": 44, "name": "Pepeekeo - Volunteer", "island": "Hawaii" }, "geometry": { "type": "Point", "coordinates": [ -155.104943295403189, 19.83518871267777 ] } },
{ "type": "Feature", "properties": { "objectid": 45, "name": "Fern Forest - Volunteer", "island": "Hawaii" }, "geometry": { "type": "Point", "coordinates": [ -155.129874013698384, 19.459197945070436 ] } },
{ "type": "Feature", "properties": { "objectid": 46, "name": "Hawaiian Acres - Volunteer", "island": "Hawaii" }, "geometry": { "type": "Point", "coordinates": [ -155.049838569499059, 19.556529739130479 ] } },
{ "type": "Feature", "properties": { "objectid": 47, "name": "Fern Acres - Volunteer", "island": "Hawaii" }, "geometry": { "type": "Point", "coordinates": [ -155.092129352401003, 19.538958503325297 ] } },
{ "type": "Feature", "properties": { "objectid": 48, "name": "Four Seasons - Volunteer", "island": "Hawaii" }, "geometry": { "type": "Point", "coordinates": [ -155.990976452747475, 19.826806545637833 ] } },
{ "type": "Feature", "properties": { "objectid": 49, "name": "Hawaiian Paradise Park - Volunteer", "island": "Hawaii" }, "geometry": { "type": "Point", "coordinates": [ -154.974263270777698, 19.574108122417002 ] } },
{ "type": "Feature", "properties": { "objectid": 50, "name": "Kulani - Volunteer", "island": "Hawaii" }, "geometry": { "type": "Point", "coordinates": [ -155.300910044050511, 19.549116097470403 ] } },
{ "type": "Feature", "properties": { "objectid": 51, "name": "Waikii - Volunteer", "island": "Hawaii" }, "geometry": { "type": "Point", "coordinates": [ -155.654166327162756, 19.8557441887274 ] } },
{ "type": "Feature", "properties": { "objectid": 52, "name": "Naalehu - Volunteer", "island": "Hawaii" }, "geometry": { "type": "Point", "coordinates": [ -155.586872722121171, 19.062507122668013 ] } },
{ "type": "Feature", "properties": { "objectid": 53, "name": "Pahala - Volunteer", "island": "Hawaii" }, "geometry": { "type": "Point", "coordinates": [ -155.473333908309854, 19.200889577058589 ] } },
{ "type": "Feature", "properties": { "objectid": 54, "name": "Kaupulehu - Volunteer", "island": "Hawaii" }, "geometry": { "type": "Point", "coordinates": [ -155.988161872505543, 19.649340517849797 ] } },
{ "type": "Feature", "properties": { "objectid": 55, "name": "Kahuku", "island": "Oahu" }, "geometry": { "type": "Point", "coordinates": [ -157.946172695848986, 21.674715506123384 ] } },
{ "type": "Feature", "properties": { "objectid": 56, "name": "Sunset", "island": "Oahu" }, "geometry": { "type": "Point", "coordinates": [ -158.062670311793084, 21.648539839338632 ] } },
{ "type": "Feature", "properties": { "objectid": 57, "name": "Waialua", "island": "Oahu" }, "geometry": { "type": "Point", "coordinates": [ -158.111864033443396, 21.58652452793142 ] } },
{ "type": "Feature", "properties": { "objectid": 58, "name": "Hauula", "island": "Oahu" }, "geometry": { "type": "Point", "coordinates": [ -157.909074925752094, 21.608051734041137 ] } },
{ "type": "Feature", "properties": { "objectid": 59, "name": "Kaaawa", "island": "Oahu" }, "geometry": { "type": "Point", "coordinates": [ -157.854744186841629, 21.556662981087801 ] } },
{ "type": "Feature", "properties": { "objectid": 60, "name": "Wahiawa", "island": "Oahu" }, "geometry": { "type": "Point", "coordinates": [ -158.027907831846733, 21.49720184834251 ] } },
{ "type": "Feature", "properties": { "objectid": 61, "name": "Waianae", "island": "Oahu" }, "geometry": { "type": "Point", "coordinates": [ -158.191731582964564, 21.449985900990221 ] } },
{ "type": "Feature", "properties": { "objectid": 62, "name": "Kahaluu", "island": "Oahu" }, "geometry": { "type": "Point", "coordinates": [ -157.846760495724538, 21.457367575925744 ] } },
{ "type": "Feature", "properties": { "objectid": 63, "name": "Mililani", "island": "Oahu" }, "geometry": { "type": "Point", "coordinates": [ -158.015585842096357, 21.456929669921593 ] } },
{ "type": "Feature", "properties": { "objectid": 64, "name": "Aikahi", "island": "Oahu" }, "geometry": { "type": "Point", "coordinates": [ -157.749542147490502, 21.423845500208575 ] } },
{ "type": "Feature", "properties": { "objectid": 65, "name": "Kailua", "island": "Oahu" }, "geometry": { "type": "Point", "coordinates": [ -157.739351351709416, 21.3966770685456 ] } },
{ "type": "Feature", "properties": { "objectid": 66, "name": "Olomana", "island": "Oahu" }, "geometry": { "type": "Point", "coordinates": [ -157.750283383685996, 21.376894892317623 ] } },
{ "type": "Feature", "properties": { "objectid": 67, "name": "Kaneohe (Hq.)", "island": "Oahu" }, "geometry": { "type": "Point", "coordinates": [ -157.800489996923034, 21.413608664826874 ] } },
{ "type": "Feature", "properties": { "objectid": 68, "name": "Nanakuli", "island": "Oahu" }, "geometry": { "type": "Point", "coordinates": [ -158.139765453133322, 21.381696147004227 ] } },
{ "type": "Feature", "properties": { "objectid": 69, "name": "Waiau", "island": "Oahu" }, "geometry": { "type": "Point", "coordinates": [ -157.951151244862103, 21.401685367518127 ] } },
{ "type": "Feature", "properties": { "objectid": 70, "name": "Aiea", "island": "Oahu" }, "geometry": { "type": "Point", "coordinates": [ -157.930986981480515, 21.383600406577933 ] } },
{ "type": "Feature", "properties": { "objectid": 71, "name": "Waipahu", "island": "Oahu" }, "geometry": { "type": "Point", "coordinates": [ -158.022336508948939, 21.37667324736946 ] } },
{ "type": "Feature", "properties": { "objectid": 72, "name": "Pearl City", "island": "Oahu" }, "geometry": { "type": "Point", "coordinates": [ -157.971395793160553, 21.390234037389359 ] } },
{ "type": "Feature", "properties": { "objectid": 73, "name": "Waimanalo", "island": "Oahu" }, "geometry": { "type": "Point", "coordinates": [ -157.715163163498659, 21.347419421737762 ] } },
{ "type": "Feature", "properties": { "objectid": 74, "name": "Manoa", "island": "Oahu" }, "geometry": { "type": "Point", "coordinates": [ -157.810790536676052, 21.309761996304108 ] } },
{ "type": "Feature", "properties": { "objectid": 75, "name": "Kalihi Uka", "island": "Oahu" }, "geometry": { "type": "Point", "coordinates": [ -157.870650322359722, 21.344077589083938 ] } },
{ "type": "Feature", "properties": { "objectid": 76, "name": "Kalihi", "island": "Oahu" }, "geometry": { "type": "Point", "coordinates": [ -157.875747273213364, 21.331608071853843 ] } },
{ "type": "Feature", "properties": { "objectid": 77, "name": "Nuuanu", "island": "Oahu" }, "geometry": { "type": "Point", "coordinates": [ -157.846727683759156, 21.328160707116513 ] } },
{ "type": "Feature", "properties": { "objectid": 78, "name": "Kuakini", "island": "Oahu" }, "geometry": { "type": "Point", "coordinates": [ -157.858333498437901, 21.324282775182887 ] } },
{ "type": "Feature", "properties": { "objectid": 79, "name": "Kalihi Kai", "island": "Oahu" }, "geometry": { "type": "Point", "coordinates": [ -157.878588249833285, 21.321631210849802 ] } },
{ "type": "Feature", "properties": { "objectid": 80, "name": "Central (Hq.)", "island": "Oahu" }, "geometry": { "type": "Point", "coordinates": [ -157.85892942259224, 21.311274439524073 ] } },
{ "type": "Feature", "properties": { "objectid": 81, "name": "Waterfront", "island": "Oahu" }, "geometry": { "type": "Point", "coordinates": [ -157.865173877279204, 21.311212119851319 ] } },
{ "type": "Feature", "properties": { "objectid": 82, "name": "Makakilo", "island": "Oahu" }, "geometry": { "type": "Point", "coordinates": [ -158.086491128834183, 21.354541396763324 ] } },
{ "type": "Feature", "properties": { "objectid": 83, "name": "Kapolei (Hq.)", "island": "Oahu" }, "geometry": { "type": "Point", "coordinates": [ -158.090579104982368, 21.324351428260236 ] } },
{ "type": "Feature", "properties": { "objectid": 84, "name": "Moanalua", "island": "Oahu" }, "geometry": { "type": "Point", "coordinates": [ -157.900768158229056, 21.345086258171232 ] } },
{ "type": "Feature", "properties": { "objectid": 85, "name": "Mokulele", "island": "Oahu" }, "geometry": { "type": "Point", "coordinates": [ -157.932150676301774, 21.339944634398801 ] } },
{ "type": "Feature", "properties": { "objectid": 86, "name": "Airport", "island": "Oahu" }, "geometry": { "type": "Point", "coordinates": [ -157.912392169410566, 21.319516860824407 ] } },
{ "type": "Feature", "properties": { "objectid": 87, "name": "Ewa Beach", "island": "Oahu" }, "geometry": { "type": "Point", "coordinates": [ -158.009662437416182, 21.31169903218164 ] } },
{ "type": "Feature", "properties": { "objectid": 88, "name": "Hawaii Kai", "island": "Oahu" }, "geometry": { "type": "Point", "coordinates": [ -157.697192387600325, 21.286272116992524 ] } },
{ "type": "Feature", "properties": { "objectid": 89, "name": "Wailupe", "island": "Oahu" }, "geometry": { "type": "Point", "coordinates": [ -157.759786362956049, 21.277060156214951 ] } },
{ "type": "Feature", "properties": { "objectid": 90, "name": "Palolo", "island": "Oahu" }, "geometry": { "type": "Point", "coordinates": [ -157.794902303254673, 21.299793357550623 ] } },
{ "type": "Feature", "properties": { "objectid": 91, "name": "McCully", "island": "Oahu" }, "geometry": { "type": "Point", "coordinates": [ -157.82487355086289, 21.288227653931528 ] } },
{ "type": "Feature", "properties": { "objectid": 92, "name": "Kaimuki", "island": "Oahu" }, "geometry": { "type": "Point", "coordinates": [ -157.799569239681063, 21.278324039385407 ] } },
{ "type": "Feature", "properties": { "objectid": 93, "name": "Waikiki (Hq.)", "island": "Oahu" }, "geometry": { "type": "Point", "coordinates": [ -157.816321915677293, 21.272881452648836 ] } },
{ "type": "Feature", "properties": { "objectid": 94, "name": "Makiki", "island": "Oahu" }, "geometry": { "type": "Point", "coordinates": [ -157.839009226593163, 21.306797653169181 ] } },
{ "type": "Feature", "properties": { "objectid": 95, "name": "Kakaako", "island": "Oahu" }, "geometry": { "type": "Point", "coordinates": [ -157.858841056555292, 21.302600572284213 ] } },
{ "type": "Feature", "properties": { "objectid": 96, "name": "Pawaa", "island": "Oahu" }, "geometry": { "type": "Point", "coordinates": [ -157.839138438124564, 21.292751728463887 ] } },
{ "type": "Feature", "properties": { "objectid": 97, "name": "Mililani Mauka (Hq.)", "island": "Oahu" }, "geometry": { "type": "Point", "coordinates": [ -157.999552778291502, 21.471442753496884 ] } },
{ "type": "Feature", "properties": { "objectid": 98, "name": "Waikele", "island": "Oahu" }, "geometry": { "type": "Point", "coordinates": [ -158.004919589567407, 21.400428219938323 ] } },
{ "type": "Feature", "properties": { "objectid": 99, "name": "E1", "island": "Maui" }, "geometry": { "type": "Point", "coordinates": [ -156.499358993411988, 20.887693868570715 ] } },
{ "type": "Feature", "properties": { "objectid": 100, "name": "E10", "island": "Maui" }, "geometry": { "type": "Point", "coordinates": [ -156.456745897631123, 20.879563875599512 ] } },
{ "type": "Feature", "properties": { "objectid": 101, "name": "E11", "island": "Maui" }, "geometry": { "type": "Point", "coordinates": [ -156.668092974288044, 20.984839530710044 ] } },
{ "type": "Feature", "properties": { "objectid": 102, "name": "E12", "island": "Molokai" }, "geometry": { "type": "Point", "coordinates": [ -156.796332630520027, 21.072796624615936 ] } },
{ "type": "Feature", "properties": { "objectid": 103, "name": "E13", "island": "Maui" }, "geometry": { "type": "Point", "coordinates": [ -156.329223455148451, 20.757923660030862 ] } },
{ "type": "Feature", "properties": { "objectid": 104, "name": "E14", "island": "Maui" }, "geometry": { "type": "Point", "coordinates": [ -156.436893210150686, 20.706088820483028 ] } },
{ "type": "Feature", "properties": { "objectid": 105, "name": "E2", "island": "Maui" }, "geometry": { "type": "Point", "coordinates": [ -156.380065816605594, 20.917490610407299 ] } },
{ "type": "Feature", "properties": { "objectid": 106, "name": "E3", "island": "Maui" }, "geometry": { "type": "Point", "coordinates": [ -156.684746679656286, 20.905336389643256 ] } },
{ "type": "Feature", "properties": { "objectid": 107, "name": "E4", "island": "Molokai" }, "geometry": { "type": "Point", "coordinates": [ -157.009835947061163, 21.089028533326115 ] } },
{ "type": "Feature", "properties": { "objectid": 108, "name": "E5", "island": "Maui" }, "geometry": { "type": "Point", "coordinates": [ -156.330630880081401, 20.835772380644485 ] } },
{ "type": "Feature", "properties": { "objectid": 109, "name": "E6", "island": "Maui" }, "geometry": { "type": "Point", "coordinates": [ -156.453380603787963, 20.734758142985378 ] } },
{ "type": "Feature", "properties": { "objectid": 110, "name": "E7", "island": "Maui" }, "geometry": { "type": "Point", "coordinates": [ -155.993197118200328, 20.761924047783136 ] } },
{ "type": "Feature", "properties": { "objectid": 111, "name": "E8", "island": "Lanai" }, "geometry": { "type": "Point", "coordinates": [ -156.918690394193789, 20.818606101146418 ] } },
{ "type": "Feature", "properties": { "objectid": 112, "name": "E9", "island": "Molokai" }, "geometry": { "type": "Point", "coordinates": [ -157.050280493480301, 21.16338734772528 ] } }
]
}
