{
"type": "FeatureCollection",
"name": "Hospitals",
"crs": { "type": "name", "properties": { "name": "urn:ogc:def:crs:OGC:1.3:CRS84" } },
"features": [
{ "type": "Feature", "properties": { "objectid": 1, "name": "ADVENTIST HEALTH CASTLE", "licensed_b": 160, "island": "OAHU", "mailing_ad": "640 Ulukahiki Street, Kailua, Hawaii 96734", "physical_a": "640 Ulukahiki Street, Kailua, Hawaii 96734", "phone": "(808) 263-5500", "alt_phone": null, "fax": "(808) 263-5123", "poc": "Kathy Raethel, President/CEO", "website": "https://www.adventisthealth.org/castle/", "accred_sta": "TJC", "cert_statu": "X", "critical_a": null, "provider_n": 120006.0 }, "geometry": { "type": "Point", "coordinates": [ -157.757103615915241, 21.381406361027899 ] } },
{ "type": "Feature", "properties": { "objectid": 2, "name": "HALE HO’OLA HAMAKUA", "licensed_b": 11, "island": "HAWAII", "mailing_ad": "45-547 Plumeria Street, Honokaa, Hawaii 96727", "physical_a": "45-547 Plumeria Street, Honokaa, Hawaii 96727", "phone": "(808) 932-4100", "alt_phone": null, "fax": "(808) 775-9977", "poc": "David A. Culbreth, Administrator", "website": "https://www.halehoolahamakua.org/", "accred_sta": null, "cert_statu": "X", "critical_a": "X", "provider_n": 121307.0 }, "geometry": { "type": "Point", "coordinates": [ -155.470496262657804, 20.076393984545614 ] } },
{ "type": "Feature", "properties": { "objectid": 3, "name": "HAWAII STATE HOSPITAL", "licensed_b": 202, "island": "OAHU", "mailing_ad": "45-710 Keaahala Road, Kaneohe, Hawaii  96744", "physical_a": "45-710 Keaahala Road, Kaneohe, Hawaii  96744", "phone": "(808) 247-2191", "alt_phone": null, "fax": "(808) 247-7335", "poc": "Run F. Heidelberg, DNP, APRN-RX, Administrator", "website": "https://health.hawaii.gov/", "accred_sta": "TJC", "cert_statu": null, "critical_a": null, "provider_n": null }, "geometry": { "type": "Point", "coordinates": [ -157.810021385891361, 21.409491291898057 ] } },
{ "type": "Feature", "properties": { "objectid": 4, "name": "HILO MEDICAL CENTER", "licensed_b": 166, "island": "HAWAII", "mailing_ad": "1190 Waianuenue Avenue, Hilo, Hawaii  96720", "physical_a": "1190 Waianuenue Avenue, Hilo, Hawaii  96720", "phone": "(808) 932-3000", "alt_phone": null, "fax": "(808) 974-4746", "poc": "Dan Brinkman, Regional CEO", "website": "https://www.hilomedicalcenter.org/", "accred_sta": "TJC", "cert_statu": "X", "critical_a": null, "provider_n": 120005.0 }, "geometry": { "type": "Point", "coordinates": [ -155.112982850325693, 19.717528102983081 ] } },
{ "type": "Feature", "properties": { "objectid": 5, "name": "KAHI MOHALA", "licensed_b": 88, "island": "OAHU", "mailing_ad": "91-2301 Fort Weaver Road, Ewa Beach, Hawaii  96706", "physical_a": "91-2301 Fort Weaver Road, Ewa Beach, Hawaii  96706", "phone": "(808) 671-8511", "alt_phone": null, "fax": "(808) 677-2570", "poc": "Claudia Crist, CEO", "website": "https://www.sutterhealth.org/kahi", "accred_sta": "TJC", "cert_statu": "X", "critical_a": null, "provider_n": 124001.0 }, "geometry": { "type": "Point", "coordinates": [ -158.026048705401394, 21.371807831313706 ] } },
{ "type": "Feature", "properties": { "objectid": 6, "name": "KAHUKU MEDICAL CENTER", "licensed_b": 21, "island": "OAHU", "mailing_ad": "56-117 Pualalea Street, Kahuku, Hawaii 96731", "physical_a": "56-117 Pualalea Street, Kahuku, Hawaii 96731", "phone": "(808) 293-9221", "alt_phone": null, "fax": "(808) 293-2262", "poc": "Alan MacPhee, CEO", "website": "http://www.kmc-hi.org/", "accred_sta": null, "cert_statu": "X", "critical_a": "X", "provider_n": 121304.0 }, "geometry": { "type": "Point", "coordinates": [ -157.952220734749062, 21.677338859940249 ] } },
{ "type": "Feature", "properties": { "objectid": 7, "name": "KAISER FOUNDATION HOSPITAL", "licensed_b": 295, "island": "OAHU", "mailing_ad": "3288 Moanalua Road, Honolulu, Hawaii  96819", "physical_a": "3288 Moanalua Road, Honolulu, Hawaii  96819", "phone": "(808) 432-0000", "alt_phone": null, "fax": "(808) 432-7736", "poc": "Sam Balukoff, Hospital Administrator", "website": "https://healthy.kaiserpermanente.org/hawaii/facilities/kaiser-permanente-moanalua-medical-center-100434", "accred_sta": "TJC", "cert_statu": "X", "critical_a": null, "provider_n": 120011.0 }, "geometry": { "type": "Point", "coordinates": [ -157.900400148832546, 21.362571470752535 ] } },
{ "type": "Feature", "properties": { "objectid": 8, "name": "KAPIOLANI MEDICAL CENTER for WOMEN and CHILDREN", "licensed_b": 253, "island": "OAHU", "mailing_ad": "1319 Punahou Street, Honolulu, Hawaii 96826", "physical_a": "1319 Punahou Street, Honolulu, Hawaii 96826", "phone": "(808) 983-6000", "alt_phone": null, "fax": "(808) 983-6086", "poc": "David Underriner, Executive Vice President and CEO", "website": "https://www.hawaiipacifichealth.org/kapiolani/locations/kapiolani-medical-center/", "accred_sta": "TJC", "cert_statu": "X", "critical_a": null, "provider_n": 123300.0 }, "geometry": { "type": "Point", "coordinates": [ -157.834295283931311, 21.300264349943639 ] } },
{ "type": "Feature", "properties": { "objectid": 9, "name": "KAU HOSPITAL", "licensed_b": 21, "island": "HAWAII", "mailing_ad": "P.O. Box 40, Pahala, Hawaii 96777", "physical_a": "1 Kamani Street, Pahala, Hawaii 96777", "phone": "(808) 932-4200", "alt_phone": null, "fax": "(808) 928-8980", "poc": "Denise Mackey, Administrator", "website": "http://kauai.hhsc.org/", "accred_sta": null, "cert_statu": "X", "critical_a": "X", "provider_n": 121301.0 }, "geometry": { "type": "Point", "coordinates": [ -155.472003894341441, 19.2629167100506 ] } },
{ "type": "Feature", "properties": { "objectid": 10, "name": "KAUAI VETERANS MEMORIAL HOSPITAL", "licensed_b": 25, "island": "KAUAI", "mailing_ad": "P.O. Box 337, Waimea, Hawaii 96796", "physical_a": "4643 Waimea Canyon Road, Waimea, Hawaii 96796", "phone": "(808) 338-9431", "alt_phone": null, "fax": "(808) 338-9420", "poc": "Lance Segawa, Regional Chief Executive Officer", "website": "http://kauai.hhsc.org/", "accred_sta": "TJC", "cert_statu": "X", "critical_a": "X", "provider_n": 121300.0 }, "geometry": { "type": "Point", "coordinates": [ -159.665606910499349, 21.954635403463939 ] } },
{ "type": "Feature", "properties": { "objectid": 11, "name": "KOHALA HOSPITAL", "licensed_b": 6, "island": "HAWAII", "mailing_ad": "P.O. Box 10, Kapaau, Hawaii 96755", "physical_a": "54-383 Hospital Road, Kapaau, Hawaii 96755", "phone": "(808) 889-6211", "alt_phone": null, "fax": "(808) 889-6978", "poc": "Eugene (Gino) Amar, Administrator", "website": "https://kohala.hhsc.org/", "accred_sta": null, "cert_statu": "X", "critical_a": "X", "provider_n": 121302.0 }, "geometry": { "type": "Point", "coordinates": [ -155.812759874179761, 20.234701168770652 ] } },
{ "type": "Feature", "properties": { "objectid": 12, "name": "KONA COMMUNITY HOSPITAL", "licensed_b": 94, "island": "HAWAII", "mailing_ad": "79-1019 Haukapila Street, Kealakekua, Hawaii 96750", "physical_a": "79-1019 Haukapila Street, Kealakekua, Hawaii 96750", "phone": "(808) 322-9311", "alt_phone": null, "fax": "(808) 322-4479", "poc": "Jay E. Kreuzer, Regional Chief Executive Officer", "website": "https://kch.hhsc.org/", "accred_sta": "TJC", "cert_statu": "X", "critical_a": null, "provider_n": 120019.0 }, "geometry": { "type": "Point", "coordinates": [ -155.91867149414216, 19.520311743138031 ] } },
{ "type": "Feature", "properties": { "objectid": 13, "name": "KUAKINI MEDICAL CENTER", "licensed_b": 212, "island": "OAHU", "mailing_ad": "347 North Kuakini Street, Honolulu, Hawaii 96817", "physical_a": "347 North Kuakini Street, Honolulu, Hawaii 96817", "phone": "(808) 536-2236", "alt_phone": null, "fax": "(808) 547-9547", "poc": "Gregg Oishi, Acting Administrator", "website": "https://www.kuakini.org/wps/portal/", "accred_sta": "TJC", "cert_statu": "X", "critical_a": null, "provider_n": 120007.0 }, "geometry": { "type": "Point", "coordinates": [ -157.856380285519236, 21.322371501702232 ] } },
{ "type": "Feature", "properties": { "objectid": 14, "name": "KULA HOSPITAL", "licensed_b": 9, "island": "MAUI", "mailing_ad": "100 Keokea Place, Kula, Hawaii 96790-7450", "physical_a": "100 Keokea Place, Kula, Hawaii 96790-7450", "phone": "(808) 878-1221", "alt_phone": null, "fax": "(808) 878-1791", "poc": "Kerry D. Pitcher, Senior Director of LTC & CAH", "website": "https://www.mauihealth.org/locations/kula-hospital/", "accred_sta": null, "cert_statu": "X", "critical_a": "X", "provider_n": 121308.0 }, "geometry": { "type": "Point", "coordinates": [ -156.358542480860109, 20.702231515587997 ] } },
{ "type": "Feature", "properties": { "objectid": 15, "name": "LANAI COMMUNITY HOSPITAL", "licensed_b": 4, "island": "LANAI", "mailing_ad": "P.O. Box 630650, Lanai City, Hawaii 96763", "physical_a": "628 7th Street, Lanai City, Hawaii 96763", "phone": "(808) 565-8450", "alt_phone": null, "fax": "(808) 565-6887", "poc": "Kerry D. Pitcher, Senior Director of LTC & CAH", "website": "https://www.mauihealth.org/locations/lanai-community-hospital/", "accred_sta": null, "cert_statu": "X", "critical_a": "X", "provider_n": 121305.0 }, "geometry": { "type": "Point", "coordinates": [ -156.919989762866379, 20.826791037215976 ] } },
{ "type": "Feature", "properties": { "objectid": 16, "name": "LEAHI HOSPITAL", "licensed_b": 4, "island": "OAHU", "mailing_ad": "3675 Kilauea Avenue, Honolulu, Hawaii 96816", "physical_a": "3675 Kilauea Avenue, Honolulu, Hawaii 96816", "phone": "(808) 733-8000", "alt_phone": null, "fax": "(808) 733-7914", "poc": "Derek Akiyoshi, CEO", "website": "https://leahi.hhsc.org/", "accred_sta": null, "cert_statu": "X", "critical_a": null, "provider_n": 122001.0 }, "geometry": { "type": "Point", "coordinates": [ -157.801401604156268, 21.27371583030278 ] } },
{ "type": "Feature", "properties": { "objectid": 17, "name": "MAUI MEMORIAL MEDICAL CENTER", "licensed_b": 219, "island": "MAUI", "mailing_ad": "221 Mahalani Street, Wailuku, Hawaii 96793", "physical_a": "221 Mahalani Street, Wailuku, Hawaii 96793", "phone": "(808) 244-9056", "alt_phone": null, "fax": "(808) 242-2443", "poc": "Michael Rembis, Administrator and CEO", "website": "https://www.mauihealth.org/locations/maui-memorial-medical-center/", "accred_sta": "TJC", "cert_statu": "X", "critical_a": null, "provider_n": 120002.0 }, "geometry": { "type": "Point", "coordinates": [ -156.488676829170458, 20.884143109736165 ] } },
{ "type": "Feature", "properties": { "objectid": 18, "name": "MOLOKAI GENERAL HOSPITAL", "licensed_b": 15, "island": "MOLOKAI", "mailing_ad": "P.O. Box 408, Kaunakakai, Hawaii 96748", "physical_a": "280 Home Olu Place, Kaunakakai, Hawaii 96748", "phone": "(808) 553-5331", "alt_phone": null, "fax": "(808) 553-3133", "poc": "Janice Kalanihuia, President", "website": "https://www.queens.org/molokai/molokai-general-hospital", "accred_sta": "TJC", "cert_statu": "X", "critical_a": "X", "provider_n": 121303.0 }, "geometry": { "type": "Point", "coordinates": [ -157.015514420877395, 21.090150607613662 ] } },
{ "type": "Feature", "properties": { "objectid": 19, "name": "QUEEN’S NORTH HAWAII COMMUNITY HOSPITAL", "licensed_b": 35, "island": "HAWAII", "mailing_ad": "P.O. Box 2799, Kamuela, Hawaii 96743", "physical_a": "67-1125 Mamalahoa Highway, Kamuela, Hawaii 96743", "phone": "(808) 885-4444", "alt_phone": null, "fax": "(808) 881-4404", "poc": "Dr. Crystal Hammer, Administrator", "website": "https://www.queens.org/north-hawaii/north-hawaii-community-hospital", "accred_sta": "TJC", "cert_statu": "X", "critical_a": null, "provider_n": 120028.0 }, "geometry": { "type": "Point", "coordinates": [ -155.671533787981673, 20.021927818778746 ] } },
{ "type": "Feature", "properties": { "objectid": 20, "name": "PALI MOMI MEDICAL CENTER", "licensed_b": 118, "island": "OAHU", "mailing_ad": "98-1079 Moanalua Road, Aiea, Hawaii 96701", "physical_a": "98-1079 Moanalua Road, Aiea, Hawaii 96701", "phone": "(808) 486-6000", "alt_phone": null, "fax": "(808) 486-1382", "poc": "David Unnderriner, Executive Vice President and CEO", "website": "https://www.hawaiipacifichealth.org/pali-momi/", "accred_sta": "TJC", "cert_statu": "X", "critical_a": null, "provider_n": 120026.0 }, "geometry": { "type": "Point", "coordinates": [ -157.93871811835885, 21.383402039704333 ] } },
{ "type": "Feature", "properties": { "objectid": 21, "name": "REHABILITATION HOSPITAL OF THE PACIFIC", "licensed_b": 82, "island": "OAHU", "mailing_ad": "226 North Kuakini Street, Honolulu, Hawaii 96817", "physical_a": "226 North Kuakini Street, Honolulu, Hawaii 96817", "phone": "(808) 531-3511", "alt_phone": null, "fax": "(808) 544-3336", "poc": "Timothy J. Roe, MD, President and CEO", "website": "https://www.rehabhospital.org/", "accred_sta": "TJC", "cert_statu": "X", "critical_a": null, "provider_n": 123025.0 }, "geometry": { "type": "Point", "coordinates": [ -157.855097961483096, 21.32106948842862 ] } },
{ "type": "Feature", "properties": { "objectid": 22, "name": "SAMUEL MAHELONA  MEMORIAL HOSPITAL", "licensed_b": 14, "island": "KAUAI", "mailing_ad": "4800 Kawaihau Road, Kapaa, Hawaii 96746", "physical_a": "4800 Kawaihau Road, Kapaa, Hawaii 96746", "phone": "(808) 822-4961", "alt_phone": null, "fax": "(808) 822-5781", "poc": "Lance Segawa, Regional Chief Executive Officer", "website": "http://kauai.hhsc.org/facilities/samuel-mahelona-memorial-hospital-smmh/", "accred_sta": null, "cert_statu": "X", "critical_a": "X", "provider_n": 121306.0 }, "geometry": { "type": "Point", "coordinates": [ -159.314134354018194, 22.087706862808908 ] } },
{ "type": "Feature", "properties": { "objectid": 23, "name": "SHRINERS HOSPITAL FOR  CHILDREN", "licensed_b": 24, "island": "OAHU", "mailing_ad": "1310 Punahou Street, Honolulu, Hawaii 96826", "physical_a": "1310 Punahou Street, Honolulu, Hawaii 96826", "phone": "(808) 941-4466", "alt_phone": null, "fax": "(808) 941-4466", "poc": "Anton C. Smith, Hospital Administrator", "website": "https://www.shrinershospitalsforchildren.org/shc", "accred_sta": "TJC", "cert_statu": "X", "critical_a": null, "provider_n": 123301.0 }, "geometry": { "type": "Point", "coordinates": [ -157.834423269904931, 21.300176974829064 ] } },
{ "type": "Feature", "properties": { "objectid": 24, "name": "STRAUB CLINIC AND HOSPITAL", "licensed_b": 159, "island": "OAHU", "mailing_ad": "888 South King Street, Honolulu, Hawaii 96813", "physical_a": "888 South King Street, Honolulu, Hawaii 96813", "phone": "(808) 522-4000", "alt_phone": null, "fax": "(808) 522-4141", "poc": "David Underriner, Executive Vice President and CEO", "website": "https://www.hawaiipacifichealth.org/straub/", "accred_sta": "TJC", "cert_statu": "X", "critical_a": null, "provider_n": 120022.0 }, "geometry": { "type": "Point", "coordinates": [ -157.850739047553958, 21.302246905106742 ] } },
{ "type": "Feature", "properties": { "objectid": 25, "name": "THE QUEEN’S MEDICAL CENTER", "licensed_b": 535, "island": "OAHU", "mailing_ad": "1301 Punchbowl Street, Honolulu, Hawaii 96813", "physical_a": "1301 Punchbowl Street, Honolulu, Hawaii 96813", "phone": "(808) 538-9011", "alt_phone": null, "fax": "(808) 547-4018", "poc": "Dr. Jill Hoggard Green, President and CEO", "website": "https://www.queens.org/the-queens-medical-center/queens-medical-center", "accred_sta": "TJC", "cert_statu": "X", "critical_a": null, "provider_n": 120001.0 }, "geometry": { "type": "Point", "coordinates": [ -157.85521118052398, 21.307541103152527 ] } },
{ "type": "Feature", "properties": { "objectid": 26, "name": "THE QUEEN’S MEDICAL CENTER – HALE PULAMA MAU", "licensed_b": 40, "island": "OAHU", "mailing_ad": "Kuakini Medical Center, 347 N. Kuakini Street, 7th Floor, Honolulu, Hawaii 96817", "physical_a": "Kuakini Medical Center, 347 N. Kuakini Street, 7th Floor, Honolulu, Hawaii 96817", "phone": "(808) 691-8731", "alt_phone": null, "fax": "(808) 547-4018", "poc": "Jason C. Chang, Executive Vice President and COO", "website": "https://www.queens.org/the-queens-medical-center/services/hale-pulama-mau/contact-us-hale-pulama-mau-qmc", "accred_sta": "TJC", "cert_statu": "X", "critical_a": null, "provider_n": 120001.0 }, "geometry": { "type": "Point", "coordinates": [ -157.863114770009673, 21.327065731406691 ] } },
{ "type": "Feature", "properties": { "objectid": 27, "name": "THE QUEEN’S MEDICAL CENTER – WEST OAHU", "licensed_b": 104, "island": "OAHU", "mailing_ad": "91-2141 Fort Weaver Road, Ewa Beach, Hawaii 96706", "physical_a": "91-2141 Fort Weaver Road, Ewa Beach, Hawaii 96706", "phone": "(808) 691-3000", "alt_phone": null, "fax": "(808) 547-4018", "poc": "Susan Murray, COO", "website": "https://www.queens.org/west-oahu/queens-medical-center-west-oahu", "accred_sta": "TJC", "cert_statu": "X", "critical_a": null, "provider_n": 120001.0 }, "geometry": { "type": "Point", "coordinates": [ -158.026070745015858, 21.371136312391837 ] } },
{ "type": "Feature", "properties": { "objectid": 28, "name": "WAHIAWA GENERAL HOSPITAL", "licensed_b": 42, "island": "OAHU", "mailing_ad": "128 Lehua Street, Wahiawa, Hawaii 96786", "physical_a": "128 Lehua Street, Wahiawa, Hawaii 96786", "phone": "(808) 621-8411", "alt_phone": null, "fax": "(808) 621-4490", "poc": "Brian Cunningham, CEO", "website": "https://wahiawageneral.org/", "accred_sta": "TJC", "cert_statu": "X", "critical_a": null, "provider_n": 120004.0 }, "geometry": { "type": "Point", "coordinates": [ -158.027311989203412, 21.498711854169454 ] } },
{ "type": "Feature", "properties": { "objectid": 29, "name": "WILCOX MEMORIAL HOSPITAL", "licensed_b": 72, "island": "KAUAI", "mailing_ad": "3-3420 Kuhio Highway, Lihue, Hawaii 96766", "physical_a": "3-3420 Kuhio Highway, Lihue, Hawaii 96766", "phone": "(808) 245-1100", "alt_phone": null, "fax": "(808) 245-1171", "poc": "Jen Chahanovich, President and CEO", "website": "https://www.hawaiipacifichealth.org/wilcox/", "accred_sta": "TJC", "cert_statu": "X", "critical_a": null, "provider_n": 120014.0 }, "geometry": { "type": "Point", "coordinates": [ -159.366397774872979, 21.9855807404921 ] } }
]
}
