{
"type": "FeatureCollection",
"name": "Police_Stations_(Statewide)",
"crs": { "type": "name", "properties": { "name": "urn:ogc:def:crs:OGC:1.3:CRS84" } },
"features": [
{ "type": "Feature", "properties": { "objectid": 1, "name": "KAUAI COUNTY POLICE DEPARTMENT", "island": "Kauai" }, "geometry": { "type": "Point", "coordinates": [ -159.354983386890893, 21.977018122551776 ] } },
{ "type": "Feature", "properties": { "objectid": 2, "name": "HANALEI POLICE SUBSTATION", "island": "Kauai" }, "geometry": { "type": "Point", "coordinates": [ -159.479153420494782, 22.212255397636913 ] } },
{ "type": "Feature", "properties": { "objectid": 3, "name": "WAIMEA POLICE SUBSTATION", "island": "Kauai" }, "geometry": { "type": "Point", "coordinates": [ -159.667143875523152, 21.956696182828978 ] } },
{ "type": "Feature", "properties": { "objectid": 4, "name": "KAPAA POLICE SUBSTATION", "island": "Kauai" }, "geometry": { "type": "Point", "coordinates": [ -159.319575738798989, 22.077692366613974 ] } },
{ "type": "Feature", "properties": { "objectid": 5, "name": "KOLOA POLICE SUBSTATION", "island": "Kauai" }, "geometry": { "type": "Point", "coordinates": [ -159.464279148959292, 21.903423884628221 ] } },
{ "type": "Feature", "properties": { "objectid": 6, "name": "Hilo Station", "island": "Hawaii" }, "geometry": { "type": "Point", "coordinates": [ -155.085222151211156, 19.714881976838594 ] } },
{ "type": "Feature", "properties": { "objectid": 7, "name": "Laupahoehoe Station", "island": "Hawaii" }, "geometry": { "type": "Point", "coordinates": [ -155.232710478180053, 19.982986249255575 ] } },
{ "type": "Feature", "properties": { "objectid": 8, "name": "Honokaa Station", "island": "Hawaii" }, "geometry": { "type": "Point", "coordinates": [ -155.462511599913455, 20.077147633340779 ] } },
{ "type": "Feature", "properties": { "objectid": 9, "name": "Waimea Station", "island": "Hawaii" }, "geometry": { "type": "Point", "coordinates": [ -155.661655929228004, 20.023847119187376 ] } },
{ "type": "Feature", "properties": { "objectid": 10, "name": "Kalahuipua'a", "island": "Hawaii" }, "geometry": { "type": "Point", "coordinates": [ -155.833870773823037, 19.946707428320853 ] } },
{ "type": "Feature", "properties": { "objectid": 11, "name": "Kapaau Station", "island": "Hawaii" }, "geometry": { "type": "Point", "coordinates": [ -155.79827029350443, 20.229908969345008 ] } },
{ "type": "Feature", "properties": { "objectid": 12, "name": "Kona Station", "island": "Hawaii" }, "geometry": { "type": "Point", "coordinates": [ -156.006960879700245, 19.663716661034048 ] } },
{ "type": "Feature", "properties": { "objectid": 13, "name": "Captain Cook", "island": "Hawaii" }, "geometry": { "type": "Point", "coordinates": [ -155.909440828298528, 19.488932310337319 ] } },
{ "type": "Feature", "properties": { "objectid": 14, "name": "Ocean View", "island": "Hawaii" }, "geometry": { "type": "Point", "coordinates": [ -155.776132442228146, 19.084354297963412 ] } },
{ "type": "Feature", "properties": { "objectid": 15, "name": "Naalehu Station", "island": "Hawaii" }, "geometry": { "type": "Point", "coordinates": [ -155.567002457796747, 19.067983898942153 ] } },
{ "type": "Feature", "properties": { "objectid": 16, "name": "Pahoa Station", "island": "Hawaii" }, "geometry": { "type": "Point", "coordinates": [ -154.957951523175666, 19.508741066161399 ] } },
{ "type": "Feature", "properties": { "objectid": 17, "name": "Keaau", "island": "Hawaii" }, "geometry": { "type": "Point", "coordinates": [ -155.04015502433748, 19.620956711571459 ] } },
{ "type": "Feature", "properties": { "objectid": 18, "name": "Clem Akina Park", "island": "Hawaii" }, "geometry": { "type": "Point", "coordinates": [ -155.092052452240097, 19.728863252224599 ] } },
{ "type": "Feature", "properties": { "objectid": 19, "name": "Mooheau", "island": "Hawaii" }, "geometry": { "type": "Point", "coordinates": [ -155.08458758550313, 19.724028382038775 ] } },
{ "type": "Feature", "properties": { "objectid": 20, "name": "Richardson", "island": "Hawaii" }, "geometry": { "type": "Point", "coordinates": [ -155.013352255208645, 19.735379105715253 ] } },
{ "type": "Feature", "properties": { "objectid": 21, "name": "Pepeekeo", "island": "Hawaii" }, "geometry": { "type": "Point", "coordinates": [ -155.104861385681943, 19.83518525490015 ] } },
{ "type": "Feature", "properties": { "objectid": 22, "name": "Honokaa Station", "island": "Hawaii" }, "geometry": { "type": "Point", "coordinates": [ -155.4678060496407, 20.078908099462605 ] } },
{ "type": "Feature", "properties": { "objectid": 23, "name": "Kailua Village", "island": "Hawaii" }, "geometry": { "type": "Point", "coordinates": [ -155.99442755124258, 19.639790313048742 ] } },
{ "type": "Feature", "properties": { "objectid": 24, "name": "Keauhou", "island": "Hawaii" }, "geometry": { "type": "Point", "coordinates": [ -155.961987388838452, 19.57109794556915 ] } },
{ "type": "Feature", "properties": { "objectid": 25, "name": "Waiakea Uka", "island": "Hawaii" }, "geometry": { "type": "Point", "coordinates": [ -155.106515167998879, 19.665788774974516 ] } },
{ "type": "Feature", "properties": { "objectid": 26, "name": "Holomua", "island": "Hawaii" }, "geometry": { "type": "Point", "coordinates": [ -155.065806201394878, 19.701979096209591 ] } },
{ "type": "Feature", "properties": { "objectid": 27, "name": "Waikoloa", "island": "Hawaii" }, "geometry": { "type": "Point", "coordinates": [ -155.793844076524095, 19.924956494940496 ] } },
{ "type": "Feature", "properties": { "objectid": 28, "name": "MPD", "island": "Maui" }, "geometry": { "type": "Point", "coordinates": [ -156.488115648280882, 20.888163045526685 ] } },
{ "type": "Feature", "properties": { "objectid": 29, "name": "MOLOKAI POLICE", "island": "Molokai" }, "geometry": { "type": "Point", "coordinates": [ -157.018114627874724, 21.090642673327611 ] } },
{ "type": "Feature", "properties": { "objectid": 30, "name": "LANAI POLICE", "island": "Lanai" }, "geometry": { "type": "Point", "coordinates": [ -156.921001812755748, 20.823444289315958 ] } },
{ "type": "Feature", "properties": { "objectid": 31, "name": "LAHAINA POLICE", "island": "Maui" }, "geometry": { "type": "Point", "coordinates": [ -156.684457701111199, 20.904658213883167 ] } },
{ "type": "Feature", "properties": { "objectid": 32, "name": "KIHEI POLICE PIILANI HWY", "island": "Maui" }, "geometry": { "type": "Point", "coordinates": [ -156.440728630227625, 20.727053234112024 ] } },
{ "type": "Feature", "properties": { "objectid": 33, "name": "HANA POLICE", "island": "Maui" }, "geometry": { "type": "Point", "coordinates": [ -155.993536045089115, 20.763026527556672 ] } },
{ "type": "Feature", "properties": { "objectid": 34, "name": "Kahuku Substation", "island": "Oahu" }, "geometry": { "type": "Point", "coordinates": [ -157.946172694882563, 21.674715506117245 ] } },
{ "type": "Feature", "properties": { "objectid": 35, "name": "Wahiawa District Station", "island": "Oahu" }, "geometry": { "type": "Point", "coordinates": [ -158.025269884304691, 21.502489712101671 ] } },
{ "type": "Feature", "properties": { "objectid": 36, "name": "Waianae Substation", "island": "Oahu" }, "geometry": { "type": "Point", "coordinates": [ -158.187497287569499, 21.443287599574838 ] } },
{ "type": "Feature", "properties": { "objectid": 37, "name": "Kailua Substation", "island": "Oahu" }, "geometry": { "type": "Point", "coordinates": [ -157.739871998321661, 21.396257210210056 ] } },
{ "type": "Feature", "properties": { "objectid": 38, "name": "Kaneohe District Station", "island": "Oahu" }, "geometry": { "type": "Point", "coordinates": [ -157.798752151971257, 21.413403940487065 ] } },
{ "type": "Feature", "properties": { "objectid": 39, "name": "Pearl City District Station", "island": "Oahu" }, "geometry": { "type": "Point", "coordinates": [ -157.96971769387244, 21.396209604687659 ] } },
{ "type": "Feature", "properties": { "objectid": 40, "name": "Kalihi District Station", "island": "Oahu" }, "geometry": { "type": "Point", "coordinates": [ -157.870650321395516, 21.344077589077461 ] } },
{ "type": "Feature", "properties": { "objectid": 41, "name": "Chinatown Substation", "island": "Oahu" }, "geometry": { "type": "Point", "coordinates": [ -157.862793906668628, 21.312029956542951 ] } },
{ "type": "Feature", "properties": { "objectid": 42, "name": "Waikiki Substation", "island": "Oahu" }, "geometry": { "type": "Point", "coordinates": [ -157.8257803508682, 21.275976478736279 ] } },
{ "type": "Feature", "properties": { "objectid": 43, "name": "Kapolei District Station", "island": "Oahu" }, "geometry": { "type": "Point", "coordinates": [ -158.08136835064505, 21.335813250104021 ] } },
{ "type": "Feature", "properties": { "objectid": 44, "name": "Alapai Police Headquarters", "island": "Oahu" }, "geometry": { "type": "Point", "coordinates": [ -157.851507251888535, 21.303962066526964 ] } }
]
}
