{
"type": "FeatureCollection",
"name": "2020_Census_County_Boundaries_Stripped",
"crs": { "type": "name", "properties": { "name": "urn:ogc:def:crs:OGC:1.3:CRS84" } },
"xy_coordinate_resolution": 0.0001,
"features": [
{ "type": "Feature", "properties": { "NAME20": "Kalawao", "POP20": 82 }, "geometry": { "type": "MultiPolygon", "coordinates": [ [ [ [ -156.9496, 21.1915 ], [ -156.9499, 21.1909 ], [ -156.9499, 21.1914 ], [ -156.9496, 21.1915 ] ] ], [ [ [ -156.9704, 21.215 ], [ -156.9655, 21.2136 ], [ -156.9639, 21.2102 ], [ -156.9609, 21.2096 ], [ -156.9579, 21.2065 ], [ -156.9571, 21.2007 ], [ -156.9488, 21.1885 ], [ -156.9481, 21.1796 ], [ -156.945, 21.177 ], [ -156.9443, 21.1733 ], [ -156.9319, 21.1691 ], [ -156.9288, 21.1706 ], [ -156.9288, 21.1728 ], [ -156.9267, 21.1696 ], [ -156.9194, 21.1686 ], [ -156.9172, 21.1702 ], [ -156.921, 21.1629 ], [ -156.9171, 21.1637 ], [ -156.9092, 21.1559 ], [ -156.907, 21.1516 ], [ -156.9023, 21.1491 ], [ -156.8961, 21.1494 ], [ -156.9003, 21.1454 ], [ -156.8989, 21.1408 ], [ -156.9008, 21.1391 ], [ -156.9017, 21.1343 ], [ -156.9002, 21.1316 ], [ -156.9181, 21.1295 ], [ -156.9213, 21.131 ], [ -156.9294, 21.1389 ], [ -156.9351, 21.1508 ], [ -156.938, 21.1546 ], [ -156.9416, 21.1562 ], [ -156.9421, 21.1602 ], [ -156.9483, 21.1542 ], [ -156.951, 21.1535 ], [ -156.9564, 21.1559 ], [ -156.9589, 21.1609 ], [ -156.9588, 21.1752 ], [ -156.9614, 21.1797 ], [ -156.9632, 21.1796 ], [ -156.9616, 21.1761 ], [ -156.9648, 21.166 ], [ -156.9626, 21.1623 ], [ -156.9599, 21.1615 ], [ -156.9625, 21.1594 ], [ -156.9654, 21.1593 ], [ -156.9716, 21.1657 ], [ -156.9736, 21.1752 ], [ -156.9793, 21.1781 ], [ -156.984, 21.1792 ], [ -156.9929, 21.1777 ], [ -157.0041, 21.1785 ], [ -157.0029, 21.1761 ], [ -157.0061, 21.1791 ], [ -157.0146, 21.1823 ], [ -157.0143, 21.1839 ], [ -157.0002, 21.179 ], [ -156.9879, 21.1827 ], [ -156.9849, 21.1865 ], [ -156.9853, 21.1917 ], [ -156.9838, 21.1925 ], [ -156.9819, 21.2009 ], [ -156.9798, 21.202 ], [ -156.9794, 21.2048 ], [ -156.9816, 21.207 ], [ -156.9769, 21.2106 ], [ -156.9754, 21.2142 ], [ -156.9741, 21.2133 ], [ -156.9704, 21.215 ] ] ], [ [ [ -156.9708, 21.2155 ], [ -156.9706, 21.2152 ], [ -156.9709, 21.2154 ], [ -156.9708, 21.2155 ] ] ], [ [ [ -156.9786, 21.2169 ], [ -156.9785, 21.2166 ], [ -156.9787, 21.2167 ], [ -156.9786, 21.2169 ] ] ], [ [ [ -156.9765, 21.2177 ], [ -156.9768, 21.2176 ], [ -156.9766, 21.2179 ], [ -156.9765, 21.2177 ] ] ], [ [ [ -156.9736, 21.2187 ], [ -156.9737, 21.2185 ], [ -156.9737, 21.2187 ], [ -156.9736, 21.2187 ] ] ], [ [ [ -156.9739, 21.2189 ], [ -156.9741, 21.2187 ], [ -156.9741, 21.2189 ], [ -156.9739, 21.2189 ] ] ] ] } },
{ "type": "Feature", "properties": { "NAME20": "Kauai", "POP20": 73298 }, "geometry": { "type": "MultiPolygon", "coordinates": [ [ [ [ -160.0851, 21.9969 ], [ -160.0747, 21.997 ], [ -160.0713, 21.9982 ], [ -160.07, 22.0006 ], [ -160.0645, 21.9971 ], [ -160.0606, 21.9968 ], [ -160.0606, 21.9947 ], [ -160.0577, 21.9952 ], [ -160.0513, 21.9876 ], [ -160.049, 21.9807 ], [ -160.0497, 21.9774 ], [ -160.0533, 21.975 ], [ -160.0575, 21.9738 ], [ -160.0587, 21.9754 ], [ -160.061, 21.9751 ], [ -160.0639, 21.9697 ], [ -160.0676, 21.967 ], [ -160.0699, 21.9573 ], [ -160.0753, 21.9522 ], [ -160.0791, 21.9385 ], [ -160.0826, 21.9244 ], [ -160.0799, 21.9132 ], [ -160.0729, 21.9001 ], [ -160.0735, 21.8938 ], [ -160.0778, 21.8954 ], [ -160.0803, 21.8944 ], [ -160.0852, 21.8894 ], [ -160.0893, 21.8902 ], [ -160.0963, 21.8836 ], [ -160.0992, 21.8858 ], [ -160.1074, 21.8784 ], [ -160.1108, 21.8813 ], [ -160.1133, 21.8786 ], [ -160.1146, 21.8795 ], [ -160.1198, 21.8764 ], [ -160.122, 21.8775 ], [ -160.1244, 21.8761 ], [ -160.1266, 21.8796 ], [ -160.1286, 21.8743 ], [ -160.1401, 21.8721 ], [ -160.1408, 21.8735 ], [ -160.145, 21.8727 ], [ -160.1593, 21.8642 ], [ -160.1667, 21.8546 ], [ -160.1672, 21.8503 ], [ -160.1725, 21.8459 ], [ -160.1742, 21.8394 ], [ -160.1733, 21.8385 ], [ -160.1766, 21.8377 ], [ -160.19, 21.8165 ], [ -160.1915, 21.8107 ], [ -160.1943, 21.8076 ], [ -160.1925, 21.804 ], [ -160.1987, 21.798 ], [ -160.203, 21.7885 ], [ -160.1985, 21.7853 ], [ -160.2028, 21.7792 ], [ -160.2068, 21.7844 ], [ -160.2079, 21.7826 ], [ -160.2144, 21.7822 ], [ -160.2231, 21.7908 ], [ -160.2282, 21.7877 ], [ -160.2336, 21.7894 ], [ -160.2326, 21.7971 ], [ -160.2369, 21.8037 ], [ -160.2459, 21.8408 ], [ -160.2451, 21.844 ], [ -160.2402, 21.847 ], [ -160.2333, 21.8565 ], [ -160.2314, 21.8624 ], [ -160.2328, 21.8656 ], [ -160.232, 21.8728 ], [ -160.2287, 21.8758 ], [ -160.2285, 21.8824 ], [ -160.2252, 21.8871 ], [ -160.222, 21.8877 ], [ -160.2103, 21.896 ], [ -160.2005, 21.9058 ], [ -160.1993, 21.9093 ], [ -160.1877, 21.9183 ], [ -160.1866, 21.9225 ], [ -160.1779, 21.9239 ], [ -160.1649, 21.929 ], [ -160.162, 21.9359 ], [ -160.1524, 21.9377 ], [ -160.1352, 21.9446 ], [ -160.1241, 21.9524 ], [ -160.1193, 21.9592 ], [ -160.1177, 21.9662 ], [ -160.1133, 21.9729 ], [ -160.1143, 21.9755 ], [ -160.113, 21.9801 ], [ -160.1142, 21.9817 ], [ -160.1096, 21.9848 ], [ -160.111, 21.9879 ], [ -160.1097, 21.9921 ], [ -160.1065, 21.9922 ], [ -160.1036, 21.9953 ], [ -160.0994, 21.9939 ], [ -160.0934, 21.9984 ], [ -160.0919, 22.0024 ], [ -160.0883, 22.0026 ], [ -160.0851, 21.9969 ] ] ], [ [ [ -159.4013, 22.2293 ], [ -159.3976, 22.2302 ], [ -159.3945, 22.2242 ], [ -159.3916, 22.2238 ], [ -159.3907, 22.2254 ], [ -159.391, 22.2234 ], [ -159.3875, 22.222 ], [ -159.3822, 22.2248 ], [ -159.3833, 22.2211 ], [ -159.3858, 22.2195 ], [ -159.3836, 22.2162 ], [ -159.3759, 22.2169 ], [ -159.3621, 22.2112 ], [ -159.3503, 22.2148 ], [ -159.3497, 22.2132 ], [ -159.3477, 22.2133 ], [ -159.348, 22.2118 ], [ -159.3352, 22.2039 ], [ -159.3348, 22.202 ], [ -159.3216, 22.1889 ], [ -159.3148, 22.1854 ], [ -159.3112, 22.1785 ], [ -159.314, 22.172 ], [ -159.3105, 22.17 ], [ -159.3085, 22.1664 ], [ -159.3095, 22.1628 ], [ -159.305, 22.1579 ], [ -159.3054, 22.1484 ], [ -159.3003, 22.1462 ], [ -159.2961, 22.1481 ], [ -159.2932, 22.1433 ], [ -159.2933, 22.1343 ], [ -159.2949, 22.1331 ], [ -159.2924, 22.1274 ], [ -159.2941, 22.124 ], [ -159.2933, 22.1222 ], [ -159.2959, 22.1216 ], [ -159.2942, 22.1199 ], [ -159.2967, 22.1148 ], [ -159.2946, 22.1104 ], [ -159.2967, 22.1049 ], [ -159.302, 22.0986 ], [ -159.3034, 22.0996 ], [ -159.3051, 22.0977 ], [ -159.3071, 22.0936 ], [ -159.3046, 22.0902 ], [ -159.315, 22.0772 ], [ -159.3153, 22.0784 ], [ -159.3185, 22.0606 ], [ -159.3221, 22.0552 ], [ -159.3338, 22.0501 ], [ -159.3359, 22.0449 ], [ -159.3345, 22.0413 ], [ -159.3383, 22.0283 ], [ -159.3385, 22.0176 ], [ -159.3354, 22.0041 ], [ -159.3326, 21.9987 ], [ -159.3362, 21.9948 ], [ -159.3409, 21.9949 ], [ -159.3403, 21.9911 ], [ -159.3411, 21.9913 ], [ -159.3406, 21.991 ], [ -159.3333, 21.9913 ], [ -159.3323, 21.994 ], [ -159.3299, 21.9916 ], [ -159.3309, 21.9896 ], [ -159.3333, 21.9891 ], [ -159.3338, 21.9845 ], [ -159.3299, 21.9612 ], [ -159.3358, 21.9545 ], [ -159.3398, 21.9585 ], [ -159.348, 21.9563 ], [ -159.3485, 21.96 ], [ -159.3529, 21.9609 ], [ -159.3525, 21.953 ], [ -159.3537, 21.955 ], [ -159.3586, 21.9539 ], [ -159.3592, 21.953 ], [ -159.3579, 21.9512 ], [ -159.3579, 21.9495 ], [ -159.361, 21.9494 ], [ -159.3571, 21.949 ], [ -159.3609, 21.9491 ], [ -159.3611, 21.9494 ], [ -159.3608, 21.951 ], [ -159.361, 21.9513 ], [ -159.3621, 21.9481 ], [ -159.3517, 21.9481 ], [ -159.3485, 21.9534 ], [ -159.3506, 21.9488 ], [ -159.3482, 21.9478 ], [ -159.3489, 21.9453 ], [ -159.3478, 21.9442 ], [ -159.3505, 21.9417 ], [ -159.3463, 21.9374 ], [ -159.354, 21.9361 ], [ -159.3549, 21.9317 ], [ -159.3623, 21.9314 ], [ -159.3665, 21.9291 ], [ -159.3683, 21.9252 ], [ -159.3832, 21.9195 ], [ -159.382, 21.9174 ], [ -159.385, 21.915 ], [ -159.384, 21.9139 ], [ -159.3853, 21.9124 ], [ -159.3886, 21.9124 ], [ -159.39, 21.9092 ], [ -159.3902, 21.9069 ], [ -159.3872, 21.9033 ], [ -159.3911, 21.9014 ], [ -159.3972, 21.903 ], [ -159.4035, 21.8991 ], [ -159.4056, 21.8949 ], [ -159.4044, 21.8934 ], [ -159.4103, 21.8898 ], [ -159.4173, 21.888 ], [ -159.419, 21.8822 ], [ -159.4292, 21.8803 ], [ -159.4335, 21.8745 ], [ -159.4395, 21.8739 ], [ -159.4444, 21.8683 ], [ -159.4513, 21.873 ], [ -159.4551, 21.8721 ], [ -159.4595, 21.8755 ], [ -159.4675, 21.8773 ], [ -159.469, 21.8799 ], [ -159.469, 21.8784 ], [ -159.4709, 21.8782 ], [ -159.4734, 21.881 ], [ -159.4796, 21.8822 ], [ -159.4825, 21.881 ], [ -159.4847, 21.8835 ], [ -159.4884, 21.8835 ], [ -159.488, 21.8858 ], [ -159.5, 21.884 ], [ -159.5031, 21.8886 ], [ -159.5028, 21.8854 ], [ -159.5128, 21.8881 ], [ -159.5255, 21.8848 ], [ -159.5266, 21.8826 ], [ -159.5318, 21.8869 ], [ -159.5422, 21.887 ], [ -159.5457, 21.8886 ], [ -159.5517, 21.8873 ], [ -159.5544, 21.8891 ], [ -159.5613, 21.8897 ], [ -159.5698, 21.8942 ], [ -159.575, 21.8926 ], [ -159.5759, 21.8949 ], [ -159.5742, 21.8965 ], [ -159.5753, 21.8975 ], [ -159.5785, 21.8953 ], [ -159.5831, 21.8962 ], [ -159.5865, 21.8988 ], [ -159.5909, 21.8968 ], [ -159.5874, 21.8994 ], [ -159.5898, 21.8993 ], [ -159.5881, 21.9005 ], [ -159.5893, 21.9022 ], [ -159.5906, 21.9016 ], [ -159.5907, 21.9016 ], [ -159.5895, 21.9024 ], [ -159.5913, 21.9042 ], [ -159.5905, 21.9089 ], [ -159.5916, 21.9039 ], [ -159.597, 21.9028 ], [ -159.5976, 21.8997 ], [ -159.5992, 21.8992 ], [ -159.5976, 21.895 ], [ -159.5999, 21.893 ], [ -159.6047, 21.8922 ], [ -159.6082, 21.8947 ], [ -159.6081, 21.8998 ], [ -159.617, 21.9021 ], [ -159.6211, 21.9067 ], [ -159.6261, 21.9075 ], [ -159.6262, 21.9093 ], [ -159.6283, 21.9087 ], [ -159.6288, 21.9111 ], [ -159.6344, 21.9136 ], [ -159.6381, 21.922 ], [ -159.6428, 21.9251 ], [ -159.6459, 21.9308 ], [ -159.6488, 21.9316 ], [ -159.6501, 21.9347 ], [ -159.6494, 21.9388 ], [ -159.6528, 21.9414 ], [ -159.6608, 21.9428 ], [ -159.6672, 21.9527 ], [ -159.6815, 21.9575 ], [ -159.7066, 21.9606 ], [ -159.7156, 21.9671 ], [ -159.7573, 21.9782 ], [ -159.764, 21.9848 ], [ -159.7735, 22.005 ], [ -159.7851, 22.0148 ], [ -159.7881, 22.0286 ], [ -159.7839, 22.0478 ], [ -159.7836, 22.0652 ], [ -159.7727, 22.0726 ], [ -159.7456, 22.0969 ], [ -159.7387, 22.1121 ], [ -159.7374, 22.1197 ], [ -159.733, 22.1272 ], [ -159.7305, 22.14 ], [ -159.7229, 22.1498 ], [ -159.7093, 22.1557 ], [ -159.7069, 22.159 ], [ -159.7037, 22.1576 ], [ -159.6971, 22.1624 ], [ -159.686, 22.1633 ], [ -159.6754, 22.1672 ], [ -159.673, 22.1656 ], [ -159.6714, 22.1684 ], [ -159.6698, 22.1668 ], [ -159.6669, 22.1678 ], [ -159.6668, 22.1694 ], [ -159.657, 22.1735 ], [ -159.6522, 22.1783 ], [ -159.6412, 22.1824 ], [ -159.626, 22.1958 ], [ -159.6238, 22.1954 ], [ -159.6232, 22.197 ], [ -159.6152, 22.1995 ], [ -159.606, 22.2041 ], [ -159.6052, 22.206 ], [ -159.5983, 22.2084 ], [ -159.5803, 22.2238 ], [ -159.5727, 22.2236 ], [ -159.5657, 22.2206 ], [ -159.5586, 22.2262 ], [ -159.5484, 22.2242 ], [ -159.5445, 22.2217 ], [ -159.5408, 22.2142 ], [ -159.5381, 22.2134 ], [ -159.5319, 22.2177 ], [ -159.5334, 22.2155 ], [ -159.5218, 22.2141 ], [ -159.5194, 22.215 ], [ -159.5173, 22.214 ], [ -159.5165, 22.207 ], [ -159.514, 22.204 ], [ -159.5061, 22.2025 ], [ -159.501, 22.2045 ], [ -159.498, 22.2078 ], [ -159.498, 22.2218 ], [ -159.4858, 22.2296 ], [ -159.4815, 22.2285 ], [ -159.4767, 22.2297 ], [ -159.4723, 22.2261 ], [ -159.4682, 22.2256 ], [ -159.4646, 22.223 ], [ -159.455, 22.2264 ], [ -159.4412, 22.2228 ], [ -159.436, 22.2235 ], [ -159.4281, 22.2163 ], [ -159.4255, 22.2175 ], [ -159.4248, 22.2236 ], [ -159.4184, 22.2224 ], [ -159.4082, 22.2249 ], [ -159.4047, 22.2272 ], [ -159.4042, 22.2302 ], [ -159.4022, 22.231 ], [ -159.403, 22.2324 ], [ -159.4018, 22.2324 ], [ -159.4013, 22.2293 ] ], [ [ -159.3417, 21.9924 ], [ -159.3418, 21.9924 ], [ -159.3411, 21.9913 ], [ -159.3417, 21.9924 ] ] ] ] } },
{ "type": "Feature", "properties": { "NAME20": "Maui", "POP20": 164754 }, "geometry": { "type": "MultiPolygon", "coordinates": [ [ [ [ -156.5735, 20.6039 ], [ -156.5658, 20.6025 ], [ -156.5623, 20.5986 ], [ -156.5511, 20.5921 ], [ -156.5504, 20.5874 ], [ -156.5468, 20.5853 ], [ -156.539, 20.5763 ], [ -156.5393, 20.5695 ], [ -156.5373, 20.5692 ], [ -156.548, 20.5653 ], [ -156.5482, 20.5618 ], [ -156.5466, 20.5594 ], [ -156.5484, 20.5564 ], [ -156.5477, 20.5517 ], [ -156.5531, 20.5465 ], [ -156.552, 20.5437 ], [ -156.5544, 20.5394 ], [ -156.5542, 20.5357 ], [ -156.5514, 20.5335 ], [ -156.5439, 20.5371 ], [ -156.541, 20.536 ], [ -156.5402, 20.5341 ], [ -156.5336, 20.5344 ], [ -156.5318, 20.5282 ], [ -156.5327, 20.5263 ], [ -156.5413, 20.5202 ], [ -156.5408, 20.5162 ], [ -156.5447, 20.5119 ], [ -156.5476, 20.5121 ], [ -156.5529, 20.5174 ], [ -156.5577, 20.5183 ], [ -156.5595, 20.5152 ], [ -156.5678, 20.516 ], [ -156.5727, 20.5142 ], [ -156.5739, 20.5111 ], [ -156.5789, 20.5112 ], [ -156.5859, 20.5077 ], [ -156.5914, 20.5116 ], [ -156.593, 20.5153 ], [ -156.6033, 20.5157 ], [ -156.6052, 20.5131 ], [ -156.6055, 20.5144 ], [ -156.6088, 20.5135 ], [ -156.6103, 20.5165 ], [ -156.6136, 20.5167 ], [ -156.6158, 20.5149 ], [ -156.6216, 20.5143 ], [ -156.6226, 20.5125 ], [ -156.6245, 20.5132 ], [ -156.629, 20.5114 ], [ -156.64, 20.5049 ], [ -156.6448, 20.5086 ], [ -156.6536, 20.5087 ], [ -156.6578, 20.5044 ], [ -156.6629, 20.5036 ], [ -156.6621, 20.5026 ], [ -156.6636, 20.5013 ], [ -156.6646, 20.5024 ], [ -156.6662, 20.5008 ], [ -156.6695, 20.5039 ], [ -156.6731, 20.501 ], [ -156.6766, 20.5042 ], [ -156.6788, 20.5029 ], [ -156.681, 20.5039 ], [ -156.6817, 20.5062 ], [ -156.6859, 20.5084 ], [ -156.6825, 20.5119 ], [ -156.6856, 20.5157 ], [ -156.6918, 20.5165 ], [ -156.6913, 20.5178 ], [ -156.6946, 20.5193 ], [ -156.6959, 20.5224 ], [ -156.7008, 20.5239 ], [ -156.6984, 20.5333 ], [ -156.6959, 20.5344 ], [ -156.6937, 20.5386 ], [ -156.6868, 20.5425 ], [ -156.6873, 20.5444 ], [ -156.6846, 20.5469 ], [ -156.6792, 20.5495 ], [ -156.6786, 20.5517 ], [ -156.6762, 20.5518 ], [ -156.6779, 20.5545 ], [ -156.6764, 20.5557 ], [ -156.6635, 20.5575 ], [ -156.6598, 20.5595 ], [ -156.6595, 20.5614 ], [ -156.6571, 20.56 ], [ -156.6506, 20.5624 ], [ -156.6472, 20.5617 ], [ -156.6433, 20.5664 ], [ -156.6403, 20.5665 ], [ -156.6358, 20.5714 ], [ -156.6345, 20.5706 ], [ -156.6308, 20.5727 ], [ -156.6237, 20.5796 ], [ -156.6119, 20.5845 ], [ -156.6109, 20.586 ], [ -156.6118, 20.5881 ], [ -156.6091, 20.5881 ], [ -156.6094, 20.5903 ], [ -156.6007, 20.5927 ], [ -156.5984, 20.5956 ], [ -156.5898, 20.598 ], [ -156.588, 20.6002 ], [ -156.5735, 20.6039 ] ] ], [ [ [ -156.9859, 20.9286 ], [ -156.969, 20.9231 ], [ -156.9526, 20.9235 ], [ -156.9424, 20.9221 ], [ -156.9377, 20.9235 ], [ -156.9224, 20.9198 ], [ -156.915, 20.9198 ], [ -156.8943, 20.9122 ], [ -156.8856, 20.9053 ], [ -156.8808, 20.9034 ], [ -156.8728, 20.8938 ], [ -156.8699, 20.8923 ], [ -156.8695, 20.8939 ], [ -156.8552, 20.8781 ], [ -156.8291, 20.8563 ], [ -156.8217, 20.8472 ], [ -156.8146, 20.8333 ], [ -156.8061, 20.8225 ], [ -156.8054, 20.8171 ], [ -156.8063, 20.8063 ], [ -156.811, 20.7973 ], [ -156.8352, 20.7615 ], [ -156.8435, 20.7569 ], [ -156.8524, 20.7579 ], [ -156.8553, 20.7551 ], [ -156.8665, 20.7516 ], [ -156.8769, 20.7426 ], [ -156.8798, 20.7418 ], [ -156.8846, 20.7441 ], [ -156.8877, 20.7431 ], [ -156.8886, 20.7418 ], [ -156.8869, 20.7424 ], [ -156.8867, 20.7386 ], [ -156.8901, 20.7372 ], [ -156.8902, 20.7351 ], [ -156.8929, 20.7346 ], [ -156.8937, 20.739 ], [ -156.8986, 20.7403 ], [ -156.902, 20.7373 ], [ -156.9072, 20.7357 ], [ -156.9096, 20.7376 ], [ -156.9114, 20.7359 ], [ -156.9182, 20.738 ], [ -156.9237, 20.735 ], [ -156.9255, 20.7346 ], [ -156.9273, 20.7365 ], [ -156.928, 20.7348 ], [ -156.9311, 20.7362 ], [ -156.9344, 20.7341 ], [ -156.937, 20.7363 ], [ -156.9428, 20.7349 ], [ -156.9461, 20.7364 ], [ -156.9471, 20.7348 ], [ -156.954, 20.7336 ], [ -156.9562, 20.7346 ], [ -156.9651, 20.7317 ], [ -156.9662, 20.7334 ], [ -156.9654, 20.7359 ], [ -156.9675, 20.7373 ], [ -156.968, 20.74 ], [ -156.9819, 20.7535 ], [ -156.9888, 20.7786 ], [ -156.9915, 20.78 ], [ -156.9925, 20.7865 ], [ -156.99, 20.7881 ], [ -156.99, 20.7911 ], [ -156.9886, 20.792 ], [ -156.9905, 20.7955 ], [ -156.9876, 20.7965 ], [ -156.9903, 20.8009 ], [ -156.9877, 20.8027 ], [ -156.9882, 20.8068 ], [ -156.9865, 20.8082 ], [ -156.9878, 20.8106 ], [ -156.9863, 20.8121 ], [ -156.9879, 20.8133 ], [ -156.9874, 20.819 ], [ -156.9892, 20.8237 ], [ -156.9954, 20.8313 ], [ -157.0036, 20.8462 ], [ -157.0067, 20.8469 ], [ -157.0061, 20.8485 ], [ -157.009, 20.8517 ], [ -157.0119, 20.8535 ], [ -157.0141, 20.853 ], [ -157.0153, 20.8557 ], [ -157.0299, 20.8628 ], [ -157.0325, 20.8634 ], [ -157.035, 20.8619 ], [ -157.0365, 20.8637 ], [ -157.0374, 20.8626 ], [ -157.0379, 20.8663 ], [ -157.0428, 20.8669 ], [ -157.0459, 20.8702 ], [ -157.0501, 20.8698 ], [ -157.0501, 20.8716 ], [ -157.0527, 20.8729 ], [ -157.0531, 20.8785 ], [ -157.0567, 20.8801 ], [ -157.0568, 20.8834 ], [ -157.0623, 20.8911 ], [ -157.0602, 20.8924 ], [ -157.0606, 20.8963 ], [ -157.0588, 20.8999 ], [ -157.0605, 20.9011 ], [ -157.0583, 20.9036 ], [ -157.0591, 20.9049 ], [ -157.0569, 20.9102 ], [ -157.0517, 20.9138 ], [ -157.0494, 20.9132 ], [ -157.0348, 20.9229 ], [ -157.0233, 20.9261 ], [ -157.0108, 20.9257 ], [ -157.0011, 20.9279 ], [ -156.9859, 20.9286 ] ] ], [ [ [ -156.6016, 21.0313 ], [ -156.5932, 21.0308 ], [ -156.5918, 21.0289 ], [ -156.5886, 21.0308 ], [ -156.5877, 21.0228 ], [ -156.5844, 21.0217 ], [ -156.5849, 21.0198 ], [ -156.5808, 21.0167 ], [ -156.5724, 21.018 ], [ -156.5657, 21.0119 ], [ -156.5601, 21.013 ], [ -156.5574, 21.0119 ], [ -156.5575, 21.0101 ], [ -156.5545, 21.0083 ], [ -156.5555, 21.0059 ], [ -156.551, 20.9981 ], [ -156.5493, 20.9981 ], [ -156.5461, 21.0022 ], [ -156.5434, 21.0018 ], [ -156.5424, 20.9955 ], [ -156.5395, 20.9893 ], [ -156.5374, 20.9889 ], [ -156.5372, 20.9858 ], [ -156.5317, 20.9845 ], [ -156.5257, 20.9852 ], [ -156.5267, 20.9816 ], [ -156.525, 20.9811 ], [ -156.5271, 20.9802 ], [ -156.524, 20.9785 ], [ -156.5269, 20.9753 ], [ -156.5254, 20.9646 ], [ -156.5194, 20.9603 ], [ -156.5197, 20.9583 ], [ -156.5146, 20.953 ], [ -156.5159, 20.9516 ], [ -156.5086, 20.9479 ], [ -156.5088, 20.9409 ], [ -156.5073, 20.9368 ], [ -156.4966, 20.9312 ], [ -156.493, 20.9248 ], [ -156.4915, 20.9147 ], [ -156.4888, 20.9106 ], [ -156.4854, 20.9109 ], [ -156.4836, 20.9092 ], [ -156.4797, 20.8982 ], [ -156.4739, 20.9004 ], [ -156.4787, 20.8959 ], [ -156.4734, 20.8911 ], [ -156.4693, 20.8923 ], [ -156.4676, 20.8941 ], [ -156.4684, 20.8955 ], [ -156.4662, 20.8941 ], [ -156.4651, 20.8954 ], [ -156.4716, 20.9007 ], [ -156.4626, 20.8972 ], [ -156.4515, 20.8967 ], [ -156.434, 20.9037 ], [ -156.4253, 20.9098 ], [ -156.4125, 20.9081 ], [ -156.4045, 20.9131 ], [ -156.3972, 20.9131 ], [ -156.3927, 20.9154 ], [ -156.3837, 20.916 ], [ -156.3813, 20.9175 ], [ -156.3808, 20.9199 ], [ -156.3782, 20.9201 ], [ -156.3779, 20.9219 ], [ -156.3713, 20.9239 ], [ -156.3698, 20.9261 ], [ -156.3703, 20.9292 ], [ -156.3573, 20.9336 ], [ -156.3554, 20.9363 ], [ -156.352, 20.9358 ], [ -156.3498, 20.9387 ], [ -156.3367, 20.9387 ], [ -156.3337, 20.9404 ], [ -156.3334, 20.943 ], [ -156.3307, 20.9426 ], [ -156.3292, 20.9452 ], [ -156.3255, 20.9433 ], [ -156.3227, 20.9465 ], [ -156.321, 20.9463 ], [ -156.3217, 20.9473 ], [ -156.3189, 20.9445 ], [ -156.3185, 20.9423 ], [ -156.3149, 20.9451 ], [ -156.3112, 20.9418 ], [ -156.3046, 20.9393 ], [ -156.2962, 20.943 ], [ -156.293, 20.9415 ], [ -156.2818, 20.9456 ], [ -156.2723, 20.9342 ], [ -156.2674, 20.9353 ], [ -156.2625, 20.9396 ], [ -156.2564, 20.9329 ], [ -156.254, 20.9335 ], [ -156.2524, 20.938 ], [ -156.2505, 20.9362 ], [ -156.248, 20.9377 ], [ -156.2442, 20.9352 ], [ -156.2392, 20.9353 ], [ -156.2346, 20.9288 ], [ -156.2322, 20.9277 ], [ -156.2274, 20.9286 ], [ -156.2283, 20.927 ], [ -156.227, 20.921 ], [ -156.2259, 20.9209 ], [ -156.2266, 20.9188 ], [ -156.223, 20.9149 ], [ -156.2172, 20.915 ], [ -156.2146, 20.9136 ], [ -156.2125, 20.9036 ], [ -156.2083, 20.9026 ], [ -156.1956, 20.8932 ], [ -156.1943, 20.8946 ], [ -156.1919, 20.8917 ], [ -156.193, 20.8902 ], [ -156.1913, 20.8878 ], [ -156.1758, 20.8765 ], [ -156.1745, 20.8734 ], [ -156.1722, 20.8745 ], [ -156.1681, 20.872 ], [ -156.1667, 20.8683 ], [ -156.1671, 20.86 ], [ -156.1631, 20.8638 ], [ -156.1582, 20.862 ], [ -156.1569, 20.8587 ], [ -156.1524, 20.8596 ], [ -156.1484, 20.8613 ], [ -156.1461, 20.8659 ], [ -156.1428, 20.8633 ], [ -156.1439, 20.8579 ], [ -156.1302, 20.8583 ], [ -156.132, 20.8559 ], [ -156.1287, 20.8547 ], [ -156.1264, 20.8401 ], [ -156.1207, 20.838 ], [ -156.1182, 20.8327 ], [ -156.1154, 20.8307 ], [ -156.1152, 20.8264 ], [ -156.1069, 20.8231 ], [ -156.1038, 20.8255 ], [ -156.0952, 20.8258 ], [ -156.0927, 20.8286 ], [ -156.0912, 20.827 ], [ -156.0879, 20.8288 ], [ -156.0849, 20.8279 ], [ -156.0834, 20.8253 ], [ -156.0816, 20.8256 ], [ -156.0731, 20.8189 ], [ -156.0683, 20.8186 ], [ -156.0686, 20.8173 ], [ -156.0651, 20.8163 ], [ -156.0637, 20.8122 ], [ -156.0596, 20.811 ], [ -156.0569, 20.8073 ], [ -156.0543, 20.8084 ], [ -156.0512, 20.8065 ], [ -156.0489, 20.8085 ], [ -156.0436, 20.8052 ], [ -156.0404, 20.805 ], [ -156.0387, 20.807 ], [ -156.0312, 20.805 ], [ -156.0146, 20.7971 ], [ -156.0087, 20.7971 ], [ -156.0055, 20.7937 ], [ -156.0008, 20.7924 ], [ -156.0002, 20.7914 ], [ -156.0034, 20.7883 ], [ -156.0013, 20.7883 ], [ -156.0004, 20.7859 ], [ -155.9968, 20.7856 ], [ -155.9966, 20.7838 ], [ -155.9934, 20.7826 ], [ -155.985, 20.7735 ], [ -155.9841, 20.7669 ], [ -155.9794, 20.7654 ], [ -155.9805, 20.7637 ], [ -155.9854, 20.7627 ], [ -155.9869, 20.7601 ], [ -155.984, 20.7553 ], [ -155.979, 20.756 ], [ -155.9793, 20.7531 ], [ -155.9813, 20.7532 ], [ -155.9834, 20.7508 ], [ -155.9824, 20.7403 ], [ -155.9842, 20.7361 ], [ -155.9835, 20.7341 ], [ -155.9861, 20.7312 ], [ -155.9857, 20.7286 ], [ -155.9829, 20.7263 ], [ -155.9842, 20.726 ], [ -155.9845, 20.7193 ], [ -155.9881, 20.7177 ], [ -155.9883, 20.7077 ], [ -155.9912, 20.7081 ], [ -155.991, 20.7065 ], [ -155.9927, 20.7067 ], [ -155.994, 20.7034 ], [ -155.9968, 20.7028 ], [ -155.9969, 20.7 ], [ -155.9986, 20.6989 ], [ -155.9982, 20.6948 ], [ -156.0011, 20.6944 ], [ -156.0043, 20.6892 ], [ -156.0118, 20.6824 ], [ -156.0169, 20.6838 ], [ -156.022, 20.6803 ], [ -156.0265, 20.6804 ], [ -156.0359, 20.6705 ], [ -156.0393, 20.6693 ], [ -156.0411, 20.6648 ], [ -156.0404, 20.6616 ], [ -156.0448, 20.6581 ], [ -156.0431, 20.6575 ], [ -156.0473, 20.6584 ], [ -156.0454, 20.6534 ], [ -156.047, 20.6516 ], [ -156.0552, 20.6505 ], [ -156.0566, 20.6485 ], [ -156.063, 20.6482 ], [ -156.0643, 20.6461 ], [ -156.0715, 20.6472 ], [ -156.0787, 20.6511 ], [ -156.0863, 20.6447 ], [ -156.0935, 20.6425 ], [ -156.0937, 20.6407 ], [ -156.0986, 20.6422 ], [ -156.1059, 20.6398 ], [ -156.1076, 20.6411 ], [ -156.1092, 20.6394 ], [ -156.1108, 20.6398 ], [ -156.1121, 20.6353 ], [ -156.1183, 20.6306 ], [ -156.1242, 20.6298 ], [ -156.1279, 20.6231 ], [ -156.1348, 20.6238 ], [ -156.1356, 20.6198 ], [ -156.1402, 20.6181 ], [ -156.1454, 20.6257 ], [ -156.1546, 20.6263 ], [ -156.1632, 20.6206 ], [ -156.1667, 20.6241 ], [ -156.172, 20.6208 ], [ -156.173, 20.6224 ], [ -156.1749, 20.6214 ], [ -156.1773, 20.6228 ], [ -156.1787, 20.627 ], [ -156.1844, 20.6264 ], [ -156.1936, 20.6283 ], [ -156.217, 20.6219 ], [ -156.2223, 20.6195 ], [ -156.2244, 20.6159 ], [ -156.2288, 20.6132 ], [ -156.2334, 20.6126 ], [ -156.2353, 20.6107 ], [ -156.239, 20.6112 ], [ -156.2464, 20.6053 ], [ -156.2502, 20.6059 ], [ -156.262, 20.5981 ], [ -156.2669, 20.5983 ], [ -156.271, 20.5953 ], [ -156.2817, 20.5932 ], [ -156.2866, 20.5873 ], [ -156.2976, 20.5831 ], [ -156.3076, 20.5828 ], [ -156.3202, 20.5849 ], [ -156.3263, 20.5836 ], [ -156.3284, 20.5848 ], [ -156.3352, 20.5831 ], [ -156.3357, 20.5807 ], [ -156.3392, 20.5802 ], [ -156.3422, 20.5838 ], [ -156.347, 20.5837 ], [ -156.3478, 20.5825 ], [ -156.349, 20.5836 ], [ -156.3506, 20.5804 ], [ -156.3544, 20.5806 ], [ -156.357, 20.5781 ], [ -156.3651, 20.5775 ], [ -156.368, 20.5753 ], [ -156.3732, 20.5755 ], [ -156.3736, 20.5744 ], [ -156.3741, 20.5757 ], [ -156.3775, 20.5759 ], [ -156.3785, 20.578 ], [ -156.3831, 20.5792 ], [ -156.3835, 20.581 ], [ -156.3872, 20.5789 ], [ -156.3906, 20.579 ], [ -156.3961, 20.5798 ], [ -156.3981, 20.582 ], [ -156.4009, 20.5788 ], [ -156.4036, 20.583 ], [ -156.4123, 20.5829 ], [ -156.4142, 20.5864 ], [ -156.4128, 20.5914 ], [ -156.4164, 20.5974 ], [ -156.4188, 20.5975 ], [ -156.4217, 20.6004 ], [ -156.4222, 20.5964 ], [ -156.4236, 20.5978 ], [ -156.4233, 20.5963 ], [ -156.4262, 20.5939 ], [ -156.4265, 20.5956 ], [ -156.4284, 20.5947 ], [ -156.4302, 20.5968 ], [ -156.4354, 20.5982 ], [ -156.4375, 20.6033 ], [ -156.4412, 20.6045 ], [ -156.4403, 20.6101 ], [ -156.4368, 20.6126 ], [ -156.4382, 20.6156 ], [ -156.4373, 20.6182 ], [ -156.4459, 20.6307 ], [ -156.4498, 20.6335 ], [ -156.4524, 20.6334 ], [ -156.4531, 20.637 ], [ -156.4469, 20.6404 ], [ -156.4466, 20.6446 ], [ -156.4434, 20.6458 ], [ -156.4431, 20.6498 ], [ -156.4412, 20.6509 ], [ -156.4411, 20.654 ], [ -156.4438, 20.6554 ], [ -156.4417, 20.6575 ], [ -156.4415, 20.6622 ], [ -156.4439, 20.6672 ], [ -156.4437, 20.6764 ], [ -156.4452, 20.6796 ], [ -156.4433, 20.6833 ], [ -156.4448, 20.6861 ], [ -156.4438, 20.69 ], [ -156.4471, 20.7046 ], [ -156.4459, 20.7082 ], [ -156.4469, 20.7166 ], [ -156.4502, 20.7281 ], [ -156.4547, 20.7319 ], [ -156.4566, 20.7363 ], [ -156.4576, 20.7466 ], [ -156.4603, 20.7524 ], [ -156.4594, 20.7697 ], [ -156.4632, 20.7813 ], [ -156.4728, 20.789 ], [ -156.4837, 20.794 ], [ -156.4989, 20.7966 ], [ -156.5062, 20.7951 ], [ -156.5091, 20.7921 ], [ -156.5136, 20.7909 ], [ -156.5109, 20.7903 ], [ -156.5139, 20.79 ], [ -156.5153, 20.7856 ], [ -156.5225, 20.7785 ], [ -156.5224, 20.7768 ], [ -156.5249, 20.778 ], [ -156.5308, 20.7744 ], [ -156.5325, 20.7756 ], [ -156.5366, 20.774 ], [ -156.5437, 20.7802 ], [ -156.5472, 20.7809 ], [ -156.5509, 20.7845 ], [ -156.5525, 20.7841 ], [ -156.5614, 20.79 ], [ -156.567, 20.7925 ], [ -156.5853, 20.7955 ], [ -156.605, 20.8088 ], [ -156.6116, 20.8101 ], [ -156.618, 20.8074 ], [ -156.6209, 20.8091 ], [ -156.6236, 20.8083 ], [ -156.6327, 20.8253 ], [ -156.6404, 20.8322 ], [ -156.6479, 20.8352 ], [ -156.6572, 20.8489 ], [ -156.6695, 20.8589 ], [ -156.6794, 20.8712 ], [ -156.6775, 20.8699 ], [ -156.6789, 20.8738 ], [ -156.6878, 20.8823 ], [ -156.6876, 20.8859 ], [ -156.6864, 20.8853 ], [ -156.6852, 20.8878 ], [ -156.685, 20.902 ], [ -156.6888, 20.9093 ], [ -156.6946, 20.9131 ], [ -156.6971, 20.9169 ], [ -156.6953, 20.9247 ], [ -156.6971, 20.9273 ], [ -156.6934, 20.9317 ], [ -156.692, 20.9484 ], [ -156.6871, 20.9547 ], [ -156.6781, 20.9774 ], [ -156.6737, 20.9817 ], [ -156.6748, 20.9842 ], [ -156.6729, 20.9842 ], [ -156.6724, 20.9878 ], [ -156.6698, 20.9885 ], [ -156.6695, 20.9935 ], [ -156.6665, 20.9959 ], [ -156.6684, 20.9989 ], [ -156.6665, 21.0 ], [ -156.6684, 21.0022 ], [ -156.6664, 21.0018 ], [ -156.6669, 21.0067 ], [ -156.6628, 21.0039 ], [ -156.6581, 21.0045 ], [ -156.6563, 21.0054 ], [ -156.6567, 21.0087 ], [ -156.6526, 21.0047 ], [ -156.6465, 21.0088 ], [ -156.6468, 21.0111 ], [ -156.6453, 21.0122 ], [ -156.6423, 21.0112 ], [ -156.6416, 21.014 ], [ -156.6382, 21.0131 ], [ -156.638, 21.0149 ], [ -156.6414, 21.0192 ], [ -156.6412, 21.0239 ], [ -156.6392, 21.0251 ], [ -156.6373, 21.0241 ], [ -156.6304, 21.0254 ], [ -156.6278, 21.0227 ], [ -156.6246, 21.0222 ], [ -156.6166, 21.0248 ], [ -156.6099, 21.0211 ], [ -156.6092, 21.024 ], [ -156.6043, 21.0283 ], [ -156.6045, 21.0301 ], [ -156.6016, 21.0313 ] ] ], [ [ [ -157.254, 21.2242 ], [ -157.2359, 21.2176 ], [ -157.2168, 21.2178 ], [ -157.2115, 21.2209 ], [ -157.2023, 21.2148 ], [ -157.2006, 21.2171 ], [ -157.1984, 21.2144 ], [ -157.1967, 21.2145 ], [ -157.1919, 21.2066 ], [ -157.1858, 21.203 ], [ -157.1781, 21.2034 ], [ -157.1708, 21.201 ], [ -157.1577, 21.202 ], [ -157.1483, 21.1971 ], [ -157.1432, 21.197 ], [ -157.1429, 21.1995 ], [ -157.1361, 21.1995 ], [ -157.1331, 21.1979 ], [ -157.1297, 21.1996 ], [ -157.1224, 21.1968 ], [ -157.1186, 21.1977 ], [ -157.1111, 21.1944 ], [ -157.1017, 21.1962 ], [ -157.0969, 21.1945 ], [ -157.0939, 21.1952 ], [ -157.0806, 21.1901 ], [ -157.0667, 21.1887 ], [ -157.0604, 21.1857 ], [ -157.0499, 21.1858 ], [ -157.0403, 21.1884 ], [ -157.0146, 21.1839 ], [ -157.0146, 21.1823 ], [ -157.0061, 21.1791 ], [ -157.0029, 21.1761 ], [ -157.0041, 21.1785 ], [ -156.9929, 21.1777 ], [ -156.984, 21.1792 ], [ -156.9736, 21.1752 ], [ -156.9716, 21.1657 ], [ -156.9654, 21.1593 ], [ -156.9625, 21.1594 ], [ -156.9599, 21.1615 ], [ -156.9626, 21.1623 ], [ -156.9648, 21.166 ], [ -156.9616, 21.1761 ], [ -156.9624, 21.1801 ], [ -156.9588, 21.1752 ], [ -156.9589, 21.1609 ], [ -156.9564, 21.1559 ], [ -156.951, 21.1535 ], [ -156.9483, 21.1542 ], [ -156.9421, 21.1602 ], [ -156.9416, 21.1562 ], [ -156.938, 21.1546 ], [ -156.9351, 21.1508 ], [ -156.9294, 21.1389 ], [ -156.9181, 21.1295 ], [ -156.9002, 21.1316 ], [ -156.9017, 21.1343 ], [ -156.9008, 21.1391 ], [ -156.8989, 21.1408 ], [ -156.9003, 21.1454 ], [ -156.896, 21.1484 ], [ -156.8964, 21.1495 ], [ -156.9003, 21.1485 ], [ -156.907, 21.1516 ], [ -156.9092, 21.1559 ], [ -156.9171, 21.1637 ], [ -156.921, 21.1629 ], [ -156.9151, 21.1716 ], [ -156.9134, 21.1658 ], [ -156.9078, 21.1642 ], [ -156.9043, 21.1652 ], [ -156.9021, 21.1638 ], [ -156.9023, 21.1622 ], [ -156.8986, 21.1631 ], [ -156.8977, 21.1615 ], [ -156.8943, 21.1665 ], [ -156.8927, 21.1663 ], [ -156.8945, 21.1702 ], [ -156.8856, 21.1683 ], [ -156.8834, 21.1617 ], [ -156.8802, 21.1609 ], [ -156.8769, 21.167 ], [ -156.875, 21.1647 ], [ -156.874, 21.1668 ], [ -156.8669, 21.1614 ], [ -156.8518, 21.1635 ], [ -156.8436, 21.1669 ], [ -156.8316, 21.1638 ], [ -156.827, 21.1663 ], [ -156.8272, 21.1681 ], [ -156.8231, 21.1684 ], [ -156.8177, 21.172 ], [ -156.8081, 21.1728 ], [ -156.8044, 21.1752 ], [ -156.8005, 21.1743 ], [ -156.7945, 21.1676 ], [ -156.7887, 21.1688 ], [ -156.7843, 21.1741 ], [ -156.773, 21.1737 ], [ -156.7692, 21.1764 ], [ -156.7454, 21.1742 ], [ -156.7383, 21.1721 ], [ -156.7358, 21.1685 ], [ -156.736, 21.1611 ], [ -156.7372, 21.1604 ], [ -156.7371, 21.1585 ], [ -156.7391, 21.1592 ], [ -156.74, 21.1588 ], [ -156.7399, 21.1577 ], [ -156.7418, 21.1583 ], [ -156.7403, 21.1574 ], [ -156.7398, 21.1576 ], [ -156.7395, 21.1587 ], [ -156.7348, 21.1578 ], [ -156.7322, 21.1594 ], [ -156.7286, 21.1575 ], [ -156.7163, 21.1606 ], [ -156.7117, 21.1597 ], [ -156.7098, 21.157 ], [ -156.7119, 21.1545 ], [ -156.7109, 21.1487 ], [ -156.7138, 21.1456 ], [ -156.7128, 21.1443 ], [ -156.7172, 21.1402 ], [ -156.7229, 21.1297 ], [ -156.7275, 21.126 ], [ -156.7291, 21.1264 ], [ -156.7357, 21.1149 ], [ -156.7404, 21.1142 ], [ -156.7396, 21.1112 ], [ -156.7445, 21.1112 ], [ -156.7438, 21.1076 ], [ -156.758, 21.0966 ], [ -156.7698, 21.0896 ], [ -156.7753, 21.0825 ], [ -156.7823, 21.0819 ], [ -156.7831, 21.0803 ], [ -156.7879, 21.0788 ], [ -156.7912, 21.0726 ], [ -156.7945, 21.0721 ], [ -156.7971, 21.0693 ], [ -156.7981, 21.0718 ], [ -156.7995, 21.0712 ], [ -156.7985, 21.0694 ], [ -156.8001, 21.07 ], [ -156.8028, 21.0667 ], [ -156.8182, 21.0652 ], [ -156.8218, 21.0611 ], [ -156.8335, 21.0579 ], [ -156.8366, 21.0535 ], [ -156.8389, 21.0548 ], [ -156.8469, 21.0535 ], [ -156.8491, 21.0487 ], [ -156.8519, 21.0507 ], [ -156.8485, 21.0522 ], [ -156.8481, 21.0545 ], [ -156.8519, 21.0573 ], [ -156.8596, 21.0553 ], [ -156.8606, 21.0527 ], [ -156.864, 21.0522 ], [ -156.8664, 21.0501 ], [ -156.8712, 21.0504 ], [ -156.8744, 21.046 ], [ -156.8806, 21.048 ], [ -156.8836, 21.0466 ], [ -156.8854, 21.0492 ], [ -156.8913, 21.0493 ], [ -156.8949, 21.0552 ], [ -156.8996, 21.0543 ], [ -156.9026, 21.0561 ], [ -156.9061, 21.0546 ], [ -156.9061, 21.0562 ], [ -156.9147, 21.0567 ], [ -156.92, 21.0593 ], [ -156.95, 21.0634 ], [ -156.9539, 21.0661 ], [ -156.9647, 21.0685 ], [ -156.9668, 21.0673 ], [ -156.9664, 21.0689 ], [ -156.9688, 21.07 ], [ -156.9772, 21.0709 ], [ -156.9802, 21.0698 ], [ -156.9816, 21.0734 ], [ -156.985, 21.0753 ], [ -156.9967, 21.0781 ], [ -157.0014, 21.077 ], [ -157.0026, 21.0798 ], [ -157.0183, 21.0853 ], [ -157.0235, 21.0857 ], [ -157.0251, 21.0874 ], [ -157.0288, 21.0873 ], [ -157.0345, 21.0946 ], [ -157.0479, 21.0957 ], [ -157.0585, 21.0997 ], [ -157.0628, 21.0997 ], [ -157.0629, 21.1011 ], [ -157.0638, 21.0995 ], [ -157.0699, 21.1008 ], [ -157.0717, 21.1001 ], [ -157.0704, 21.0994 ], [ -157.0732, 21.0991 ], [ -157.0775, 21.1001 ], [ -157.0792, 21.1022 ], [ -157.0915, 21.1018 ], [ -157.0974, 21.1036 ], [ -157.1012, 21.1004 ], [ -157.105, 21.1017 ], [ -157.108, 21.1001 ], [ -157.1126, 21.1009 ], [ -157.1155, 21.0988 ], [ -157.1222, 21.099 ], [ -157.1257, 21.0977 ], [ -157.1254, 21.0966 ], [ -157.128, 21.0979 ], [ -157.1491, 21.0912 ], [ -157.1566, 21.093 ], [ -157.1613, 21.0917 ], [ -157.1731, 21.0924 ], [ -157.1777, 21.0908 ], [ -157.1861, 21.0917 ], [ -157.2018, 21.0897 ], [ -157.2182, 21.0898 ], [ -157.2426, 21.088 ], [ -157.2486, 21.0845 ], [ -157.2467, 21.0867 ], [ -157.2508, 21.0868 ], [ -157.2499, 21.0856 ], [ -157.2498, 21.0843 ], [ -157.2522, 21.0876 ], [ -157.2882, 21.0936 ], [ -157.2981, 21.0932 ], [ -157.3047, 21.0952 ], [ -157.3109, 21.1021 ], [ -157.3075, 21.1047 ], [ -157.3066, 21.108 ], [ -157.3006, 21.1153 ], [ -157.2988, 21.1208 ], [ -157.3006, 21.124 ], [ -157.2963, 21.1299 ], [ -157.2968, 21.1334 ], [ -157.2896, 21.1377 ], [ -157.291, 21.14 ], [ -157.2893, 21.1416 ], [ -157.291, 21.1432 ], [ -157.2814, 21.1547 ], [ -157.2789, 21.1544 ], [ -157.2774, 21.1584 ], [ -157.2699, 21.1604 ], [ -157.2511, 21.1783 ], [ -157.2527, 21.1827 ], [ -157.2504, 21.1832 ], [ -157.2485, 21.1869 ], [ -157.2483, 21.1907 ], [ -157.2499, 21.1916 ], [ -157.2477, 21.196 ], [ -157.248, 21.2024 ], [ -157.2526, 21.211 ], [ -157.2586, 21.2143 ], [ -157.2603, 21.2176 ], [ -157.2577, 21.2224 ], [ -157.254, 21.2242 ] ] ] ] } },
{ "type": "Feature", "properties": { "NAME20": "Hawaii", "POP20": 200629 }, "geometry": { "type": "Polygon", "coordinates": [ [ [ -155.8503, 20.2682 ], [ -155.8473, 20.2655 ], [ -155.8357, 20.2676 ], [ -155.8334, 20.2646 ], [ -155.8315, 20.2639 ], [ -155.8301, 20.2653 ], [ -155.8293, 20.2625 ], [ -155.8257, 20.2599 ], [ -155.8183, 20.2602 ], [ -155.8145, 20.2579 ], [ -155.8122, 20.2588 ], [ -155.811, 20.2569 ], [ -155.8069, 20.2566 ], [ -155.8029, 20.2527 ], [ -155.8003, 20.2526 ], [ -155.7977, 20.2484 ], [ -155.7903, 20.2487 ], [ -155.7784, 20.2423 ], [ -155.7739, 20.242 ], [ -155.7719, 20.2464 ], [ -155.7701, 20.2458 ], [ -155.7701, 20.242 ], [ -155.7651, 20.2412 ], [ -155.7643, 20.2388 ], [ -155.7611, 20.2367 ], [ -155.7578, 20.238 ], [ -155.7531, 20.2358 ], [ -155.7521, 20.2314 ], [ -155.7484, 20.2301 ], [ -155.7484, 20.227 ], [ -155.7442, 20.2294 ], [ -155.7367, 20.2205 ], [ -155.7353, 20.221 ], [ -155.7336, 20.2183 ], [ -155.731, 20.22 ], [ -155.7309, 20.2156 ], [ -155.7334, 20.2119 ], [ -155.731, 20.2039 ], [ -155.7207, 20.1975 ], [ -155.7167, 20.197 ], [ -155.7166, 20.1927 ], [ -155.7153, 20.1943 ], [ -155.7128, 20.1941 ], [ -155.696, 20.1854 ], [ -155.6887, 20.1783 ], [ -155.681, 20.1786 ], [ -155.6657, 20.1717 ], [ -155.6557, 20.1653 ], [ -155.6513, 20.1644 ], [ -155.6466, 20.1566 ], [ -155.6408, 20.1539 ], [ -155.6376, 20.1454 ], [ -155.6333, 20.1431 ], [ -155.623, 20.1431 ], [ -155.613, 20.1364 ], [ -155.6076, 20.1362 ], [ -155.5964, 20.1218 ], [ -155.5868, 20.119 ], [ -155.5785, 20.1204 ], [ -155.5653, 20.1272 ], [ -155.5561, 20.1287 ], [ -155.5507, 20.1279 ], [ -155.5475, 20.1246 ], [ -155.5412, 20.1229 ], [ -155.537, 20.1194 ], [ -155.5323, 20.1193 ], [ -155.5315, 20.1207 ], [ -155.5276, 20.1179 ], [ -155.5214, 20.1172 ], [ -155.5137, 20.1119 ], [ -155.5081, 20.1115 ], [ -155.5067, 20.1137 ], [ -155.4999, 20.1111 ], [ -155.4961, 20.1126 ], [ -155.4901, 20.1077 ], [ -155.4725, 20.1033 ], [ -155.4704, 20.1008 ], [ -155.4637, 20.101 ], [ -155.4557, 20.0986 ], [ -155.45, 20.0936 ], [ -155.4391, 20.0913 ], [ -155.4374, 20.0923 ], [ -155.4363, 20.0892 ], [ -155.4165, 20.0825 ], [ -155.4118, 20.0779 ], [ -155.402, 20.0758 ], [ -155.3988, 20.0707 ], [ -155.3936, 20.0673 ], [ -155.3761, 20.0619 ], [ -155.3721, 20.0578 ], [ -155.3674, 20.0574 ], [ -155.3551, 20.0498 ], [ -155.3455, 20.0492 ], [ -155.3431, 20.0449 ], [ -155.3337, 20.0409 ], [ -155.3283, 20.036 ], [ -155.3094, 20.0298 ], [ -155.2932, 20.0215 ], [ -155.2799, 20.019 ], [ -155.2748, 20.0163 ], [ -155.2616, 20.0056 ], [ -155.2515, 20.0007 ], [ -155.2477, 19.9947 ], [ -155.2397, 19.994 ], [ -155.2408, 19.991 ], [ -155.2386, 19.9876 ], [ -155.2122, 19.9748 ], [ -155.2019, 19.9667 ], [ -155.2016, 19.9644 ], [ -155.1969, 19.9606 ], [ -155.1956, 19.9552 ], [ -155.1873, 19.9542 ], [ -155.1778, 19.9489 ], [ -155.1749, 19.9446 ], [ -155.1575, 19.9323 ], [ -155.1563, 19.9294 ], [ -155.1527, 19.9275 ], [ -155.1476, 19.921 ], [ -155.1382, 19.9152 ], [ -155.1344, 19.9102 ], [ -155.1351, 19.9078 ], [ -155.1284, 19.9038 ], [ -155.1285, 19.9002 ], [ -155.125, 19.901 ], [ -155.1233, 19.8986 ], [ -155.1189, 19.8884 ], [ -155.1191, 19.8831 ], [ -155.1099, 19.8791 ], [ -155.1104, 19.8763 ], [ -155.105, 19.8698 ], [ -155.1026, 19.87 ], [ -155.0999, 19.8676 ], [ -155.097, 19.869 ], [ -155.0964, 19.8681 ], [ -155.098, 19.8674 ], [ -155.0963, 19.8652 ], [ -155.0922, 19.865 ], [ -155.0879, 19.8595 ], [ -155.0891, 19.8579 ], [ -155.0875, 19.8563 ], [ -155.0879, 19.8536 ], [ -155.0832, 19.8526 ], [ -155.084, 19.8491 ], [ -155.0816, 19.8463 ], [ -155.0847, 19.8427 ], [ -155.0823, 19.8359 ], [ -155.0851, 19.8264 ], [ -155.0867, 19.8253 ], [ -155.0862, 19.8238 ], [ -155.0888, 19.8203 ], [ -155.0878, 19.818 ], [ -155.0915, 19.8121 ], [ -155.0891, 19.8104 ], [ -155.0936, 19.8101 ], [ -155.093, 19.8069 ], [ -155.0905, 19.8062 ], [ -155.09, 19.804 ], [ -155.087, 19.804 ], [ -155.0858, 19.8004 ], [ -155.0901, 19.7948 ], [ -155.0895, 19.7872 ], [ -155.086, 19.7829 ], [ -155.0882, 19.7785 ], [ -155.0873, 19.7753 ], [ -155.0896, 19.7731 ], [ -155.0908, 19.7687 ], [ -155.0885, 19.7628 ], [ -155.0913, 19.7564 ], [ -155.0894, 19.7381 ], [ -155.0907, 19.7347 ], [ -155.0855, 19.7257 ], [ -155.0825, 19.7239 ], [ -155.0701, 19.7226 ], [ -155.0714, 19.7258 ], [ -155.0647, 19.7304 ], [ -155.0623, 19.7278 ], [ -155.0628, 19.7257 ], [ -155.0627, 19.7244 ], [ -155.0621, 19.7237 ], [ -155.0597, 19.7275 ], [ -155.0553, 19.7292 ], [ -155.0566, 19.7305 ], [ -155.0543, 19.73 ], [ -155.0543, 19.7336 ], [ -155.0533, 19.7313 ], [ -155.0516, 19.7318 ], [ -155.063, 19.7428 ], [ -155.075, 19.743 ], [ -155.0629, 19.7429 ], [ -155.0543, 19.7346 ], [ -155.0467, 19.7315 ], [ -155.0452, 19.7319 ], [ -155.0461, 19.7326 ], [ -155.0446, 19.7349 ], [ -155.0426, 19.7344 ], [ -155.043, 19.7375 ], [ -155.0401, 19.7377 ], [ -155.0402, 19.7391 ], [ -155.0326, 19.7367 ], [ -155.032, 19.7381 ], [ -155.0307, 19.7364 ], [ -155.0317, 19.7342 ], [ -155.0301, 19.735 ], [ -155.0283, 19.7332 ], [ -155.027, 19.7355 ], [ -155.0242, 19.7351 ], [ -155.0223, 19.7322 ], [ -155.0137, 19.7345 ], [ -155.0136, 19.7376 ], [ -155.0095, 19.735 ], [ -155.0031, 19.736 ], [ -154.9927, 19.7233 ], [ -154.9896, 19.7131 ], [ -154.9822, 19.6998 ], [ -154.9821, 19.6928 ], [ -154.9804, 19.6923 ], [ -154.9783, 19.6876 ], [ -154.9798, 19.6784 ], [ -154.9832, 19.6723 ], [ -154.9818, 19.669 ], [ -154.983, 19.6582 ], [ -154.979, 19.653 ], [ -154.9818, 19.6485 ], [ -154.9812, 19.6448 ], [ -154.9828, 19.6437 ], [ -154.9795, 19.6363 ], [ -154.9716, 19.6302 ], [ -154.9631, 19.6271 ], [ -154.9597, 19.6233 ], [ -154.9525, 19.6245 ], [ -154.9469, 19.6232 ], [ -154.9449, 19.6187 ], [ -154.9484, 19.6107 ], [ -154.9449, 19.6023 ], [ -154.9311, 19.5953 ], [ -154.9289, 19.5919 ], [ -154.9254, 19.5902 ], [ -154.9215, 19.5828 ], [ -154.9118, 19.579 ], [ -154.9038, 19.5689 ], [ -154.8891, 19.5622 ], [ -154.8831, 19.5565 ], [ -154.8723, 19.5537 ], [ -154.8671, 19.5484 ], [ -154.8501, 19.5465 ], [ -154.8473, 19.5426 ], [ -154.8431, 19.5415 ], [ -154.8351, 19.5357 ], [ -154.824, 19.5347 ], [ -154.8122, 19.5277 ], [ -154.8068, 19.5198 ], [ -154.8069, 19.5154 ], [ -154.8113, 19.5113 ], [ -154.8124, 19.502 ], [ -154.8147, 19.5005 ], [ -154.8171, 19.5024 ], [ -154.819, 19.4992 ], [ -154.8204, 19.4997 ], [ -154.8208, 19.4995 ], [ -154.8184, 19.496 ], [ -154.815, 19.4954 ], [ -154.8177, 19.4927 ], [ -154.8164, 19.4907 ], [ -154.8193, 19.4863 ], [ -154.8204, 19.4783 ], [ -154.8274, 19.4706 ], [ -154.8308, 19.4698 ], [ -154.8359, 19.4607 ], [ -154.8417, 19.4572 ], [ -154.8433, 19.4577 ], [ -154.8438, 19.455 ], [ -154.8482, 19.45 ], [ -154.8657, 19.4353 ], [ -154.8753, 19.4311 ], [ -154.8786, 19.4254 ], [ -154.8853, 19.4233 ], [ -154.8884, 19.4158 ], [ -154.9077, 19.4071 ], [ -154.9246, 19.3949 ], [ -154.9289, 19.3946 ], [ -154.9344, 19.3835 ], [ -154.9592, 19.3651 ], [ -154.9626, 19.3603 ], [ -154.9679, 19.3564 ], [ -154.9721, 19.3497 ], [ -154.9781, 19.3462 ], [ -154.9932, 19.3401 ], [ -155.0046, 19.3333 ], [ -155.0113, 19.3327 ], [ -155.0171, 19.3279 ], [ -155.0398, 19.3209 ], [ -155.0486, 19.3143 ], [ -155.0648, 19.3109 ], [ -155.0716, 19.3116 ], [ -155.0879, 19.2979 ], [ -155.1013, 19.2931 ], [ -155.1228, 19.2774 ], [ -155.1307, 19.2734 ], [ -155.1404, 19.2742 ], [ -155.1571, 19.2653 ], [ -155.17, 19.2661 ], [ -155.1744, 19.2641 ], [ -155.1846, 19.2633 ], [ -155.189, 19.261 ], [ -155.1926, 19.2559 ], [ -155.1943, 19.2584 ], [ -155.2045, 19.2578 ], [ -155.2066, 19.2563 ], [ -155.2163, 19.2597 ], [ -155.2256, 19.2604 ], [ -155.233, 19.2626 ], [ -155.2341, 19.2665 ], [ -155.2426, 19.2688 ], [ -155.2496, 19.2678 ], [ -155.2553, 19.2706 ], [ -155.2585, 19.2692 ], [ -155.2613, 19.2713 ], [ -155.2663, 19.2687 ], [ -155.2729, 19.2677 ], [ -155.2762, 19.2653 ], [ -155.2792, 19.2667 ], [ -155.2875, 19.2636 ], [ -155.2939, 19.2633 ], [ -155.3013, 19.2587 ], [ -155.3163, 19.2424 ], [ -155.3316, 19.2364 ], [ -155.3385, 19.2312 ], [ -155.3429, 19.2238 ], [ -155.344, 19.2189 ], [ -155.3488, 19.2123 ], [ -155.3522, 19.2112 ], [ -155.3583, 19.2057 ], [ -155.3714, 19.2005 ], [ -155.3895, 19.1974 ], [ -155.3942, 19.1946 ], [ -155.3996, 19.188 ], [ -155.4146, 19.1848 ], [ -155.4177, 19.1805 ], [ -155.4242, 19.1765 ], [ -155.4303, 19.1669 ], [ -155.4429, 19.1581 ], [ -155.4459, 19.1524 ], [ -155.4482, 19.1518 ], [ -155.4499, 19.149 ], [ -155.4627, 19.1439 ], [ -155.4712, 19.1443 ], [ -155.4855, 19.1377 ], [ -155.4905, 19.1372 ], [ -155.4952, 19.1388 ], [ -155.4971, 19.1354 ], [ -155.5013, 19.1352 ], [ -155.5092, 19.1302 ], [ -155.511, 19.128 ], [ -155.5093, 19.1236 ], [ -155.5107, 19.1229 ], [ -155.5097, 19.1216 ], [ -155.5104, 19.1206 ], [ -155.5154, 19.1184 ], [ -155.5171, 19.1138 ], [ -155.5273, 19.1112 ], [ -155.5297, 19.1052 ], [ -155.5345, 19.1017 ], [ -155.5375, 19.0944 ], [ -155.5418, 19.0904 ], [ -155.5429, 19.0858 ], [ -155.5469, 19.0847 ], [ -155.5473, 19.0862 ], [ -155.5501, 19.0853 ], [ -155.5491, 19.0854 ], [ -155.5553, 19.0793 ], [ -155.5548, 19.0762 ], [ -155.5534, 19.0758 ], [ -155.5541, 19.0689 ], [ -155.5526, 19.0669 ], [ -155.5537, 19.0613 ], [ -155.5526, 19.0592 ], [ -155.5536, 19.0573 ], [ -155.5517, 19.0518 ], [ -155.5538, 19.0498 ], [ -155.554, 19.0451 ], [ -155.5637, 19.0296 ], [ -155.5735, 19.0247 ], [ -155.5799, 19.0187 ], [ -155.5842, 19.0047 ], [ -155.5938, 18.9952 ], [ -155.5938, 18.9774 ], [ -155.5956, 18.9751 ], [ -155.5986, 18.9744 ], [ -155.599, 18.9687 ], [ -155.6001, 18.9675 ], [ -155.6008, 18.9688 ], [ -155.606, 18.9689 ], [ -155.6101, 18.966 ], [ -155.6122, 18.9687 ], [ -155.6123, 18.9726 ], [ -155.6143, 18.9723 ], [ -155.6133, 18.9707 ], [ -155.615, 18.9685 ], [ -155.6184, 18.9698 ], [ -155.6228, 18.9621 ], [ -155.6222, 18.9571 ], [ -155.6251, 18.9551 ], [ -155.6274, 18.9481 ], [ -155.6319, 18.9459 ], [ -155.6322, 18.9429 ], [ -155.6356, 18.9385 ], [ -155.6419, 18.9351 ], [ -155.6466, 18.936 ], [ -155.6459, 18.9331 ], [ -155.6479, 18.9294 ], [ -155.6512, 18.9258 ], [ -155.6543, 18.9249 ], [ -155.6556, 18.9217 ], [ -155.6634, 18.9201 ], [ -155.6645, 18.9167 ], [ -155.6677, 18.917 ], [ -155.6682, 18.9157 ], [ -155.6691, 18.9168 ], [ -155.6731, 18.9123 ], [ -155.6766, 18.9123 ], [ -155.6778, 18.9108 ], [ -155.6826, 18.9119 ], [ -155.6846, 18.9186 ], [ -155.6827, 18.9282 ], [ -155.6876, 18.9391 ], [ -155.6972, 18.9467 ], [ -155.7032, 18.9479 ], [ -155.7059, 18.9505 ], [ -155.7065, 18.9536 ], [ -155.7137, 18.9596 ], [ -155.7192, 18.961 ], [ -155.7234, 18.9665 ], [ -155.7288, 18.967 ], [ -155.73, 18.9692 ], [ -155.7346, 18.9705 ], [ -155.7412, 18.97 ], [ -155.7549, 18.9766 ], [ -155.7599, 18.9776 ], [ -155.7628, 18.9831 ], [ -155.7776, 18.9908 ], [ -155.7826, 18.9962 ], [ -155.7906, 18.9998 ], [ -155.7939, 19.0026 ], [ -155.7935, 19.0041 ], [ -155.8033, 19.011 ], [ -155.8072, 19.0102 ], [ -155.8127, 19.0128 ], [ -155.817, 19.0121 ], [ -155.8316, 19.0189 ], [ -155.8364, 19.0173 ], [ -155.8424, 19.0207 ], [ -155.8503, 19.0193 ], [ -155.8524, 19.0221 ], [ -155.8609, 19.0245 ], [ -155.863, 19.0278 ], [ -155.8691, 19.0312 ], [ -155.879, 19.0338 ], [ -155.8814, 19.0364 ], [ -155.8811, 19.0462 ], [ -155.8836, 19.0527 ], [ -155.8897, 19.059 ], [ -155.8957, 19.0701 ], [ -155.9, 19.0725 ], [ -155.9069, 19.0799 ], [ -155.9106, 19.0953 ], [ -155.9183, 19.1145 ], [ -155.9182, 19.1245 ], [ -155.9165, 19.128 ], [ -155.9183, 19.1339 ], [ -155.914, 19.1404 ], [ -155.9113, 19.142 ], [ -155.9112, 19.1461 ], [ -155.9165, 19.1546 ], [ -155.9117, 19.1664 ], [ -155.9086, 19.1684 ], [ -155.9086, 19.187 ], [ -155.9066, 19.1897 ], [ -155.9075, 19.1906 ], [ -155.9057, 19.1936 ], [ -155.9069, 19.1958 ], [ -155.9054, 19.1973 ], [ -155.9065, 19.2024 ], [ -155.8986, 19.2115 ], [ -155.9013, 19.2152 ], [ -155.9005, 19.2182 ], [ -155.9027, 19.2262 ], [ -155.8973, 19.2399 ], [ -155.9008, 19.2481 ], [ -155.8996, 19.2567 ], [ -155.8923, 19.2718 ], [ -155.8913, 19.285 ], [ -155.8887, 19.2886 ], [ -155.8895, 19.2934 ], [ -155.8881, 19.2959 ], [ -155.8898, 19.2997 ], [ -155.8871, 19.3102 ], [ -155.8909, 19.3195 ], [ -155.8901, 19.3242 ], [ -155.8857, 19.3276 ], [ -155.8841, 19.3328 ], [ -155.8858, 19.3447 ], [ -155.8892, 19.3508 ], [ -155.892, 19.3637 ], [ -155.895, 19.369 ], [ -155.8973, 19.3702 ], [ -155.8955, 19.3765 ], [ -155.8972, 19.3791 ], [ -155.9005, 19.3801 ], [ -155.902, 19.3865 ], [ -155.9075, 19.391 ], [ -155.9109, 19.3967 ], [ -155.9052, 19.4114 ], [ -155.9068, 19.415 ], [ -155.9127, 19.4177 ], [ -155.9192, 19.4278 ], [ -155.9218, 19.4366 ], [ -155.9202, 19.4425 ], [ -155.9226, 19.4487 ], [ -155.9219, 19.4533 ], [ -155.9243, 19.4572 ], [ -155.9283, 19.459 ], [ -155.9256, 19.4602 ], [ -155.9224, 19.4652 ], [ -155.9212, 19.4694 ], [ -155.9224, 19.4712 ], [ -155.9187, 19.4723 ], [ -155.9198, 19.4766 ], [ -155.9311, 19.4826 ], [ -155.9333, 19.4823 ], [ -155.9339, 19.4787 ], [ -155.9368, 19.4788 ], [ -155.9425, 19.4839 ], [ -155.9487, 19.4838 ], [ -155.9507, 19.487 ], [ -155.9479, 19.4961 ], [ -155.9501, 19.4976 ], [ -155.9521, 19.5041 ], [ -155.951, 19.5068 ], [ -155.9597, 19.514 ], [ -155.9604, 19.5195 ], [ -155.9563, 19.5234 ], [ -155.9572, 19.5296 ], [ -155.9557, 19.5323 ], [ -155.9593, 19.5409 ], [ -155.9579, 19.5437 ], [ -155.9608, 19.5468 ], [ -155.9592, 19.5482 ], [ -155.9624, 19.5515 ], [ -155.9656, 19.5516 ], [ -155.9669, 19.5533 ], [ -155.9661, 19.5597 ], [ -155.9621, 19.562 ], [ -155.9651, 19.5625 ], [ -155.9645, 19.5641 ], [ -155.9666, 19.5643 ], [ -155.9682, 19.5681 ], [ -155.9673, 19.5714 ], [ -155.9689, 19.5779 ], [ -155.9665, 19.5805 ], [ -155.9719, 19.5879 ], [ -155.9717, 19.5945 ], [ -155.9764, 19.5997 ], [ -155.9746, 19.6038 ], [ -155.9863, 19.6172 ], [ -155.9871, 19.6209 ], [ -155.9858, 19.6239 ], [ -155.9912, 19.6317 ], [ -155.9904, 19.6349 ], [ -155.9938, 19.6368 ], [ -155.9948, 19.6397 ], [ -155.9968, 19.64 ], [ -155.9967, 19.6384 ], [ -155.9968, 19.6391 ], [ -155.9976, 19.6395 ], [ -155.9978, 19.6379 ], [ -156.0013, 19.637 ], [ -156.0161, 19.6473 ], [ -156.0213, 19.6483 ], [ -156.0259, 19.6471 ], [ -156.0301, 19.6508 ], [ -156.0315, 19.6557 ], [ -156.033, 19.6562 ], [ -156.0313, 19.6589 ], [ -156.0311, 19.6654 ], [ -156.0276, 19.6674 ], [ -156.028, 19.6704 ], [ -156.0259, 19.6716 ], [ -156.0267, 19.6758 ], [ -156.0324, 19.6802 ], [ -156.0379, 19.6894 ], [ -156.0452, 19.6932 ], [ -156.0451, 19.6953 ], [ -156.0491, 19.7005 ], [ -156.0481, 19.7067 ], [ -156.0496, 19.7155 ], [ -156.0565, 19.7209 ], [ -156.0617, 19.7275 ], [ -156.0608, 19.73 ], [ -156.0529, 19.7361 ], [ -156.055, 19.7465 ], [ -156.0494, 19.7537 ], [ -156.0491, 19.7595 ], [ -156.0507, 19.7618 ], [ -156.0486, 19.7654 ], [ -156.0502, 19.7726 ], [ -156.0471, 19.7743 ], [ -156.0456, 19.7791 ], [ -156.04, 19.7822 ], [ -156.0382, 19.7881 ], [ -156.0338, 19.7906 ], [ -156.0291, 19.791 ], [ -156.0261, 19.793 ], [ -156.0258, 19.7955 ], [ -156.0217, 19.796 ], [ -156.0173, 19.8017 ], [ -156.0149, 19.802 ], [ -156.0131, 19.8067 ], [ -156.007, 19.8102 ], [ -156.0056, 19.8145 ], [ -156.0012, 19.8151 ], [ -156.0017, 19.8183 ], [ -155.9977, 19.8232 ], [ -155.9977, 19.8256 ], [ -155.9866, 19.8311 ], [ -155.9867, 19.8352 ], [ -155.9824, 19.8372 ], [ -155.9801, 19.8428 ], [ -155.9723, 19.8485 ], [ -155.96, 19.8528 ], [ -155.9519, 19.8523 ], [ -155.9466, 19.854 ], [ -155.9425, 19.8503 ], [ -155.9376, 19.8494 ], [ -155.9288, 19.8523 ], [ -155.9234, 19.856 ], [ -155.9212, 19.8553 ], [ -155.9206, 19.8583 ], [ -155.9223, 19.8604 ], [ -155.922, 19.8575 ], [ -155.924, 19.8651 ], [ -155.9236, 19.87 ], [ -155.9189, 19.875 ], [ -155.9151, 19.8759 ], [ -155.9127, 19.8842 ], [ -155.9059, 19.8882 ], [ -155.9063, 19.8919 ], [ -155.9045, 19.8937 ], [ -155.9063, 19.8936 ], [ -155.9072, 19.8971 ], [ -155.9011, 19.9004 ], [ -155.9016, 19.9052 ], [ -155.899, 19.9093 ], [ -155.891, 19.9117 ], [ -155.8877, 19.9143 ], [ -155.8878, 19.9166 ], [ -155.8914, 19.9199 ], [ -155.8918, 19.9238 ], [ -155.8886, 19.9266 ], [ -155.887, 19.9263 ], [ -155.889, 19.9254 ], [ -155.888, 19.9244 ], [ -155.8862, 19.9257 ], [ -155.8898, 19.9291 ], [ -155.8849, 19.9338 ], [ -155.8779, 19.9338 ], [ -155.8768, 19.9392 ], [ -155.8786, 19.9406 ], [ -155.878, 19.9428 ], [ -155.8741, 19.9442 ], [ -155.872, 19.9423 ], [ -155.8695, 19.9436 ], [ -155.8682, 19.9471 ], [ -155.8586, 19.9575 ], [ -155.8585, 19.9606 ], [ -155.8542, 19.9658 ], [ -155.8458, 19.9684 ], [ -155.8379, 19.9738 ], [ -155.8361, 19.9723 ], [ -155.8325, 19.973 ], [ -155.8312, 19.9757 ], [ -155.8324, 19.9775 ], [ -155.8291, 19.9801 ], [ -155.8285, 19.9824 ], [ -155.8313, 19.9852 ], [ -155.8262, 19.9926 ], [ -155.8283, 19.9977 ], [ -155.8281, 20.0021 ], [ -155.8251, 20.0043 ], [ -155.8269, 20.0079 ], [ -155.8251, 20.0104 ], [ -155.8252, 20.0154 ], [ -155.8225, 20.0189 ], [ -155.8231, 20.0277 ], [ -155.8288, 20.0289 ], [ -155.8338, 20.0345 ], [ -155.8341, 20.0373 ], [ -155.8307, 20.0314 ], [ -155.8254, 20.0324 ], [ -155.8363, 20.0444 ], [ -155.8391, 20.0503 ], [ -155.8436, 20.0524 ], [ -155.8439, 20.0567 ], [ -155.8514, 20.0625 ], [ -155.8593, 20.0747 ], [ -155.8645, 20.0761 ], [ -155.8652, 20.0804 ], [ -155.8676, 20.0815 ], [ -155.8674, 20.0841 ], [ -155.8707, 20.0858 ], [ -155.8716, 20.0895 ], [ -155.8747, 20.0915 ], [ -155.8793, 20.1035 ], [ -155.8836, 20.1055 ], [ -155.8829, 20.1132 ], [ -155.8853, 20.1128 ], [ -155.8837, 20.1145 ], [ -155.8844, 20.1162 ], [ -155.8873, 20.1177 ], [ -155.8867, 20.1199 ], [ -155.8913, 20.1239 ], [ -155.8921, 20.1298 ], [ -155.8909, 20.1316 ], [ -155.8931, 20.1357 ], [ -155.8928, 20.139 ], [ -155.8959, 20.1426 ], [ -155.8952, 20.151 ], [ -155.8974, 20.153 ], [ -155.8987, 20.1625 ], [ -155.9004, 20.1639 ], [ -155.8997, 20.1703 ], [ -155.9016, 20.1717 ], [ -155.8996, 20.1742 ], [ -155.9021, 20.1812 ], [ -155.9003, 20.1839 ], [ -155.9036, 20.187 ], [ -155.9017, 20.1888 ], [ -155.9044, 20.1961 ], [ -155.9013, 20.2063 ], [ -155.9029, 20.2138 ], [ -155.9008, 20.2168 ], [ -155.9011, 20.2202 ], [ -155.8988, 20.2259 ], [ -155.8988, 20.2248 ], [ -155.8985, 20.2246 ], [ -155.8994, 20.2301 ], [ -155.8964, 20.2368 ], [ -155.8935, 20.2377 ], [ -155.8922, 20.242 ], [ -155.889, 20.2438 ], [ -155.8885, 20.251 ], [ -155.8798, 20.2586 ], [ -155.8801, 20.2597 ], [ -155.8712, 20.2646 ], [ -155.8503, 20.2682 ] ] ] } },
{ "type": "Feature", "properties": { "NAME20": "Honolulu", "POP20": 1016508 }, "geometry": { "type": "MultiPolygon", "coordinates": [ [ [ [ -157.7085, 21.2901 ], [ -157.7102, 21.2882 ], [ -157.7091, 21.292 ], [ -157.7103, 21.2899 ], [ -157.7103, 21.292 ], [ -157.7085, 21.2924 ], [ -157.7085, 21.2901 ] ] ], [ [ [ -157.893, 21.308 ], [ -157.8922, 21.3093 ], [ -157.8914, 21.3084 ], [ -157.8912, 21.307 ], [ -157.893, 21.308 ] ] ], [ [ [ -157.8739, 21.3078 ], [ -157.8693, 21.3021 ], [ -157.8709, 21.2987 ], [ -157.876, 21.3009 ], [ -157.884, 21.2999 ], [ -157.8895, 21.3125 ], [ -157.886, 21.3142 ], [ -157.8802, 21.3132 ], [ -157.8732, 21.3085 ], [ -157.8739, 21.3078 ] ] ], [ [ [ -157.9562, 21.371 ], [ -157.9536, 21.3687 ], [ -157.9494, 21.3687 ], [ -157.9508, 21.3686 ], [ -157.9512, 21.365 ], [ -157.9538, 21.3628 ], [ -157.9522, 21.3632 ], [ -157.9545, 21.3615 ], [ -157.9541, 21.3627 ], [ -157.958, 21.3618 ], [ -157.9608, 21.3562 ], [ -157.9655, 21.3551 ], [ -157.9689, 21.3614 ], [ -157.9667, 21.3656 ], [ -157.9586, 21.3709 ], [ -157.9562, 21.371 ] ] ], [ [ [ -157.9833, 21.7106 ], [ -157.9791, 21.7093 ], [ -157.9661, 21.7095 ], [ -157.9634, 21.7041 ], [ -157.9589, 21.7022 ], [ -157.9485, 21.6898 ], [ -157.9449, 21.6876 ], [ -157.9452, 21.6848 ], [ -157.94, 21.6776 ], [ -157.9328, 21.6739 ], [ -157.9367, 21.6717 ], [ -157.9367, 21.6683 ], [ -157.9341, 21.6639 ], [ -157.9271, 21.6614 ], [ -157.9286, 21.6556 ], [ -157.9275, 21.6527 ], [ -157.922, 21.6484 ], [ -157.9125, 21.6484 ], [ -157.9176, 21.6474 ], [ -157.9184, 21.646 ], [ -157.9185, 21.6347 ], [ -157.9204, 21.6335 ], [ -157.9208, 21.6326 ], [ -157.921, 21.6269 ], [ -157.9126, 21.6198 ], [ -157.913, 21.6149 ], [ -157.9097, 21.6105 ], [ -157.9073, 21.6103 ], [ -157.9053, 21.607 ], [ -157.8979, 21.6022 ], [ -157.895, 21.5942 ], [ -157.8886, 21.589 ], [ -157.8858, 21.5802 ], [ -157.875, 21.5729 ], [ -157.8746, 21.5629 ], [ -157.8762, 21.5571 ], [ -157.8743, 21.5555 ], [ -157.8694, 21.5561 ], [ -157.8705, 21.5543 ], [ -157.8689, 21.5556 ], [ -157.8692, 21.5571 ], [ -157.8671, 21.5577 ], [ -157.8692, 21.5578 ], [ -157.8643, 21.5605 ], [ -157.8547, 21.5579 ], [ -157.8509, 21.5553 ], [ -157.8465, 21.5495 ], [ -157.8462, 21.5457 ], [ -157.8419, 21.542 ], [ -157.8346, 21.5273 ], [ -157.8357, 21.5174 ], [ -157.8346, 21.5094 ], [ -157.8478, 21.5063 ], [ -157.8513, 21.5075 ], [ -157.8524, 21.5028 ], [ -157.8506, 21.4963 ], [ -157.8473, 21.4928 ], [ -157.8491, 21.487 ], [ -157.845, 21.484 ], [ -157.8431, 21.4849 ], [ -157.842, 21.4832 ], [ -157.8422, 21.4761 ], [ -157.8446, 21.4716 ], [ -157.8424, 21.4677 ], [ -157.843, 21.4643 ], [ -157.8396, 21.4601 ], [ -157.8401, 21.4589 ], [ -157.8386, 21.4599 ], [ -157.8348, 21.4576 ], [ -157.8349, 21.461 ], [ -157.8338, 21.4594 ], [ -157.8328, 21.4623 ], [ -157.8314, 21.4579 ], [ -157.8265, 21.4562 ], [ -157.825, 21.4531 ], [ -157.8208, 21.4525 ], [ -157.816, 21.4546 ], [ -157.8123, 21.4438 ], [ -157.8115, 21.443 ], [ -157.8099, 21.4447 ], [ -157.8105, 21.4421 ], [ -157.8074, 21.4426 ], [ -157.8088, 21.4404 ], [ -157.8076, 21.4393 ], [ -157.8099, 21.4395 ], [ -157.8111, 21.4375 ], [ -157.8078, 21.4325 ], [ -157.8066, 21.4318 ], [ -157.8051, 21.4346 ], [ -157.8063, 21.4315 ], [ -157.8, 21.4243 ], [ -157.7948, 21.4255 ], [ -157.7951, 21.4288 ], [ -157.7917, 21.4284 ], [ -157.7916, 21.4242 ], [ -157.7891, 21.4247 ], [ -157.7883, 21.4229 ], [ -157.7912, 21.4181 ], [ -157.7879, 21.4178 ], [ -157.7872, 21.4141 ], [ -157.7813, 21.4112 ], [ -157.7744, 21.413 ], [ -157.7729, 21.4114 ], [ -157.7715, 21.4147 ], [ -157.7667, 21.4158 ], [ -157.7666, 21.419 ], [ -157.7643, 21.4214 ], [ -157.7655, 21.4244 ], [ -157.7642, 21.4276 ], [ -157.7611, 21.4285 ], [ -157.7607, 21.4326 ], [ -157.7572, 21.4357 ], [ -157.7625, 21.4386 ], [ -157.7621, 21.4402 ], [ -157.7641, 21.4382 ], [ -157.7719, 21.4427 ], [ -157.7772, 21.4437 ], [ -157.7786, 21.4461 ], [ -157.7764, 21.4494 ], [ -157.7775, 21.4512 ], [ -157.774, 21.4538 ], [ -157.773, 21.4572 ], [ -157.7682, 21.4564 ], [ -157.7633, 21.4628 ], [ -157.7636, 21.4603 ], [ -157.7598, 21.458 ], [ -157.745, 21.4535 ], [ -157.74, 21.4542 ], [ -157.739, 21.456 ], [ -157.7368, 21.4559 ], [ -157.7302, 21.4602 ], [ -157.7223, 21.459 ], [ -157.7258, 21.4498 ], [ -157.7364, 21.4441 ], [ -157.7357, 21.4335 ], [ -157.7379, 21.4257 ], [ -157.7391, 21.4242 ], [ -157.7418, 21.4253 ], [ -157.7444, 21.4217 ], [ -157.7414, 21.4094 ], [ -157.7343, 21.4007 ], [ -157.7264, 21.3981 ], [ -157.7267, 21.3963 ], [ -157.7255, 21.3975 ], [ -157.7159, 21.3933 ], [ -157.712, 21.389 ], [ -157.7083, 21.3811 ], [ -157.7057, 21.3801 ], [ -157.7096, 21.3669 ], [ -157.7089, 21.3599 ], [ -157.7042, 21.3482 ], [ -157.6933, 21.3324 ], [ -157.6884, 21.3285 ], [ -157.6737, 21.3221 ], [ -157.6676, 21.3165 ], [ -157.6616, 21.3157 ], [ -157.6591, 21.3102 ], [ -157.6493, 21.3112 ], [ -157.6486, 21.3099 ], [ -157.6487, 21.3041 ], [ -157.6509, 21.2989 ], [ -157.6541, 21.297 ], [ -157.6549, 21.2981 ], [ -157.6558, 21.296 ], [ -157.6586, 21.2967 ], [ -157.6576, 21.2938 ], [ -157.6586, 21.2947 ], [ -157.6609, 21.2946 ], [ -157.6614, 21.2938 ], [ -157.6587, 21.2927 ], [ -157.6653, 21.29 ], [ -157.6703, 21.2859 ], [ -157.6744, 21.285 ], [ -157.6775, 21.2803 ], [ -157.6818, 21.2788 ], [ -157.6845, 21.2756 ], [ -157.6863, 21.2758 ], [ -157.6894, 21.2687 ], [ -157.6956, 21.2726 ], [ -157.6973, 21.2681 ], [ -157.6947, 21.2681 ], [ -157.6919, 21.2635 ], [ -157.6998, 21.2602 ], [ -157.7072, 21.2591 ], [ -157.7115, 21.262 ], [ -157.7086, 21.2698 ], [ -157.7093, 21.2777 ], [ -157.7116, 21.2812 ], [ -157.7052, 21.2781 ], [ -157.7041, 21.2803 ], [ -157.7066, 21.2816 ], [ -157.7061, 21.2832 ], [ -157.7037, 21.2809 ], [ -157.699, 21.286 ], [ -157.7033, 21.2839 ], [ -157.6996, 21.288 ], [ -157.6995, 21.2893 ], [ -157.7004, 21.2879 ], [ -157.7079, 21.284 ], [ -157.7101, 21.2871 ], [ -157.7075, 21.289 ], [ -157.7082, 21.2926 ], [ -157.7093, 21.2934 ], [ -157.7104, 21.2928 ], [ -157.7114, 21.2902 ], [ -157.7116, 21.2855 ], [ -157.7121, 21.288 ], [ -157.714, 21.2858 ], [ -157.7122, 21.2891 ], [ -157.7165, 21.2858 ], [ -157.7149, 21.2845 ], [ -157.7095, 21.2852 ], [ -157.7089, 21.2832 ], [ -157.7122, 21.2812 ], [ -157.7183, 21.2837 ], [ -157.7187, 21.2853 ], [ -157.7281, 21.2826 ], [ -157.7228, 21.2814 ], [ -157.7327, 21.282 ], [ -157.7341, 21.2797 ], [ -157.7428, 21.28 ], [ -157.7544, 21.2762 ], [ -157.7549, 21.2742 ], [ -157.7571, 21.2735 ], [ -157.7596, 21.276 ], [ -157.7623, 21.276 ], [ -157.776, 21.2702 ], [ -157.781, 21.2644 ], [ -157.791, 21.2588 ], [ -157.7916, 21.2552 ], [ -157.7961, 21.2573 ], [ -157.8072, 21.2549 ], [ -157.8149, 21.2561 ], [ -157.8186, 21.2577 ], [ -157.8214, 21.2611 ], [ -157.8246, 21.2744 ], [ -157.841, 21.2816 ], [ -157.8438, 21.2853 ], [ -157.8405, 21.2827 ], [ -157.8431, 21.2862 ], [ -157.8394, 21.2836 ], [ -157.8412, 21.2868 ], [ -157.8404, 21.2879 ], [ -157.8443, 21.2879 ], [ -157.846, 21.2817 ], [ -157.8483, 21.2842 ], [ -157.8464, 21.2867 ], [ -157.847, 21.2881 ], [ -157.8551, 21.2912 ], [ -157.856, 21.2911 ], [ -157.855, 21.2932 ], [ -157.8574, 21.2944 ], [ -157.8611, 21.2903 ], [ -157.8698, 21.2955 ], [ -157.8636, 21.3034 ], [ -157.865, 21.3041 ], [ -157.8644, 21.3057 ], [ -157.8655, 21.3054 ], [ -157.8648, 21.3064 ], [ -157.8663, 21.3056 ], [ -157.8644, 21.3092 ], [ -157.8658, 21.3138 ], [ -157.867, 21.314 ], [ -157.8688, 21.31 ], [ -157.8707, 21.3123 ], [ -157.8696, 21.3098 ], [ -157.8716, 21.3106 ], [ -157.8702, 21.3088 ], [ -157.8781, 21.3139 ], [ -157.8763, 21.317 ], [ -157.8796, 21.3167 ], [ -157.8775, 21.3201 ], [ -157.8805, 21.3168 ], [ -157.8805, 21.3197 ], [ -157.8823, 21.3171 ], [ -157.8827, 21.3199 ], [ -157.8829, 21.317 ], [ -157.8856, 21.3161 ], [ -157.8861, 21.3172 ], [ -157.8879, 21.3144 ], [ -157.8908, 21.3145 ], [ -157.8924, 21.3196 ], [ -157.8914, 21.3206 ], [ -157.8925, 21.3203 ], [ -157.8951, 21.3254 ], [ -157.8911, 21.3304 ], [ -157.8939, 21.3335 ], [ -157.8939, 21.3309 ], [ -157.8978, 21.3291 ], [ -157.8993, 21.3299 ], [ -157.9, 21.3266 ], [ -157.9196, 21.3127 ], [ -157.9184, 21.3106 ], [ -157.9069, 21.3099 ], [ -157.9068, 21.3026 ], [ -157.9513, 21.3044 ], [ -157.9511, 21.3086 ], [ -157.9469, 21.3086 ], [ -157.9479, 21.3165 ], [ -157.9594, 21.3173 ], [ -157.9639, 21.3256 ], [ -157.9657, 21.3252 ], [ -157.9641, 21.326 ], [ -157.9643, 21.3283 ], [ -157.966, 21.3279 ], [ -157.9653, 21.3292 ], [ -157.9685, 21.3313 ], [ -157.9684, 21.3361 ], [ -157.9646, 21.3414 ], [ -157.9663, 21.3451 ], [ -157.9638, 21.348 ], [ -157.9665, 21.3459 ], [ -157.9679, 21.349 ], [ -157.9638, 21.3523 ], [ -157.9625, 21.3524 ], [ -157.963, 21.351 ], [ -157.9606, 21.3521 ], [ -157.9612, 21.3509 ], [ -157.9597, 21.3526 ], [ -157.9607, 21.35 ], [ -157.9582, 21.3533 ], [ -157.9593, 21.35 ], [ -157.9543, 21.357 ], [ -157.9542, 21.3552 ], [ -157.9527, 21.3566 ], [ -157.953, 21.3546 ], [ -157.9517, 21.356 ], [ -157.9534, 21.3529 ], [ -157.9511, 21.3554 ], [ -157.9525, 21.3524 ], [ -157.9504, 21.3542 ], [ -157.943, 21.35 ], [ -157.9436, 21.3523 ], [ -157.94, 21.3534 ], [ -157.9442, 21.3549 ], [ -157.9406, 21.3588 ], [ -157.9418, 21.3598 ], [ -157.9467, 21.3553 ], [ -157.9487, 21.3578 ], [ -157.9454, 21.3597 ], [ -157.9472, 21.3605 ], [ -157.9454, 21.3623 ], [ -157.9417, 21.3632 ], [ -157.9406, 21.3653 ], [ -157.9442, 21.3641 ], [ -157.9405, 21.3659 ], [ -157.9381, 21.3652 ], [ -157.9401, 21.3667 ], [ -157.9338, 21.3755 ], [ -157.9368, 21.3775 ], [ -157.941, 21.375 ], [ -157.9428, 21.3765 ], [ -157.9425, 21.3793 ], [ -157.9629, 21.3885 ], [ -157.9695, 21.3854 ], [ -157.9659, 21.3787 ], [ -157.9688, 21.3697 ], [ -157.9734, 21.3715 ], [ -157.9761, 21.375 ], [ -157.976, 21.378 ], [ -157.9817, 21.381 ], [ -157.9849, 21.3853 ], [ -157.9844, 21.3882 ], [ -157.9899, 21.3881 ], [ -157.9924, 21.3862 ], [ -157.9911, 21.3774 ], [ -157.988, 21.3745 ], [ -157.9866, 21.3696 ], [ -157.9822, 21.3654 ], [ -157.9782, 21.3667 ], [ -157.975, 21.3655 ], [ -157.9759, 21.3608 ], [ -157.9708, 21.3529 ], [ -157.9727, 21.3493 ], [ -157.9715, 21.3417 ], [ -157.9746, 21.3433 ], [ -157.9813, 21.3519 ], [ -157.989, 21.3516 ], [ -157.9902, 21.3551 ], [ -157.993, 21.3569 ], [ -157.9883, 21.3578 ], [ -157.9877, 21.3621 ], [ -157.9954, 21.3594 ], [ -157.998, 21.3567 ], [ -158.0, 21.357 ], [ -158.0012, 21.3587 ], [ -158.0005, 21.3619 ], [ -158.0044, 21.365 ], [ -158.0032, 21.3701 ], [ -158.007, 21.3726 ], [ -158.0082, 21.3709 ], [ -158.009, 21.3738 ], [ -158.0093, 21.3726 ], [ -158.011, 21.374 ], [ -158.0141, 21.3737 ], [ -158.0125, 21.3759 ], [ -158.0141, 21.3779 ], [ -158.0154, 21.3779 ], [ -158.0151, 21.3757 ], [ -158.0169, 21.373 ], [ -158.0159, 21.3777 ], [ -158.0174, 21.3734 ], [ -158.0202, 21.3739 ], [ -158.0211, 21.3724 ], [ -158.0193, 21.3678 ], [ -158.0162, 21.3656 ], [ -158.0204, 21.3659 ], [ -158.0231, 21.3633 ], [ -158.0217, 21.3575 ], [ -158.0215, 21.3586 ], [ -158.0169, 21.3568 ], [ -158.0145, 21.3579 ], [ -158.0103, 21.3555 ], [ -158.0075, 21.3569 ], [ -158.0021, 21.352 ], [ -157.9965, 21.3539 ], [ -157.9936, 21.3532 ], [ -157.9922, 21.3484 ], [ -157.9817, 21.3484 ], [ -157.9727, 21.3356 ], [ -157.9728, 21.3282 ], [ -157.9706, 21.3274 ], [ -157.9709, 21.3225 ], [ -157.9778, 21.3164 ], [ -158.021, 21.3063 ], [ -158.0439, 21.3037 ], [ -158.0513, 21.3008 ], [ -158.0677, 21.2996 ], [ -158.0735, 21.2976 ], [ -158.0777, 21.2985 ], [ -158.0862, 21.2956 ], [ -158.0984, 21.2946 ], [ -158.1061, 21.2961 ], [ -158.1133, 21.303 ], [ -158.1214, 21.3217 ], [ -158.119, 21.3218 ], [ -158.1191, 21.3234 ], [ -158.1159, 21.3204 ], [ -158.1116, 21.3244 ], [ -158.1161, 21.3286 ], [ -158.1208, 21.3249 ], [ -158.1169, 21.3304 ], [ -158.121, 21.3292 ], [ -158.1204, 21.3268 ], [ -158.1224, 21.3232 ], [ -158.1233, 21.3267 ], [ -158.1221, 21.3283 ], [ -158.1236, 21.3311 ], [ -158.1224, 21.332 ], [ -158.1238, 21.3324 ], [ -158.1236, 21.335 ], [ -158.1256, 21.3365 ], [ -158.1246, 21.3377 ], [ -158.1264, 21.3377 ], [ -158.1285, 21.3427 ], [ -158.1308, 21.353 ], [ -158.1302, 21.3559 ], [ -158.136, 21.3688 ], [ -158.1379, 21.3692 ], [ -158.1392, 21.3722 ], [ -158.1411, 21.372 ], [ -158.1422, 21.3768 ], [ -158.159, 21.3932 ], [ -158.1665, 21.3973 ], [ -158.1724, 21.398 ], [ -158.1769, 21.4016 ], [ -158.1785, 21.4068 ], [ -158.1772, 21.4116 ], [ -158.1807, 21.4287 ], [ -158.1795, 21.4285 ], [ -158.1832, 21.4299 ], [ -158.1894, 21.4405 ], [ -158.1918, 21.4402 ], [ -158.1894, 21.4445 ], [ -158.1931, 21.4483 ], [ -158.1899, 21.4487 ], [ -158.1963, 21.4487 ], [ -158.1983, 21.451 ], [ -158.1988, 21.4491 ], [ -158.199, 21.4492 ], [ -158.1984, 21.4514 ], [ -158.2029, 21.4538 ], [ -158.2037, 21.4579 ], [ -158.2098, 21.4608 ], [ -158.2148, 21.4597 ], [ -158.2129, 21.4621 ], [ -158.218, 21.4673 ], [ -158.2204, 21.4761 ], [ -158.2223, 21.478 ], [ -158.2278, 21.4788 ], [ -158.2308, 21.4821 ], [ -158.2287, 21.5129 ], [ -158.2301, 21.5163 ], [ -158.2284, 21.5207 ], [ -158.2303, 21.5252 ], [ -158.2294, 21.5307 ], [ -158.2315, 21.5372 ], [ -158.2406, 21.545 ], [ -158.2418, 21.5485 ], [ -158.2487, 21.5558 ], [ -158.2564, 21.5589 ], [ -158.2695, 21.5695 ], [ -158.2797, 21.5732 ], [ -158.2803, 21.5745 ], [ -158.2818, 21.5749 ], [ -158.2819, 21.5754 ], [ -158.261, 21.5772 ], [ -158.2521, 21.5798 ], [ -158.2193, 21.5788 ], [ -158.2006, 21.5828 ], [ -158.1952, 21.5815 ], [ -158.1882, 21.5826 ], [ -158.1803, 21.5804 ], [ -158.1738, 21.5817 ], [ -158.168, 21.5789 ], [ -158.163, 21.5807 ], [ -158.1517, 21.5806 ], [ -158.138, 21.5841 ], [ -158.1284, 21.5821 ], [ -158.1217, 21.5849 ], [ -158.1198, 21.5806 ], [ -158.1164, 21.5841 ], [ -158.1198, 21.5876 ], [ -158.1189, 21.5893 ], [ -158.1129, 21.589 ], [ -158.107, 21.5952 ], [ -158.1064, 21.593 ], [ -158.1056, 21.5926 ], [ -158.1039, 21.5934 ], [ -158.1058, 21.5932 ], [ -158.1048, 21.5953 ], [ -158.1036, 21.5934 ], [ -158.104, 21.6 ], [ -158.1076, 21.6031 ], [ -158.0968, 21.6101 ], [ -158.0945, 21.6136 ], [ -158.086, 21.6182 ], [ -158.0847, 21.6212 ], [ -158.0761, 21.626 ], [ -158.0715, 21.6314 ], [ -158.0718, 21.6335 ], [ -158.0698, 21.634 ], [ -158.0689, 21.6377 ], [ -158.0648, 21.6388 ], [ -158.0629, 21.6419 ], [ -158.065, 21.6434 ], [ -158.0633, 21.6467 ], [ -158.0638, 21.6502 ], [ -158.0634, 21.6492 ], [ -158.0618, 21.6515 ], [ -158.063, 21.6551 ], [ -158.0613, 21.6554 ], [ -158.0467, 21.6705 ], [ -158.0406, 21.6743 ], [ -158.0378, 21.6811 ], [ -158.033, 21.6819 ], [ -158.0302, 21.6871 ], [ -158.0247, 21.6892 ], [ -158.0137, 21.6983 ], [ -158.0124, 21.696 ], [ -158.0095, 21.6966 ], [ -158.008, 21.6985 ], [ -158.0093, 21.701 ], [ -158.001, 21.7001 ], [ -157.9986, 21.7033 ], [ -157.9996, 21.7073 ], [ -157.9978, 21.7053 ], [ -157.9968, 21.7071 ], [ -157.9958, 21.7057 ], [ -157.9899, 21.7049 ], [ -157.9843, 21.7095 ], [ -157.9846, 21.7127 ], [ -157.9833, 21.7106 ] ], [ [ -157.6972, 21.2894 ], [ -157.6896, 21.2963 ], [ -157.6948, 21.2956 ], [ -157.6951, 21.3014 ], [ -157.6973, 21.293 ], [ -157.6995, 21.2893 ], [ -157.6972, 21.2894 ] ], [ [ -157.9452, 21.3102 ], [ -157.929, 21.3103 ], [ -157.9303, 21.3127 ], [ -157.9374, 21.3155 ], [ -157.9459, 21.3162 ], [ -157.9452, 21.3102 ] ] ], [ [ [ -157.8594, 21.2908 ], [ -157.8581, 21.2922 ], [ -157.856, 21.2911 ], [ -157.8594, 21.2908 ] ] ] ] } }
]
}
