{
"type": "FeatureCollection",
"name": "filtered_slr_potent_fld_hwys_0pt5ft",
"crs": { "type": "name", "properties": { "name": "urn:ogc:def:crs:OGC:1.3:CRS84" } },
"features": [
{ "type": "Feature", "properties": { "FID_kau_ce": 667, "SEGMENTID": 1280.0, "ST_FULLNM": "KAUMUALII HWY", "ST_PRE": null, "ST_NAME": "KAUMUALII", "ST_TYPE": "HWY", "ST_SUF": null, "A1_FULLNM": "HI-50", "A1_ST_PRE": null, "A1_ST_NAME": "HI-50", "A1_ST_TYPE": null, "A1_ST_SUF": null, "A2_FULLNM": null, "A2_ST_PRE": null, "A2_ST_NAME": null, "A2_ST_TYPE": null, "A2_ST_SUF": null, "ROUTE_NUM": "50", "ROUTE_TYPE": 3, "LF_ADDR": "18398", "LT_ADDR": "18358", "RF_ADDR": "18399", "RT_ADDR": "18359", "ONEWAY": 0, "FROM_ELEV": 0, "TO_ELEV": 0, "PAVED": "Y", "PRIVATE": "N", "GEO_SOURCE": 1, "NAME": "KAUMUALII HWY", "Shape_Leng": 78.442873446299998 }, "geometry": { "type": "MultiLineString", "coordinates": [ [ [ -159.71185, 21.96519 ], [ -159.71211, 21.96543 ] ], [ [ -159.71122, 21.96458 ], [ -159.7115, 21.96485 ] ] ] } },
{ "type": "Feature", "properties": { "FID_kau_ce": 674, "SEGMENTID": 1307.0, "ST_FULLNM": "KAUMUALII HWY", "ST_PRE": null, "ST_NAME": "KAUMUALII", "ST_TYPE": "HWY", "ST_SUF": null, "A1_FULLNM": "HI-50", "A1_ST_PRE": null, "A1_ST_NAME": "HI-50", "A1_ST_TYPE": null, "A1_ST_SUF": null, "A2_FULLNM": null, "A2_ST_PRE": null, "A2_ST_NAME": null, "A2_ST_TYPE": null, "A2_ST_SUF": null, "ROUTE_NUM": "50", "ROUTE_TYPE": 3, "LF_ADDR": "18098", "LT_ADDR": "18000", "RF_ADDR": "18099", "RT_ADDR": "18001", "ONEWAY": 0, "FROM_ELEV": 0, "TO_ELEV": 0, "PAVED": "Y", "PRIVATE": "N", "GEO_SOURCE": 1, "NAME": "KAUMUALII HWY", "Shape_Leng": 234.00221949799999 }, "geometry": { "type": "MultiLineString", "coordinates": [ [ [ -159.71947, 21.96874 ], [ -159.72163, 21.96938 ] ] ] } },
{ "type": "Feature", "properties": { "FID_kau_ce": 678, "SEGMENTID": 1311.0, "ST_FULLNM": "KAUMUALII HWY", "ST_PRE": null, "ST_NAME": "KAUMUALII", "ST_TYPE": "HWY", "ST_SUF": null, "A1_FULLNM": "HI-50", "A1_ST_PRE": null, "A1_ST_NAME": "HI-50", "A1_ST_TYPE": null, "A1_ST_SUF": null, "A2_FULLNM": null, "A2_ST_PRE": null, "A2_ST_NAME": null, "A2_ST_TYPE": null, "A2_ST_SUF": null, "ROUTE_NUM": "50", "ROUTE_TYPE": 3, "LF_ADDR": "17998", "LT_ADDR": "17900", "RF_ADDR": "17999", "RT_ADDR": "17901", "ONEWAY": 0, "FROM_ELEV": 0, "TO_ELEV": 0, "PAVED": "Y", "PRIVATE": "N", "GEO_SOURCE": 1, "NAME": "KAUMUALII HWY", "Shape_Leng": 271.46267713600002 }, "geometry": { "type": "MultiLineString", "coordinates": [ [ [ -159.72163, 21.96938 ], [ -159.72414, 21.97011 ] ] ] } },
{ "type": "Feature", "properties": { "FID_kau_ce": 786, "SEGMENTID": 281.0, "ST_FULLNM": "KAUMUALII HWY", "ST_PRE": null, "ST_NAME": "KAUMUALII", "ST_TYPE": "HWY", "ST_SUF": null, "A1_FULLNM": "HI-50", "A1_ST_PRE": null, "A1_ST_NAME": "HI-50", "A1_ST_TYPE": null, "A1_ST_SUF": null, "A2_FULLNM": null, "A2_ST_PRE": null, "A2_ST_NAME": null, "A2_ST_TYPE": null, "A2_ST_SUF": null, "ROUTE_NUM": "50", "ROUTE_TYPE": 3, "LF_ADDR": "10998", "LT_ADDR": "10952", "RF_ADDR": "10999", "RT_ADDR": "10953", "ONEWAY": 0, "FROM_ELEV": 0, "TO_ELEV": 0, "PAVED": "Y", "PRIVATE": "N", "GEO_SOURCE": 1, "NAME": "KAUMUALII HWY", "Shape_Leng": 4.1574820514699997 }, "geometry": { "type": "MultiLineString", "coordinates": [ [ [ -159.64927, 21.94435 ], [ -159.64928, 21.94436 ] ], [ [ -159.64746, 21.93988 ], [ -159.64747, 21.9399 ] ] ] } },
{ "type": "Feature", "properties": { "FID_kau_ce": 1182, "SEGMENTID": 1238.0, "ST_FULLNM": "KAUMUALII HWY", "ST_PRE": null, "ST_NAME": "KAUMUALII", "ST_TYPE": "HWY", "ST_SUF": null, "A1_FULLNM": "HI-50", "A1_ST_PRE": null, "A1_ST_NAME": "HI-50", "A1_ST_TYPE": null, "A1_ST_SUF": null, "A2_FULLNM": null, "A2_ST_PRE": null, "A2_ST_NAME": null, "A2_ST_TYPE": null, "A2_ST_SUF": null, "ROUTE_NUM": "50", "ROUTE_TYPE": 3, "LF_ADDR": "18701", "LT_ADDR": "18749", "RF_ADDR": "18700", "RT_ADDR": "18748", "ONEWAY": 0, "FROM_ELEV": 0, "TO_ELEV": 0, "PAVED": "Y", "PRIVATE": "N", "GEO_SOURCE": 1, "NAME": "KAUMUALII HWY", "Shape_Leng": 8.46248997018 }, "geometry": { "type": "MultiLineString", "coordinates": [ [ [ -159.70223, 21.96122 ], [ -159.70215, 21.96125 ] ] ] } },
{ "type": "Feature", "properties": { "FID_kau_ce": 1190, "SEGMENTID": 1246.0, "ST_FULLNM": "KAUMUALII HWY", "ST_PRE": null, "ST_NAME": "KAUMUALII", "ST_TYPE": "HWY", "ST_SUF": null, "A1_FULLNM": "HI-50", "A1_ST_PRE": null, "A1_ST_NAME": "HI-50", "A1_ST_TYPE": null, "A1_ST_SUF": null, "A2_FULLNM": null, "A2_ST_PRE": null, "A2_ST_NAME": null, "A2_ST_TYPE": null, "A2_ST_SUF": null, "ROUTE_NUM": "50", "ROUTE_TYPE": 3, "LF_ADDR": "18598", "LT_ADDR": "18550", "RF_ADDR": "18599", "RT_ADDR": "18551", "ONEWAY": 0, "FROM_ELEV": 0, "TO_ELEV": 0, "PAVED": "Y", "PRIVATE": "N", "GEO_SOURCE": 1, "NAME": "KAUMUALII HWY", "Shape_Leng": 253.518281664 }, "geometry": { "type": "MultiLineString", "coordinates": [ [ [ -159.7062, 21.96113 ], [ -159.70841, 21.96213 ] ] ] } },
{ "type": "Feature", "properties": { "FID_kau_ce": 1202, "SEGMENTID": 1258.0, "ST_FULLNM": "KAUMUALII HWY", "ST_PRE": null, "ST_NAME": "KAUMUALII", "ST_TYPE": "HWY", "ST_SUF": null, "A1_FULLNM": "HI-50", "A1_ST_PRE": null, "A1_ST_NAME": "HI-50", "A1_ST_TYPE": null, "A1_ST_SUF": null, "A2_FULLNM": null, "A2_ST_PRE": null, "A2_ST_NAME": null, "A2_ST_TYPE": null, "A2_ST_SUF": null, "ROUTE_NUM": "50", "ROUTE_TYPE": 3, "LF_ADDR": "18548", "LT_ADDR": "18500", "RF_ADDR": "18549", "RT_ADDR": "18501", "ONEWAY": 0, "FROM_ELEV": 0, "TO_ELEV": 0, "PAVED": "Y", "PRIVATE": "N", "GEO_SOURCE": 1, "NAME": "KAUMUALII HWY", "Shape_Leng": 93.694710908199994 }, "geometry": { "type": "MultiLineString", "coordinates": [ [ [ -159.70893, 21.96247 ], [ -159.70946, 21.96285 ] ], [ [ -159.70841, 21.96213 ], [ -159.7086, 21.96225 ] ] ] } },
{ "type": "Feature", "properties": { "FID_kau_ce": 1211, "SEGMENTID": 1267.0, "ST_FULLNM": "KAUMUALII HWY", "ST_PRE": null, "ST_NAME": "KAUMUALII", "ST_TYPE": "HWY", "ST_SUF": null, "A1_FULLNM": "HI-50", "A1_ST_PRE": null, "A1_ST_NAME": "HI-50", "A1_ST_TYPE": null, "A1_ST_SUF": null, "A2_FULLNM": null, "A2_ST_PRE": null, "A2_ST_NAME": null, "A2_ST_TYPE": null, "A2_ST_SUF": null, "ROUTE_NUM": "50", "ROUTE_TYPE": 3, "LF_ADDR": "18462", "LT_ADDR": "18400", "RF_ADDR": "18463", "RT_ADDR": "18401", "ONEWAY": 0, "FROM_ELEV": 0, "TO_ELEV": 0, "PAVED": "Y", "PRIVATE": "N", "GEO_SOURCE": 1, "NAME": "KAUMUALII HWY", "Shape_Leng": 48.172289794299999 }, "geometry": { "type": "MultiLineString", "coordinates": [ [ [ -159.71092, 21.96424 ], [ -159.71122, 21.96458 ] ] ] } },
{ "type": "Feature", "properties": { "FID_kau_ce": 1281, "SEGMENTID": 514.0, "ST_FULLNM": "KAUMUALII HWY", "ST_PRE": null, "ST_NAME": "KAUMUALII", "ST_TYPE": "HWY", "ST_SUF": null, "A1_FULLNM": "HI-50", "A1_ST_PRE": null, "A1_ST_NAME": "HI-50", "A1_ST_TYPE": null, "A1_ST_SUF": null, "A2_FULLNM": null, "A2_ST_PRE": null, "A2_ST_NAME": null, "A2_ST_TYPE": null, "A2_ST_SUF": null, "ROUTE_NUM": "50", "ROUTE_TYPE": 3, "LF_ADDR": "18498", "LT_ADDR": "18464", "RF_ADDR": "18499", "RT_ADDR": "18465", "ONEWAY": 0, "FROM_ELEV": 0, "TO_ELEV": 0, "PAVED": "Y", "PRIVATE": "N", "GEO_SOURCE": 1, "NAME": "KAUMUALII HWY", "Shape_Leng": 59.2134374615 }, "geometry": { "type": "MultiLineString", "coordinates": [ [ [ -159.71006, 21.96331 ], [ -159.71019, 21.96344 ] ], [ [ -159.70946, 21.96285 ], [ -159.70976, 21.96307 ] ] ] } },
{ "type": "Feature", "properties": { "FID_kau_ce": 1344, "SEGMENTID": 852.0, "ST_FULLNM": "KAUMUALII HWY", "ST_PRE": null, "ST_NAME": "KAUMUALII", "ST_TYPE": "HWY", "ST_SUF": null, "A1_FULLNM": "HI-50", "A1_ST_PRE": null, "A1_ST_NAME": "HI-50", "A1_ST_TYPE": null, "A1_ST_SUF": null, "A2_FULLNM": null, "A2_ST_PRE": null, "A2_ST_NAME": null, "A2_ST_TYPE": null, "A2_ST_SUF": null, "ROUTE_NUM": "50", "ROUTE_TYPE": 3, "LF_ADDR": "17898", "LT_ADDR": "17624", "RF_ADDR": "17899", "RT_ADDR": "17625", "ONEWAY": 0, "FROM_ELEV": 0, "TO_ELEV": 0, "PAVED": "Y", "PRIVATE": "N", "GEO_SOURCE": 1, "NAME": "KAUMUALII HWY", "Shape_Leng": 575.45333276500003 }, "geometry": { "type": "MultiLineString", "coordinates": [ [ [ -159.72931, 21.97171 ], [ -159.72987, 21.97196 ] ], [ [ -159.72414, 21.97011 ], [ -159.72886, 21.97153 ] ] ] } },
{ "type": "Feature", "properties": { "FID_kau_ce": 1387, "SEGMENTID": 1297.0, "ST_FULLNM": "KAUMUALII HWY", "ST_PRE": null, "ST_NAME": "KAUMUALII", "ST_TYPE": "HWY", "ST_SUF": null, "A1_FULLNM": "HI-50", "A1_ST_PRE": null, "A1_ST_NAME": "HI-50", "A1_ST_TYPE": null, "A1_ST_SUF": null, "A2_FULLNM": null, "A2_ST_PRE": null, "A2_ST_NAME": null, "A2_ST_TYPE": null, "A2_ST_SUF": null, "ROUTE_NUM": "50", "ROUTE_TYPE": 3, "LF_ADDR": "18298", "LT_ADDR": "18200", "RF_ADDR": "18299", "RT_ADDR": "18201", "ONEWAY": 0, "FROM_ELEV": 0, "TO_ELEV": 0, "PAVED": "Y", "PRIVATE": "N", "GEO_SOURCE": 1, "NAME": "KAUMUALII HWY", "Shape_Leng": 409.85549326699999 }, "geometry": { "type": "MultiLineString", "coordinates": [ [ [ -159.71368, 21.96659 ], [ -159.71729, 21.9681 ] ] ] } },
{ "type": "Feature", "properties": { "FID_kau_ce": 1390, "SEGMENTID": 1300.0, "ST_FULLNM": "KAUMUALII HWY", "ST_PRE": null, "ST_NAME": "KAUMUALII", "ST_TYPE": "HWY", "ST_SUF": null, "A1_FULLNM": "HI-50", "A1_ST_PRE": null, "A1_ST_NAME": "HI-50", "A1_ST_TYPE": null, "A1_ST_SUF": null, "A2_FULLNM": null, "A2_ST_PRE": null, "A2_ST_NAME": null, "A2_ST_TYPE": null, "A2_ST_SUF": null, "ROUTE_NUM": "50", "ROUTE_TYPE": 3, "LF_ADDR": "18198", "LT_ADDR": "18100", "RF_ADDR": "18199", "RT_ADDR": "18101", "ONEWAY": 0, "FROM_ELEV": 0, "TO_ELEV": 0, "PAVED": "Y", "PRIVATE": "N", "GEO_SOURCE": 1, "NAME": "KAUMUALII HWY", "Shape_Leng": 235.97189522299999 }, "geometry": { "type": "MultiLineString", "coordinates": [ [ [ -159.71729, 21.9681 ], [ -159.71947, 21.96874 ] ] ] } },
{ "type": "Feature", "properties": { "FID_kau_ce": 1697, "SEGMENTID": 917.0, "ST_FULLNM": "KAUMUALII HWY", "ST_PRE": null, "ST_NAME": "KAUMUALII", "ST_TYPE": "HWY", "ST_SUF": null, "A1_FULLNM": "HI-50", "A1_ST_PRE": null, "A1_ST_NAME": "HI-50", "A1_ST_TYPE": null, "A1_ST_SUF": null, "A2_FULLNM": null, "A2_ST_PRE": null, "A2_ST_NAME": null, "A2_ST_TYPE": null, "A2_ST_SUF": null, "ROUTE_NUM": "50", "ROUTE_TYPE": 3, "LF_ADDR": "18698", "LT_ADDR": "18600", "RF_ADDR": "18699", "RT_ADDR": "18601", "ONEWAY": 0, "FROM_ELEV": 0, "TO_ELEV": 0, "PAVED": "Y", "PRIVATE": "N", "GEO_SOURCE": 1, "NAME": "KAUMUALII HWY", "Shape_Leng": 356.055912627 }, "geometry": { "type": "MultiLineString", "coordinates": [ [ [ -159.70284, 21.96101 ], [ -159.70448, 21.96077 ], [ -159.7062, 21.96113 ] ] ] } },
{ "type": "Feature", "properties": { "FID_kau_ce": 1712, "SEGMENTID": 957.0, "ST_FULLNM": "KAUMUALII HWY", "ST_PRE": null, "ST_NAME": "KAUMUALII", "ST_TYPE": "HWY", "ST_SUF": null, "A1_FULLNM": "HI-50", "A1_ST_PRE": null, "A1_ST_NAME": "HI-50", "A1_ST_TYPE": null, "A1_ST_SUF": null, "A2_FULLNM": null, "A2_ST_PRE": null, "A2_ST_NAME": null, "A2_ST_TYPE": null, "A2_ST_SUF": null, "ROUTE_NUM": "50", "ROUTE_TYPE": 3, "LF_ADDR": null, "LT_ADDR": null, "RF_ADDR": null, "RT_ADDR": null, "ONEWAY": 0, "FROM_ELEV": 0, "TO_ELEV": 0, "PAVED": "Y", "PRIVATE": "N", "GEO_SOURCE": 1, "NAME": "KAUMUALII HWY", "Shape_Leng": 44.625017853700001 }, "geometry": { "type": "MultiLineString", "coordinates": [ [ [ -159.77697, 22.02011 ], [ -159.77702, 22.02016 ] ], [ [ -159.77241, 22.01526 ], [ -159.77263, 22.01549 ] ], [ [ -159.77224, 22.01508 ], [ -159.77226, 22.0151 ] ] ] } },
{ "type": "Feature", "properties": { "FID_kau_ce": 1724, "SEGMENTID": 969.0, "ST_FULLNM": "KAUMUALII HWY", "ST_PRE": null, "ST_NAME": "KAUMUALII", "ST_TYPE": "HWY", "ST_SUF": null, "A1_FULLNM": "HI-50", "A1_ST_PRE": null, "A1_ST_NAME": "HI-50", "A1_ST_TYPE": null, "A1_ST_SUF": null, "A2_FULLNM": null, "A2_ST_PRE": null, "A2_ST_NAME": null, "A2_ST_TYPE": null, "A2_ST_SUF": null, "ROUTE_NUM": "50", "ROUTE_TYPE": 3, "LF_ADDR": null, "LT_ADDR": null, "RF_ADDR": null, "RT_ADDR": null, "ONEWAY": 0, "FROM_ELEV": 0, "TO_ELEV": 0, "PAVED": "Y", "PRIVATE": "N", "GEO_SOURCE": 1, "NAME": "KAUMUALII HWY", "Shape_Leng": 7.2441372401799997 }, "geometry": { "type": "MultiLineString", "coordinates": [ [ [ -159.77712, 22.03288 ], [ -159.7771, 22.03295 ] ] ] } },
{ "type": "Feature", "properties": { "FID_kau_ce": 2640, "SEGMENTID": 2313.0, "ST_FULLNM": "KUHIO HWY", "ST_PRE": null, "ST_NAME": "KUHIO", "ST_TYPE": "HWY", "ST_SUF": null, "A1_FULLNM": "HI-56", "A1_ST_PRE": null, "A1_ST_NAME": "HI-56", "A1_ST_TYPE": null, "A1_ST_SUF": null, "A2_FULLNM": null, "A2_ST_PRE": null, "A2_ST_NAME": null, "A2_ST_TYPE": null, "A2_ST_SUF": null, "ROUTE_NUM": "56", "ROUTE_TYPE": 3, "LF_ADDR": "4771", "LT_ADDR": "4859", "RF_ADDR": "4772", "RT_ADDR": "4858", "ONEWAY": 0, "FROM_ELEV": 0, "TO_ELEV": 0, "PAVED": "Y", "PRIVATE": "N", "GEO_SOURCE": 1, "NAME": "KUHIO HWY", "Shape_Leng": 9.1943601469500003 }, "geometry": { "type": "MultiLineString", "coordinates": [ [ [ -159.32127, 22.06104 ], [ -159.32121, 22.0611 ] ] ] } },
{ "type": "Feature", "properties": { "FID_kau_ce": 3165, "SEGMENTID": 3064.0, "ST_FULLNM": "KUHIO HWY", "ST_PRE": null, "ST_NAME": "KUHIO", "ST_TYPE": "HWY", "ST_SUF": null, "A1_FULLNM": "HI-560", "A1_ST_PRE": null, "A1_ST_NAME": "HI-560", "A1_ST_TYPE": null, "A1_ST_SUF": null, "A2_FULLNM": null, "A2_ST_PRE": null, "A2_ST_NAME": null, "A2_ST_TYPE": null, "A2_ST_SUF": null, "ROUTE_NUM": "560", "ROUTE_TYPE": 3, "LF_ADDR": "56698", "LT_ADDR": "56602", "RF_ADDR": "56699", "RT_ADDR": "56601", "ONEWAY": 0, "FROM_ELEV": 0, "TO_ELEV": 0, "PAVED": "Y", "PRIVATE": "N", "GEO_SOURCE": 1, "NAME": "KUHIO HWY", "Shape_Leng": 79.746018894499997 }, "geometry": { "type": "MultiLineString", "coordinates": [ [ [ -159.54179, 22.2131 ], [ -159.54147, 22.21311 ] ], [ [ -159.54271, 22.2128 ], [ -159.54232, 22.21302 ] ] ] } },
{ "type": "Feature", "properties": { "FID_kau_ce": 3327, "SEGMENTID": 3305.0, "ST_FULLNM": "KUHIO HWY", "ST_PRE": null, "ST_NAME": "KUHIO", "ST_TYPE": "HWY", "ST_SUF": null, "A1_FULLNM": "HI-560", "A1_ST_PRE": null, "A1_ST_NAME": "HI-560", "A1_ST_TYPE": null, "A1_ST_SUF": null, "A2_FULLNM": null, "A2_ST_PRE": null, "A2_ST_NAME": null, "A2_ST_TYPE": null, "A2_ST_SUF": null, "ROUTE_NUM": "560", "ROUTE_TYPE": 3, "LF_ADDR": "57738", "LT_ADDR": "57642", "RF_ADDR": "57699", "RT_ADDR": "57653", "ONEWAY": 0, "FROM_ELEV": 0, "TO_ELEV": 0, "PAVED": "Y", "PRIVATE": "N", "GEO_SOURCE": 1, "NAME": "KUHIO HWY", "Shape_Leng": 3.2297265658100001 }, "geometry": { "type": "MultiLineString", "coordinates": [ [ [ -159.56054, 22.22259 ], [ -159.56051, 22.22261 ] ] ] } },
{ "type": "Feature", "properties": { "FID_kau_ce": 3338, "SEGMENTID": 3316.0, "ST_FULLNM": "KUHIO HWY", "ST_PRE": null, "ST_NAME": "KUHIO", "ST_TYPE": "HWY", "ST_SUF": null, "A1_FULLNM": "HI-560", "A1_ST_PRE": null, "A1_ST_NAME": "HI-560", "A1_ST_TYPE": null, "A1_ST_SUF": null, "A2_FULLNM": null, "A2_ST_PRE": null, "A2_ST_NAME": null, "A2_ST_TYPE": null, "A2_ST_SUF": null, "ROUTE_NUM": "560", "ROUTE_TYPE": 3, "LF_ADDR": "58398", "LT_ADDR": "57740", "RF_ADDR": "58399", "RT_ADDR": "57701", "ONEWAY": 0, "FROM_ELEV": 0, "TO_ELEV": 0, "PAVED": "Y", "PRIVATE": "N", "GEO_SOURCE": 1, "NAME": "KUHIO HWY", "Shape_Leng": 276.091843643 }, "geometry": { "type": "MultiLineString", "coordinates": [ [ [ -159.5623, 22.22135 ], [ -159.56205, 22.22166 ] ], [ [ -159.56241, 22.22122 ], [ -159.56233, 22.22131 ] ], [ [ -159.5678, 22.22096 ], [ -159.56743, 22.22044 ] ], [ [ -159.56342, 22.22066 ], [ -159.56319, 22.22071 ] ], [ [ -159.56462, 22.21996 ], [ -159.5645, 22.22022 ] ], [ [ -159.56725, 22.22005 ], [ -159.56719, 22.21999 ] ], [ [ -159.56698, 22.21983 ], [ -159.56649, 22.21961 ] ], [ [ -159.56517, 22.21942 ], [ -159.56491, 22.21954 ] ] ] } },
{ "type": "Feature", "properties": { "FID_kau_ce": 3561, "SEGMENTID": 3562.0, "ST_FULLNM": "KUHIO HWY", "ST_PRE": null, "ST_NAME": "KUHIO", "ST_TYPE": "HWY", "ST_SUF": null, "A1_FULLNM": "HI-560", "A1_ST_PRE": null, "A1_ST_NAME": "HI-560", "A1_ST_TYPE": null, "A1_ST_SUF": null, "A2_FULLNM": null, "A2_ST_PRE": null, "A2_ST_NAME": null, "A2_ST_TYPE": null, "A2_ST_SUF": null, "ROUTE_NUM": "560", "ROUTE_TYPE": 0, "LF_ADDR": "56801", "LT_ADDR": "56939", "RF_ADDR": "56800", "RT_ADDR": "56998", "ONEWAY": 0, "FROM_ELEV": 0, "TO_ELEV": 0, "PAVED": "Y", "PRIVATE": "N", "GEO_SOURCE": 1, "NAME": "KUHIO HWY", "Shape_Leng": 20.7732646577 }, "geometry": { "type": "MultiLineString", "coordinates": [ [ [ -159.54184, 22.21665 ], [ -159.54202, 22.21672 ] ] ] } },
{ "type": "Feature", "properties": { "FID_kau_ce": 0, "SEGMENTID": 0.0, "ST_FULLNM": null, "ST_PRE": null, "ST_NAME": null, "ST_TYPE": null, "ST_SUF": null, "A1_FULLNM": null, "A1_ST_PRE": null, "A1_ST_NAME": null, "A1_ST_TYPE": null, "A1_ST_SUF": null, "A2_FULLNM": null, "A2_ST_PRE": null, "A2_ST_NAME": null, "A2_ST_TYPE": null, "A2_ST_SUF": null, "ROUTE_NUM": null, "ROUTE_TYPE": 0, "LF_ADDR": null, "LT_ADDR": null, "RF_ADDR": null, "RT_ADDR": null, "ONEWAY": 0, "FROM_ELEV": 0, "TO_ELEV": 0, "PAVED": null, "PRIVATE": null, "GEO_SOURCE": 0, "NAME": "HONOAPIILANI HIGHWAY", "Shape_Leng": 62.381150080600001 }, "geometry": { "type": "MultiLineString", "coordinates": [ [ [ -156.68788, 20.90873 ], [ -156.68805, 20.90927 ] ] ] } },
{ "type": "Feature", "properties": { "FID_kau_ce": 0, "SEGMENTID": 0.0, "ST_FULLNM": null, "ST_PRE": null, "ST_NAME": null, "ST_TYPE": null, "ST_SUF": null, "A1_FULLNM": null, "A1_ST_PRE": null, "A1_ST_NAME": null, "A1_ST_TYPE": null, "A1_ST_SUF": null, "A2_FULLNM": null, "A2_ST_PRE": null, "A2_ST_NAME": null, "A2_ST_TYPE": null, "A2_ST_SUF": null, "ROUTE_NUM": null, "ROUTE_TYPE": 0, "LF_ADDR": null, "LT_ADDR": null, "RF_ADDR": null, "RT_ADDR": null, "ONEWAY": 0, "FROM_ELEV": 0, "TO_ELEV": 0, "PAVED": null, "PRIVATE": null, "GEO_SOURCE": 0, "NAME": "PIILANI HIGHWAY", "Shape_Leng": 4.2828642692400001 }, "geometry": { "type": "MultiLineString", "coordinates": [ [ [ -156.20962, 20.6251 ], [ -156.20958, 20.62512 ] ] ] } },
{ "type": "Feature", "properties": { "FID_kau_ce": 0, "SEGMENTID": 0.0, "ST_FULLNM": null, "ST_PRE": null, "ST_NAME": null, "ST_TYPE": null, "ST_SUF": null, "A1_FULLNM": null, "A1_ST_PRE": null, "A1_ST_NAME": null, "A1_ST_TYPE": null, "A1_ST_SUF": null, "A2_FULLNM": null, "A2_ST_PRE": null, "A2_ST_NAME": null, "A2_ST_TYPE": null, "A2_ST_SUF": null, "ROUTE_NUM": null, "ROUTE_TYPE": 0, "LF_ADDR": null, "LT_ADDR": null, "RF_ADDR": null, "RT_ADDR": null, "ONEWAY": 0, "FROM_ELEV": 0, "TO_ELEV": 0, "PAVED": null, "PRIVATE": null, "GEO_SOURCE": 0, "NAME": "HANA HIGHWAY 36", "Shape_Leng": 4.1640293428900002 }, "geometry": { "type": "MultiLineString", "coordinates": [ [ [ -156.36522, 20.93007 ], [ -156.36519, 20.93009 ] ] ] } },
{ "type": "Feature", "properties": { "FID_kau_ce": 0, "SEGMENTID": 0.0, "ST_FULLNM": null, "ST_PRE": null, "ST_NAME": null, "ST_TYPE": null, "ST_SUF": null, "A1_FULLNM": null, "A1_ST_PRE": null, "A1_ST_NAME": null, "A1_ST_TYPE": null, "A1_ST_SUF": null, "A2_FULLNM": null, "A2_ST_PRE": null, "A2_ST_NAME": null, "A2_ST_TYPE": null, "A2_ST_SUF": null, "ROUTE_NUM": null, "ROUTE_TYPE": 0, "LF_ADDR": null, "LT_ADDR": null, "RF_ADDR": null, "RT_ADDR": null, "ONEWAY": 0, "FROM_ELEV": 0, "TO_ELEV": 0, "PAVED": null, "PRIVATE": null, "GEO_SOURCE": 0, "NAME": "NORTH KIHEI ROAD", "Shape_Leng": 465.41014997899998 }, "geometry": { "type": "MultiLineString", "coordinates": [ [ [ -156.48385, 20.79473 ], [ -156.47992, 20.79274 ] ] ] } },
{ "type": "Feature", "properties": { "FID_kau_ce": 0, "SEGMENTID": 0.0, "ST_FULLNM": null, "ST_PRE": null, "ST_NAME": null, "ST_TYPE": null, "ST_SUF": null, "A1_FULLNM": null, "A1_ST_PRE": null, "A1_ST_NAME": null, "A1_ST_TYPE": null, "A1_ST_SUF": null, "A2_FULLNM": null, "A2_ST_PRE": null, "A2_ST_NAME": null, "A2_ST_TYPE": null, "A2_ST_SUF": null, "ROUTE_NUM": null, "ROUTE_TYPE": 0, "LF_ADDR": null, "LT_ADDR": null, "RF_ADDR": null, "RT_ADDR": null, "ONEWAY": 0, "FROM_ELEV": 0, "TO_ELEV": 0, "PAVED": null, "PRIVATE": null, "GEO_SOURCE": 0, "NAME": "NORTH KIHEI ROAD", "Shape_Leng": 115.18659918199999 }, "geometry": { "type": "MultiLineString", "coordinates": [ [ [ -156.47979, 20.79268 ], [ -156.4788, 20.79221 ] ] ] } },
{ "type": "Feature", "properties": { "FID_kau_ce": 0, "SEGMENTID": 0.0, "ST_FULLNM": null, "ST_PRE": null, "ST_NAME": null, "ST_TYPE": null, "ST_SUF": null, "A1_FULLNM": null, "A1_ST_PRE": null, "A1_ST_NAME": null, "A1_ST_TYPE": null, "A1_ST_SUF": null, "A2_FULLNM": null, "A2_ST_PRE": null, "A2_ST_NAME": null, "A2_ST_TYPE": null, "A2_ST_SUF": null, "ROUTE_NUM": null, "ROUTE_TYPE": 0, "LF_ADDR": null, "LT_ADDR": null, "RF_ADDR": null, "RT_ADDR": null, "ONEWAY": 0, "FROM_ELEV": 0, "TO_ELEV": 0, "PAVED": null, "PRIVATE": null, "GEO_SOURCE": 0, "NAME": "NORTH KIHEI ROAD", "Shape_Leng": 448.37668887799998 }, "geometry": { "type": "MultiLineString", "coordinates": [ [ [ -156.47412, 20.7901 ], [ -156.47049, 20.78796 ] ] ] } },
{ "type": "Feature", "properties": { "FID_kau_ce": 0, "SEGMENTID": 0.0, "ST_FULLNM": null, "ST_PRE": null, "ST_NAME": null, "ST_TYPE": null, "ST_SUF": null, "A1_FULLNM": null, "A1_ST_PRE": null, "A1_ST_NAME": null, "A1_ST_TYPE": null, "A1_ST_SUF": null, "A2_FULLNM": null, "A2_ST_PRE": null, "A2_ST_NAME": null, "A2_ST_TYPE": null, "A2_ST_SUF": null, "ROUTE_NUM": null, "ROUTE_TYPE": 0, "LF_ADDR": null, "LT_ADDR": null, "RF_ADDR": null, "RT_ADDR": null, "ONEWAY": 0, "FROM_ELEV": 0, "TO_ELEV": 0, "PAVED": null, "PRIVATE": null, "GEO_SOURCE": 0, "NAME": "KAHULUI BEACH ROAD", "Shape_Leng": 10.041540918600001 }, "geometry": { "type": "MultiLineString", "coordinates": [ [ [ -156.4806, 20.89832 ], [ -156.48063, 20.89841 ] ] ] } },
{ "type": "Feature", "properties": { "FID_kau_ce": 0, "SEGMENTID": 0.0, "ST_FULLNM": null, "ST_PRE": null, "ST_NAME": null, "ST_TYPE": null, "ST_SUF": null, "A1_FULLNM": null, "A1_ST_PRE": null, "A1_ST_NAME": null, "A1_ST_TYPE": null, "A1_ST_SUF": null, "A2_FULLNM": null, "A2_ST_PRE": null, "A2_ST_NAME": null, "A2_ST_TYPE": null, "A2_ST_SUF": null, "ROUTE_NUM": null, "ROUTE_TYPE": 0, "LF_ADDR": null, "LT_ADDR": null, "RF_ADDR": null, "RT_ADDR": null, "ONEWAY": 0, "FROM_ELEV": 0, "TO_ELEV": 0, "PAVED": null, "PRIVATE": null, "GEO_SOURCE": 0, "NAME": "KAHULUI BEACH ROAD", "Shape_Leng": 10.052936987500001 }, "geometry": { "type": "MultiLineString", "coordinates": [ [ [ -156.47811, 20.89414 ], [ -156.47818, 20.89421 ] ] ] } },
{ "type": "Feature", "properties": { "FID_kau_ce": 0, "SEGMENTID": 0.0, "ST_FULLNM": null, "ST_PRE": null, "ST_NAME": null, "ST_TYPE": null, "ST_SUF": null, "A1_FULLNM": null, "A1_ST_PRE": null, "A1_ST_NAME": null, "A1_ST_TYPE": null, "A1_ST_SUF": null, "A2_FULLNM": null, "A2_ST_PRE": null, "A2_ST_NAME": null, "A2_ST_TYPE": null, "A2_ST_SUF": null, "ROUTE_NUM": null, "ROUTE_TYPE": 0, "LF_ADDR": null, "LT_ADDR": null, "RF_ADDR": null, "RT_ADDR": null, "ONEWAY": 0, "FROM_ELEV": 0, "TO_ELEV": 0, "PAVED": null, "PRIVATE": null, "GEO_SOURCE": 0, "NAME": "KAHULUI BEACH ROAD", "Shape_Leng": 15.4613502018 }, "geometry": { "type": "MultiLineString", "coordinates": [ [ [ -156.47798, 20.89401 ], [ -156.47808, 20.89411 ] ] ] } },
{ "type": "Feature", "properties": { "FID_kau_ce": 0, "SEGMENTID": 0.0, "ST_FULLNM": null, "ST_PRE": null, "ST_NAME": null, "ST_TYPE": null, "ST_SUF": null, "A1_FULLNM": null, "A1_ST_PRE": null, "A1_ST_NAME": null, "A1_ST_TYPE": null, "A1_ST_SUF": null, "A2_FULLNM": null, "A2_ST_PRE": null, "A2_ST_NAME": null, "A2_ST_TYPE": null, "A2_ST_SUF": null, "ROUTE_NUM": null, "ROUTE_TYPE": 0, "LF_ADDR": null, "LT_ADDR": null, "RF_ADDR": null, "RT_ADDR": null, "ONEWAY": 0, "FROM_ELEV": 0, "TO_ELEV": 0, "PAVED": null, "PRIVATE": null, "GEO_SOURCE": 0, "NAME": "KAHULUI BEACH ROAD", "Shape_Leng": 264.711705833 }, "geometry": { "type": "MultiLineString", "coordinates": [ [ [ -156.47357, 20.89078 ], [ -156.47558, 20.89223 ] ] ] } },
{ "type": "Feature", "properties": { "FID_kau_ce": 0, "SEGMENTID": 0.0, "ST_FULLNM": null, "ST_PRE": null, "ST_NAME": null, "ST_TYPE": null, "ST_SUF": null, "A1_FULLNM": null, "A1_ST_PRE": null, "A1_ST_NAME": null, "A1_ST_TYPE": null, "A1_ST_SUF": null, "A2_FULLNM": null, "A2_ST_PRE": null, "A2_ST_NAME": null, "A2_ST_TYPE": null, "A2_ST_SUF": null, "ROUTE_NUM": null, "ROUTE_TYPE": 0, "LF_ADDR": null, "LT_ADDR": null, "RF_ADDR": null, "RT_ADDR": null, "ONEWAY": 0, "FROM_ELEV": 0, "TO_ELEV": 0, "PAVED": null, "PRIVATE": null, "GEO_SOURCE": 0, "NAME": "HONOAPIILANI HIGHWAY", "Shape_Leng": 4.5487903794099998 }, "geometry": { "type": "MultiLineString", "coordinates": [ [ [ -156.68786, 20.90869 ], [ -156.68788, 20.90873 ] ] ] } },
{ "type": "Feature", "properties": { "FID_kau_ce": 0, "SEGMENTID": 0.0, "ST_FULLNM": null, "ST_PRE": null, "ST_NAME": null, "ST_TYPE": null, "ST_SUF": null, "A1_FULLNM": null, "A1_ST_PRE": null, "A1_ST_NAME": null, "A1_ST_TYPE": null, "A1_ST_SUF": null, "A2_FULLNM": null, "A2_ST_PRE": null, "A2_ST_NAME": null, "A2_ST_TYPE": null, "A2_ST_SUF": null, "ROUTE_NUM": null, "ROUTE_TYPE": 0, "LF_ADDR": null, "LT_ADDR": null, "RF_ADDR": null, "RT_ADDR": null, "ONEWAY": 0, "FROM_ELEV": 0, "TO_ELEV": 0, "PAVED": null, "PRIVATE": null, "GEO_SOURCE": 0, "NAME": "HONOAPIILANI HIGHWAY", "Shape_Leng": 125.040771161 }, "geometry": { "type": "MultiLineString", "coordinates": [ [ [ -156.68466, 20.90064 ], [ -156.68461, 20.90177 ] ] ] } },
{ "type": "Feature", "properties": { "FID_kau_ce": 0, "SEGMENTID": 0.0, "ST_FULLNM": null, "ST_PRE": null, "ST_NAME": null, "ST_TYPE": null, "ST_SUF": null, "A1_FULLNM": null, "A1_ST_PRE": null, "A1_ST_NAME": null, "A1_ST_TYPE": null, "A1_ST_SUF": null, "A2_FULLNM": null, "A2_ST_PRE": null, "A2_ST_NAME": null, "A2_ST_TYPE": null, "A2_ST_SUF": null, "ROUTE_NUM": null, "ROUTE_TYPE": 0, "LF_ADDR": null, "LT_ADDR": null, "RF_ADDR": null, "RT_ADDR": null, "ONEWAY": 0, "FROM_ELEV": 0, "TO_ELEV": 0, "PAVED": null, "PRIVATE": null, "GEO_SOURCE": 0, "NAME": "HONOAPIILANI HIGHWAY", "Shape_Leng": 75.280358138300002 }, "geometry": { "type": "MultiLineString", "coordinates": [ [ [ -156.68489, 20.89516 ], [ -156.68487, 20.89584 ] ] ] } },
{ "type": "Feature", "properties": { "FID_kau_ce": 0, "SEGMENTID": 0.0, "ST_FULLNM": null, "ST_PRE": null, "ST_NAME": null, "ST_TYPE": null, "ST_SUF": null, "A1_FULLNM": null, "A1_ST_PRE": null, "A1_ST_NAME": null, "A1_ST_TYPE": null, "A1_ST_SUF": null, "A2_FULLNM": null, "A2_ST_PRE": null, "A2_ST_NAME": null, "A2_ST_TYPE": null, "A2_ST_SUF": null, "ROUTE_NUM": null, "ROUTE_TYPE": 0, "LF_ADDR": null, "LT_ADDR": null, "RF_ADDR": null, "RT_ADDR": null, "ONEWAY": 0, "FROM_ELEV": 0, "TO_ELEV": 0, "PAVED": null, "PRIVATE": null, "GEO_SOURCE": 0, "NAME": "HONOAPIILANI HIGHWAY", "Shape_Leng": 97.9607218883 }, "geometry": { "type": "MultiLineString", "coordinates": [ [ [ -156.66213, 20.85361 ], [ -156.6627, 20.85431 ] ] ] } },
{ "type": "Feature", "properties": { "FID_kau_ce": 0, "SEGMENTID": 0.0, "ST_FULLNM": null, "ST_PRE": null, "ST_NAME": null, "ST_TYPE": null, "ST_SUF": null, "A1_FULLNM": null, "A1_ST_PRE": null, "A1_ST_NAME": null, "A1_ST_TYPE": null, "A1_ST_SUF": null, "A2_FULLNM": null, "A2_ST_PRE": null, "A2_ST_NAME": null, "A2_ST_TYPE": null, "A2_ST_SUF": null, "ROUTE_NUM": null, "ROUTE_TYPE": 0, "LF_ADDR": null, "LT_ADDR": null, "RF_ADDR": null, "RT_ADDR": null, "ONEWAY": 0, "FROM_ELEV": 0, "TO_ELEV": 0, "PAVED": null, "PRIVATE": null, "GEO_SOURCE": 0, "NAME": "HONOAPIILANI HIGHWAY", "Shape_Leng": 210.066795455 }, "geometry": { "type": "MultiLineString", "coordinates": [ [ [ -156.65978, 20.85141 ], [ -156.66126, 20.85268 ] ] ] } },
{ "type": "Feature", "properties": { "FID_kau_ce": 0, "SEGMENTID": 0.0, "ST_FULLNM": null, "ST_PRE": null, "ST_NAME": null, "ST_TYPE": null, "ST_SUF": null, "A1_FULLNM": null, "A1_ST_PRE": null, "A1_ST_NAME": null, "A1_ST_TYPE": null, "A1_ST_SUF": null, "A2_FULLNM": null, "A2_ST_PRE": null, "A2_ST_NAME": null, "A2_ST_TYPE": null, "A2_ST_SUF": null, "ROUTE_NUM": null, "ROUTE_TYPE": 0, "LF_ADDR": null, "LT_ADDR": null, "RF_ADDR": null, "RT_ADDR": null, "ONEWAY": 0, "FROM_ELEV": 0, "TO_ELEV": 0, "PAVED": null, "PRIVATE": null, "GEO_SOURCE": 0, "NAME": "HONOAPIILANI HIGHWAY", "Shape_Leng": 282.569400836 }, "geometry": { "type": "MultiLineString", "coordinates": [ [ [ -156.65705, 20.84903 ], [ -156.659, 20.8508 ] ] ] } },
{ "type": "Feature", "properties": { "FID_kau_ce": 0, "SEGMENTID": 0.0, "ST_FULLNM": null, "ST_PRE": null, "ST_NAME": null, "ST_TYPE": null, "ST_SUF": null, "A1_FULLNM": null, "A1_ST_PRE": null, "A1_ST_NAME": null, "A1_ST_TYPE": null, "A1_ST_SUF": null, "A2_FULLNM": null, "A2_ST_PRE": null, "A2_ST_NAME": null, "A2_ST_TYPE": null, "A2_ST_SUF": null, "ROUTE_NUM": null, "ROUTE_TYPE": 0, "LF_ADDR": null, "LT_ADDR": null, "RF_ADDR": null, "RT_ADDR": null, "ONEWAY": 0, "FROM_ELEV": 0, "TO_ELEV": 0, "PAVED": null, "PRIVATE": null, "GEO_SOURCE": 0, "NAME": "HONOAPIILANI HIGHWAY", "Shape_Leng": 93.298744385000006 }, "geometry": { "type": "MultiLineString", "coordinates": [ [ [ -156.6553, 20.84706 ], [ -156.65587, 20.84771 ] ] ] } },
{ "type": "Feature", "properties": { "FID_kau_ce": 0, "SEGMENTID": 0.0, "ST_FULLNM": null, "ST_PRE": null, "ST_NAME": null, "ST_TYPE": null, "ST_SUF": null, "A1_FULLNM": null, "A1_ST_PRE": null, "A1_ST_NAME": null, "A1_ST_TYPE": null, "A1_ST_SUF": null, "A2_FULLNM": null, "A2_ST_PRE": null, "A2_ST_NAME": null, "A2_ST_TYPE": null, "A2_ST_SUF": null, "ROUTE_NUM": null, "ROUTE_TYPE": 0, "LF_ADDR": null, "LT_ADDR": null, "RF_ADDR": null, "RT_ADDR": null, "ONEWAY": 0, "FROM_ELEV": 0, "TO_ELEV": 0, "PAVED": null, "PRIVATE": null, "GEO_SOURCE": 0, "NAME": "HONOAPIILANI HIGHWAY", "Shape_Leng": 215.163590634 }, "geometry": { "type": "MultiLineString", "coordinates": [ [ [ -156.65363, 20.84488 ], [ -156.65481, 20.84647 ] ] ] } },
{ "type": "Feature", "properties": { "FID_kau_ce": 0, "SEGMENTID": 0.0, "ST_FULLNM": null, "ST_PRE": null, "ST_NAME": null, "ST_TYPE": null, "ST_SUF": null, "A1_FULLNM": null, "A1_ST_PRE": null, "A1_ST_NAME": null, "A1_ST_TYPE": null, "A1_ST_SUF": null, "A2_FULLNM": null, "A2_ST_PRE": null, "A2_ST_NAME": null, "A2_ST_TYPE": null, "A2_ST_SUF": null, "ROUTE_NUM": null, "ROUTE_TYPE": 0, "LF_ADDR": null, "LT_ADDR": null, "RF_ADDR": null, "RT_ADDR": null, "ONEWAY": 0, "FROM_ELEV": 0, "TO_ELEV": 0, "PAVED": null, "PRIVATE": null, "GEO_SOURCE": 0, "NAME": "HONOAPIILANI HIGHWAY", "Shape_Leng": 17.196837095799999 }, "geometry": { "type": "MultiLineString", "coordinates": [ [ [ -156.65001, 20.83911 ], [ -156.6501, 20.83924 ] ] ] } },
{ "type": "Feature", "properties": { "FID_kau_ce": 0, "SEGMENTID": 0.0, "ST_FULLNM": null, "ST_PRE": null, "ST_NAME": null, "ST_TYPE": null, "ST_SUF": null, "A1_FULLNM": null, "A1_ST_PRE": null, "A1_ST_NAME": null, "A1_ST_TYPE": null, "A1_ST_SUF": null, "A2_FULLNM": null, "A2_ST_PRE": null, "A2_ST_NAME": null, "A2_ST_TYPE": null, "A2_ST_SUF": null, "ROUTE_NUM": null, "ROUTE_TYPE": 0, "LF_ADDR": null, "LT_ADDR": null, "RF_ADDR": null, "RT_ADDR": null, "ONEWAY": 0, "FROM_ELEV": 0, "TO_ELEV": 0, "PAVED": null, "PRIVATE": null, "GEO_SOURCE": 0, "NAME": "HONOAPIILANI HIGHWAY", "Shape_Leng": 445.06027975199999 }, "geometry": { "type": "MultiLineString", "coordinates": [ [ [ -156.6409, 20.83293 ], [ -156.64498, 20.83411 ] ] ] } },
{ "type": "Feature", "properties": { "FID_kau_ce": 0, "SEGMENTID": 0.0, "ST_FULLNM": null, "ST_PRE": null, "ST_NAME": null, "ST_TYPE": null, "ST_SUF": null, "A1_FULLNM": null, "A1_ST_PRE": null, "A1_ST_NAME": null, "A1_ST_TYPE": null, "A1_ST_SUF": null, "A2_FULLNM": null, "A2_ST_PRE": null, "A2_ST_NAME": null, "A2_ST_TYPE": null, "A2_ST_SUF": null, "ROUTE_NUM": null, "ROUTE_TYPE": 0, "LF_ADDR": null, "LT_ADDR": null, "RF_ADDR": null, "RT_ADDR": null, "ONEWAY": 0, "FROM_ELEV": 0, "TO_ELEV": 0, "PAVED": null, "PRIVATE": null, "GEO_SOURCE": 0, "NAME": "HONOAPIILANI HIGHWAY", "Shape_Leng": 20.912693481000002 }, "geometry": { "type": "MultiLineString", "coordinates": [ [ [ -156.64039, 20.83267 ], [ -156.64056, 20.83277 ] ] ] } },
{ "type": "Feature", "properties": { "FID_kau_ce": 0, "SEGMENTID": 0.0, "ST_FULLNM": null, "ST_PRE": null, "ST_NAME": null, "ST_TYPE": null, "ST_SUF": null, "A1_FULLNM": null, "A1_ST_PRE": null, "A1_ST_NAME": null, "A1_ST_TYPE": null, "A1_ST_SUF": null, "A2_FULLNM": null, "A2_ST_PRE": null, "A2_ST_NAME": null, "A2_ST_TYPE": null, "A2_ST_SUF": null, "ROUTE_NUM": null, "ROUTE_TYPE": 0, "LF_ADDR": null, "LT_ADDR": null, "RF_ADDR": null, "RT_ADDR": null, "ONEWAY": 0, "FROM_ELEV": 0, "TO_ELEV": 0, "PAVED": null, "PRIVATE": null, "GEO_SOURCE": 0, "NAME": "HONOAPIILANI HIGHWAY", "Shape_Leng": 60.944436365500003 }, "geometry": { "type": "MultiLineString", "coordinates": [ [ [ -156.63204, 20.82535 ], [ -156.63241, 20.82577 ] ] ] } },
{ "type": "Feature", "properties": { "FID_kau_ce": 0, "SEGMENTID": 0.0, "ST_FULLNM": null, "ST_PRE": null, "ST_NAME": null, "ST_TYPE": null, "ST_SUF": null, "A1_FULLNM": null, "A1_ST_PRE": null, "A1_ST_NAME": null, "A1_ST_TYPE": null, "A1_ST_SUF": null, "A2_FULLNM": null, "A2_ST_PRE": null, "A2_ST_NAME": null, "A2_ST_TYPE": null, "A2_ST_SUF": null, "ROUTE_NUM": null, "ROUTE_TYPE": 0, "LF_ADDR": null, "LT_ADDR": null, "RF_ADDR": null, "RT_ADDR": null, "ONEWAY": 0, "FROM_ELEV": 0, "TO_ELEV": 0, "PAVED": null, "PRIVATE": null, "GEO_SOURCE": 0, "NAME": "HONOAPIILANI HIGHWAY", "Shape_Leng": 93.085683205099997 }, "geometry": { "type": "MultiLineString", "coordinates": [ [ [ -156.63134, 20.82444 ], [ -156.63185, 20.82513 ] ] ] } },
{ "type": "Feature", "properties": { "FID_kau_ce": 0, "SEGMENTID": 0.0, "ST_FULLNM": null, "ST_PRE": null, "ST_NAME": null, "ST_TYPE": null, "ST_SUF": null, "A1_FULLNM": null, "A1_ST_PRE": null, "A1_ST_NAME": null, "A1_ST_TYPE": null, "A1_ST_SUF": null, "A2_FULLNM": null, "A2_ST_PRE": null, "A2_ST_NAME": null, "A2_ST_TYPE": null, "A2_ST_SUF": null, "ROUTE_NUM": null, "ROUTE_TYPE": 0, "LF_ADDR": null, "LT_ADDR": null, "RF_ADDR": null, "RT_ADDR": null, "ONEWAY": 0, "FROM_ELEV": 0, "TO_ELEV": 0, "PAVED": null, "PRIVATE": null, "GEO_SOURCE": 0, "NAME": "HONOAPIILANI HIGHWAY", "Shape_Leng": 225.53934558 }, "geometry": { "type": "MultiLineString", "coordinates": [ [ [ -156.6302, 20.82247 ], [ -156.63122, 20.82426 ] ] ] } },
{ "type": "Feature", "properties": { "FID_kau_ce": 0, "SEGMENTID": 0.0, "ST_FULLNM": null, "ST_PRE": null, "ST_NAME": null, "ST_TYPE": null, "ST_SUF": null, "A1_FULLNM": null, "A1_ST_PRE": null, "A1_ST_NAME": null, "A1_ST_TYPE": null, "A1_ST_SUF": null, "A2_FULLNM": null, "A2_ST_PRE": null, "A2_ST_NAME": null, "A2_ST_TYPE": null, "A2_ST_SUF": null, "ROUTE_NUM": null, "ROUTE_TYPE": 0, "LF_ADDR": null, "LT_ADDR": null, "RF_ADDR": null, "RT_ADDR": null, "ONEWAY": 0, "FROM_ELEV": 0, "TO_ELEV": 0, "PAVED": null, "PRIVATE": null, "GEO_SOURCE": 0, "NAME": "HONOAPIILANI HIGHWAY", "Shape_Leng": 5.9194069922899999 }, "geometry": { "type": "MultiLineString", "coordinates": [ [ [ -156.62982, 20.82162 ], [ -156.62984, 20.82167 ] ] ] } },
{ "type": "Feature", "properties": { "FID_kau_ce": 0, "SEGMENTID": 0.0, "ST_FULLNM": null, "ST_PRE": null, "ST_NAME": null, "ST_TYPE": null, "ST_SUF": null, "A1_FULLNM": null, "A1_ST_PRE": null, "A1_ST_NAME": null, "A1_ST_TYPE": null, "A1_ST_SUF": null, "A2_FULLNM": null, "A2_ST_PRE": null, "A2_ST_NAME": null, "A2_ST_TYPE": null, "A2_ST_SUF": null, "ROUTE_NUM": null, "ROUTE_TYPE": 0, "LF_ADDR": null, "LT_ADDR": null, "RF_ADDR": null, "RT_ADDR": null, "ONEWAY": 0, "FROM_ELEV": 0, "TO_ELEV": 0, "PAVED": null, "PRIVATE": null, "GEO_SOURCE": 0, "NAME": "HONOAPIILANI HIGHWAY", "Shape_Leng": 217.543571 }, "geometry": { "type": "MultiLineString", "coordinates": [ [ [ -156.62897, 20.81939 ], [ -156.62967, 20.82125 ] ] ] } },
{ "type": "Feature", "properties": { "FID_kau_ce": 0, "SEGMENTID": 0.0, "ST_FULLNM": null, "ST_PRE": null, "ST_NAME": null, "ST_TYPE": null, "ST_SUF": null, "A1_FULLNM": null, "A1_ST_PRE": null, "A1_ST_NAME": null, "A1_ST_TYPE": null, "A1_ST_SUF": null, "A2_FULLNM": null, "A2_ST_PRE": null, "A2_ST_NAME": null, "A2_ST_TYPE": null, "A2_ST_SUF": null, "ROUTE_NUM": null, "ROUTE_TYPE": 0, "LF_ADDR": null, "LT_ADDR": null, "RF_ADDR": null, "RT_ADDR": null, "ONEWAY": 0, "FROM_ELEV": 0, "TO_ELEV": 0, "PAVED": null, "PRIVATE": null, "GEO_SOURCE": 0, "NAME": "HONOAPIILANI HIGHWAY", "Shape_Leng": 79.020876860200005 }, "geometry": { "type": "MultiLineString", "coordinates": [ [ [ -156.6109, 20.81042 ], [ -156.61166, 20.81042 ] ] ] } },
{ "type": "Feature", "properties": { "FID_kau_ce": 0, "SEGMENTID": 0.0, "ST_FULLNM": null, "ST_PRE": null, "ST_NAME": null, "ST_TYPE": null, "ST_SUF": null, "A1_FULLNM": null, "A1_ST_PRE": null, "A1_ST_NAME": null, "A1_ST_TYPE": null, "A1_ST_SUF": null, "A2_FULLNM": null, "A2_ST_PRE": null, "A2_ST_NAME": null, "A2_ST_TYPE": null, "A2_ST_SUF": null, "ROUTE_NUM": null, "ROUTE_TYPE": 0, "LF_ADDR": null, "LT_ADDR": null, "RF_ADDR": null, "RT_ADDR": null, "ONEWAY": 0, "FROM_ELEV": 0, "TO_ELEV": 0, "PAVED": null, "PRIVATE": null, "GEO_SOURCE": 0, "NAME": "HONOAPIILANI HIGHWAY", "Shape_Leng": 36.697755490699997 }, "geometry": { "type": "MultiLineString", "coordinates": [ [ [ -156.61194, 20.81042 ], [ -156.6123, 20.81042 ] ] ] } },
{ "type": "Feature", "properties": { "FID_kau_ce": 0, "SEGMENTID": 0.0, "ST_FULLNM": null, "ST_PRE": null, "ST_NAME": null, "ST_TYPE": null, "ST_SUF": null, "A1_FULLNM": null, "A1_ST_PRE": null, "A1_ST_NAME": null, "A1_ST_TYPE": null, "A1_ST_SUF": null, "A2_FULLNM": null, "A2_ST_PRE": null, "A2_ST_NAME": null, "A2_ST_TYPE": null, "A2_ST_SUF": null, "ROUTE_NUM": null, "ROUTE_TYPE": 0, "LF_ADDR": null, "LT_ADDR": null, "RF_ADDR": null, "RT_ADDR": null, "ONEWAY": 0, "FROM_ELEV": 0, "TO_ELEV": 0, "PAVED": null, "PRIVATE": null, "GEO_SOURCE": 0, "NAME": "HONOAPIILANI HIGHWAY", "Shape_Leng": 114.47026468200001 }, "geometry": { "type": "MultiLineString", "coordinates": [ [ [ -156.60938, 20.81035 ], [ -156.61048, 20.81042 ] ] ] } },
{ "type": "Feature", "properties": { "FID_kau_ce": 0, "SEGMENTID": 0.0, "ST_FULLNM": null, "ST_PRE": null, "ST_NAME": null, "ST_TYPE": null, "ST_SUF": null, "A1_FULLNM": null, "A1_ST_PRE": null, "A1_ST_NAME": null, "A1_ST_TYPE": null, "A1_ST_SUF": null, "A2_FULLNM": null, "A2_ST_PRE": null, "A2_ST_NAME": null, "A2_ST_TYPE": null, "A2_ST_SUF": null, "ROUTE_NUM": null, "ROUTE_TYPE": 0, "LF_ADDR": null, "LT_ADDR": null, "RF_ADDR": null, "RT_ADDR": null, "ONEWAY": 0, "FROM_ELEV": 0, "TO_ELEV": 0, "PAVED": null, "PRIVATE": null, "GEO_SOURCE": 0, "NAME": "HONOAPIILANI HIGHWAY", "Shape_Leng": 34.443890976100001 }, "geometry": { "type": "MultiLineString", "coordinates": [ [ [ -156.61232, 20.81042 ], [ -156.61265, 20.81041 ] ] ] } },
{ "type": "Feature", "properties": { "FID_kau_ce": 0, "SEGMENTID": 0.0, "ST_FULLNM": null, "ST_PRE": null, "ST_NAME": null, "ST_TYPE": null, "ST_SUF": null, "A1_FULLNM": null, "A1_ST_PRE": null, "A1_ST_NAME": null, "A1_ST_TYPE": null, "A1_ST_SUF": null, "A2_FULLNM": null, "A2_ST_PRE": null, "A2_ST_NAME": null, "A2_ST_TYPE": null, "A2_ST_SUF": null, "ROUTE_NUM": null, "ROUTE_TYPE": 0, "LF_ADDR": null, "LT_ADDR": null, "RF_ADDR": null, "RT_ADDR": null, "ONEWAY": 0, "FROM_ELEV": 0, "TO_ELEV": 0, "PAVED": null, "PRIVATE": null, "GEO_SOURCE": 0, "NAME": "HONOAPIILANI HIGHWAY", "Shape_Leng": 47.149490321000002 }, "geometry": { "type": "MultiLineString", "coordinates": [ [ [ -156.6039, 20.80845 ], [ -156.60431, 20.80865 ] ] ] } },
{ "type": "Feature", "properties": { "FID_kau_ce": 0, "SEGMENTID": 0.0, "ST_FULLNM": null, "ST_PRE": null, "ST_NAME": null, "ST_TYPE": null, "ST_SUF": null, "A1_FULLNM": null, "A1_ST_PRE": null, "A1_ST_NAME": null, "A1_ST_TYPE": null, "A1_ST_SUF": null, "A2_FULLNM": null, "A2_ST_PRE": null, "A2_ST_NAME": null, "A2_ST_TYPE": null, "A2_ST_SUF": null, "ROUTE_NUM": null, "ROUTE_TYPE": 0, "LF_ADDR": null, "LT_ADDR": null, "RF_ADDR": null, "RT_ADDR": null, "ONEWAY": 0, "FROM_ELEV": 0, "TO_ELEV": 0, "PAVED": null, "PRIVATE": null, "GEO_SOURCE": 0, "NAME": "HONOAPIILANI HIGHWAY", "Shape_Leng": 64.035601264700006 }, "geometry": { "type": "MultiLineString", "coordinates": [ [ [ -156.59725, 20.8045 ], [ -156.5977, 20.80489 ] ] ] } },
{ "type": "Feature", "properties": { "FID_kau_ce": 0, "SEGMENTID": 0.0, "ST_FULLNM": null, "ST_PRE": null, "ST_NAME": null, "ST_TYPE": null, "ST_SUF": null, "A1_FULLNM": null, "A1_ST_PRE": null, "A1_ST_NAME": null, "A1_ST_TYPE": null, "A1_ST_SUF": null, "A2_FULLNM": null, "A2_ST_PRE": null, "A2_ST_NAME": null, "A2_ST_TYPE": null, "A2_ST_SUF": null, "ROUTE_NUM": null, "ROUTE_TYPE": 0, "LF_ADDR": null, "LT_ADDR": null, "RF_ADDR": null, "RT_ADDR": null, "ONEWAY": 0, "FROM_ELEV": 0, "TO_ELEV": 0, "PAVED": null, "PRIVATE": null, "GEO_SOURCE": 0, "NAME": "HONOAPIILANI HIGHWAY", "Shape_Leng": 8.69757551973 }, "geometry": { "type": "MultiLineString", "coordinates": [ [ [ -156.59634, 20.8037 ], [ -156.5964, 20.80375 ] ] ] } },
{ "type": "Feature", "properties": { "FID_kau_ce": 0, "SEGMENTID": 0.0, "ST_FULLNM": null, "ST_PRE": null, "ST_NAME": null, "ST_TYPE": null, "ST_SUF": null, "A1_FULLNM": null, "A1_ST_PRE": null, "A1_ST_NAME": null, "A1_ST_TYPE": null, "A1_ST_SUF": null, "A2_FULLNM": null, "A2_ST_PRE": null, "A2_ST_NAME": null, "A2_ST_TYPE": null, "A2_ST_SUF": null, "ROUTE_NUM": null, "ROUTE_TYPE": 0, "LF_ADDR": null, "LT_ADDR": null, "RF_ADDR": null, "RT_ADDR": null, "ONEWAY": 0, "FROM_ELEV": 0, "TO_ELEV": 0, "PAVED": null, "PRIVATE": null, "GEO_SOURCE": 0, "NAME": "HONOAPIILANI HIGHWAY", "Shape_Leng": 83.535896618899997 }, "geometry": { "type": "MultiLineString", "coordinates": [ [ [ -156.59302, 20.80088 ], [ -156.59364, 20.80137 ] ] ] } },
{ "type": "Feature", "properties": { "FID_kau_ce": 0, "SEGMENTID": 0.0, "ST_FULLNM": null, "ST_PRE": null, "ST_NAME": null, "ST_TYPE": null, "ST_SUF": null, "A1_FULLNM": null, "A1_ST_PRE": null, "A1_ST_NAME": null, "A1_ST_TYPE": null, "A1_ST_SUF": null, "A2_FULLNM": null, "A2_ST_PRE": null, "A2_ST_NAME": null, "A2_ST_TYPE": null, "A2_ST_SUF": null, "ROUTE_NUM": null, "ROUTE_TYPE": 0, "LF_ADDR": null, "LT_ADDR": null, "RF_ADDR": null, "RT_ADDR": null, "ONEWAY": 0, "FROM_ELEV": 0, "TO_ELEV": 0, "PAVED": null, "PRIVATE": null, "GEO_SOURCE": 0, "NAME": "HONOAPIILANI HIGHWAY", "Shape_Leng": 63.629542582200003 }, "geometry": { "type": "MultiLineString", "coordinates": [ [ [ -156.59049, 20.79903 ], [ -156.59097, 20.79938 ] ] ] } },
{ "type": "Feature", "properties": { "FID_kau_ce": 0, "SEGMENTID": 0.0, "ST_FULLNM": null, "ST_PRE": null, "ST_NAME": null, "ST_TYPE": null, "ST_SUF": null, "A1_FULLNM": null, "A1_ST_PRE": null, "A1_ST_NAME": null, "A1_ST_TYPE": null, "A1_ST_SUF": null, "A2_FULLNM": null, "A2_ST_PRE": null, "A2_ST_NAME": null, "A2_ST_TYPE": null, "A2_ST_SUF": null, "ROUTE_NUM": null, "ROUTE_TYPE": 0, "LF_ADDR": null, "LT_ADDR": null, "RF_ADDR": null, "RT_ADDR": null, "ONEWAY": 0, "FROM_ELEV": 0, "TO_ELEV": 0, "PAVED": null, "PRIVATE": null, "GEO_SOURCE": 0, "NAME": "HONOAPIILANI HIGHWAY", "Shape_Leng": 65.311496715499999 }, "geometry": { "type": "MultiLineString", "coordinates": [ [ [ -156.58824, 20.7977 ], [ -156.5888, 20.79797 ] ] ] } },
{ "type": "Feature", "properties": { "FID_kau_ce": 0, "SEGMENTID": 0.0, "ST_FULLNM": null, "ST_PRE": null, "ST_NAME": null, "ST_TYPE": null, "ST_SUF": null, "A1_FULLNM": null, "A1_ST_PRE": null, "A1_ST_NAME": null, "A1_ST_TYPE": null, "A1_ST_SUF": null, "A2_FULLNM": null, "A2_ST_PRE": null, "A2_ST_NAME": null, "A2_ST_TYPE": null, "A2_ST_SUF": null, "ROUTE_NUM": null, "ROUTE_TYPE": 0, "LF_ADDR": null, "LT_ADDR": null, "RF_ADDR": null, "RT_ADDR": null, "ONEWAY": 0, "FROM_ELEV": 0, "TO_ELEV": 0, "PAVED": null, "PRIVATE": null, "GEO_SOURCE": 0, "NAME": "HONOAPIILANI HIGHWAY", "Shape_Leng": 570.81336443099997 }, "geometry": { "type": "MultiLineString", "coordinates": [ [ [ -156.57573, 20.79415 ], [ -156.58116, 20.79489 ] ] ] } },
{ "type": "Feature", "properties": { "FID_kau_ce": 0, "SEGMENTID": 0.0, "ST_FULLNM": null, "ST_PRE": null, "ST_NAME": null, "ST_TYPE": null, "ST_SUF": null, "A1_FULLNM": null, "A1_ST_PRE": null, "A1_ST_NAME": null, "A1_ST_TYPE": null, "A1_ST_SUF": null, "A2_FULLNM": null, "A2_ST_PRE": null, "A2_ST_NAME": null, "A2_ST_TYPE": null, "A2_ST_SUF": null, "ROUTE_NUM": null, "ROUTE_TYPE": 0, "LF_ADDR": null, "LT_ADDR": null, "RF_ADDR": null, "RT_ADDR": null, "ONEWAY": 0, "FROM_ELEV": 0, "TO_ELEV": 0, "PAVED": null, "PRIVATE": null, "GEO_SOURCE": 0, "NAME": "HONOAPIILANI HIGHWAY", "Shape_Leng": 0.70649504522999995 }, "geometry": { "type": "MultiLineString", "coordinates": [ [ [ -156.56677, 20.79289 ], [ -156.56678, 20.79289 ] ] ] } },
{ "type": "Feature", "properties": { "FID_kau_ce": 0, "SEGMENTID": 0.0, "ST_FULLNM": null, "ST_PRE": null, "ST_NAME": null, "ST_TYPE": null, "ST_SUF": null, "A1_FULLNM": null, "A1_ST_PRE": null, "A1_ST_NAME": null, "A1_ST_TYPE": null, "A1_ST_SUF": null, "A2_FULLNM": null, "A2_ST_PRE": null, "A2_ST_NAME": null, "A2_ST_TYPE": null, "A2_ST_SUF": null, "ROUTE_NUM": null, "ROUTE_TYPE": 0, "LF_ADDR": null, "LT_ADDR": null, "RF_ADDR": null, "RT_ADDR": null, "ONEWAY": 0, "FROM_ELEV": 0, "TO_ELEV": 0, "PAVED": null, "PRIVATE": null, "GEO_SOURCE": 0, "NAME": "SOUTH KIHEI ROAD", "Shape_Leng": 8.6757303195100004 }, "geometry": { "type": "MultiLineString", "coordinates": [ [ [ -156.46238, 20.78096 ], [ -156.46233, 20.7809 ] ] ] } },
{ "type": "Feature", "properties": { "FID_kau_ce": 0, "SEGMENTID": 0.0, "ST_FULLNM": null, "ST_PRE": null, "ST_NAME": null, "ST_TYPE": null, "ST_SUF": null, "A1_FULLNM": null, "A1_ST_PRE": null, "A1_ST_NAME": null, "A1_ST_TYPE": null, "A1_ST_SUF": null, "A2_FULLNM": null, "A2_ST_PRE": null, "A2_ST_NAME": null, "A2_ST_TYPE": null, "A2_ST_SUF": null, "ROUTE_NUM": null, "ROUTE_TYPE": 0, "LF_ADDR": null, "LT_ADDR": null, "RF_ADDR": null, "RT_ADDR": null, "ONEWAY": 0, "FROM_ELEV": 0, "TO_ELEV": 0, "PAVED": null, "PRIVATE": null, "GEO_SOURCE": 0, "NAME": "SOUTH KIHEI ROAD", "Shape_Leng": 71.730928364700006 }, "geometry": { "type": "MultiLineString", "coordinates": [ [ [ -156.46213, 20.78058 ], [ -156.46176, 20.78004 ] ] ] } },
{ "type": "Feature", "properties": { "FID_kau_ce": 0, "SEGMENTID": 0.0, "ST_FULLNM": null, "ST_PRE": null, "ST_NAME": null, "ST_TYPE": null, "ST_SUF": null, "A1_FULLNM": null, "A1_ST_PRE": null, "A1_ST_NAME": null, "A1_ST_TYPE": null, "A1_ST_SUF": null, "A2_FULLNM": null, "A2_ST_PRE": null, "A2_ST_NAME": null, "A2_ST_TYPE": null, "A2_ST_SUF": null, "ROUTE_NUM": null, "ROUTE_TYPE": 0, "LF_ADDR": null, "LT_ADDR": null, "RF_ADDR": null, "RT_ADDR": null, "ONEWAY": 0, "FROM_ELEV": 0, "TO_ELEV": 0, "PAVED": null, "PRIVATE": null, "GEO_SOURCE": 0, "NAME": "SOUTH KIHEI ROAD", "Shape_Leng": 115.72486376000001 }, "geometry": { "type": "MultiLineString", "coordinates": [ [ [ -156.46173, 20.78 ], [ -156.46117, 20.7791 ] ] ] } },
{ "type": "Feature", "properties": { "FID_kau_ce": 0, "SEGMENTID": 0.0, "ST_FULLNM": null, "ST_PRE": null, "ST_NAME": null, "ST_TYPE": null, "ST_SUF": null, "A1_FULLNM": null, "A1_ST_PRE": null, "A1_ST_NAME": null, "A1_ST_TYPE": null, "A1_ST_SUF": null, "A2_FULLNM": null, "A2_ST_PRE": null, "A2_ST_NAME": null, "A2_ST_TYPE": null, "A2_ST_SUF": null, "ROUTE_NUM": null, "ROUTE_TYPE": 0, "LF_ADDR": null, "LT_ADDR": null, "RF_ADDR": null, "RT_ADDR": null, "ONEWAY": 0, "FROM_ELEV": 0, "TO_ELEV": 0, "PAVED": null, "PRIVATE": null, "GEO_SOURCE": 0, "NAME": "SOUTH KIHEI ROAD", "Shape_Leng": 149.809194504 }, "geometry": { "type": "MultiLineString", "coordinates": [ [ [ -156.45969, 20.77218 ], [ -156.45932, 20.77087 ] ] ] } },
{ "type": "Feature", "properties": { "FID_kau_ce": 0, "SEGMENTID": 0.0, "ST_FULLNM": null, "ST_PRE": null, "ST_NAME": null, "ST_TYPE": null, "ST_SUF": null, "A1_FULLNM": null, "A1_ST_PRE": null, "A1_ST_NAME": null, "A1_ST_TYPE": null, "A1_ST_SUF": null, "A2_FULLNM": null, "A2_ST_PRE": null, "A2_ST_NAME": null, "A2_ST_TYPE": null, "A2_ST_SUF": null, "ROUTE_NUM": null, "ROUTE_TYPE": 0, "LF_ADDR": null, "LT_ADDR": null, "RF_ADDR": null, "RT_ADDR": null, "ONEWAY": 0, "FROM_ELEV": 0, "TO_ELEV": 0, "PAVED": null, "PRIVATE": null, "GEO_SOURCE": 0, "NAME": "SOUTH KIHEI ROAD", "Shape_Leng": 194.28640449 }, "geometry": { "type": "MultiLineString", "coordinates": [ [ [ -156.45918, 20.77039 ], [ -156.45878, 20.76868 ] ] ] } },
{ "type": "Feature", "properties": { "FID_kau_ce": 0, "SEGMENTID": 0.0, "ST_FULLNM": null, "ST_PRE": null, "ST_NAME": null, "ST_TYPE": null, "ST_SUF": null, "A1_FULLNM": null, "A1_ST_PRE": null, "A1_ST_NAME": null, "A1_ST_TYPE": null, "A1_ST_SUF": null, "A2_FULLNM": null, "A2_ST_PRE": null, "A2_ST_NAME": null, "A2_ST_TYPE": null, "A2_ST_SUF": null, "ROUTE_NUM": null, "ROUTE_TYPE": 0, "LF_ADDR": null, "LT_ADDR": null, "RF_ADDR": null, "RT_ADDR": null, "ONEWAY": 0, "FROM_ELEV": 0, "TO_ELEV": 0, "PAVED": null, "PRIVATE": null, "GEO_SOURCE": 0, "NAME": "SOUTH KIHEI ROAD", "Shape_Leng": 41.835231480600001 }, "geometry": { "type": "MultiLineString", "coordinates": [ [ [ -156.45875, 20.7685 ], [ -156.45868, 20.76813 ] ] ] } },
{ "type": "Feature", "properties": { "FID_kau_ce": 0, "SEGMENTID": 0.0, "ST_FULLNM": null, "ST_PRE": null, "ST_NAME": null, "ST_TYPE": null, "ST_SUF": null, "A1_FULLNM": null, "A1_ST_PRE": null, "A1_ST_NAME": null, "A1_ST_TYPE": null, "A1_ST_SUF": null, "A2_FULLNM": null, "A2_ST_PRE": null, "A2_ST_NAME": null, "A2_ST_TYPE": null, "A2_ST_SUF": null, "ROUTE_NUM": null, "ROUTE_TYPE": 0, "LF_ADDR": null, "LT_ADDR": null, "RF_ADDR": null, "RT_ADDR": null, "ONEWAY": 0, "FROM_ELEV": 0, "TO_ELEV": 0, "PAVED": null, "PRIVATE": null, "GEO_SOURCE": 0, "NAME": "SOUTH KIHEI ROAD", "Shape_Leng": 55.695208087200001 }, "geometry": { "type": "MultiLineString", "coordinates": [ [ [ -156.45857, 20.76727 ], [ -156.45852, 20.76677 ] ] ] } },
{ "type": "Feature", "properties": { "FID_kau_ce": 0, "SEGMENTID": 0.0, "ST_FULLNM": null, "ST_PRE": null, "ST_NAME": null, "ST_TYPE": null, "ST_SUF": null, "A1_FULLNM": null, "A1_ST_PRE": null, "A1_ST_NAME": null, "A1_ST_TYPE": null, "A1_ST_SUF": null, "A2_FULLNM": null, "A2_ST_PRE": null, "A2_ST_NAME": null, "A2_ST_TYPE": null, "A2_ST_SUF": null, "ROUTE_NUM": null, "ROUTE_TYPE": 0, "LF_ADDR": null, "LT_ADDR": null, "RF_ADDR": null, "RT_ADDR": null, "ONEWAY": 0, "FROM_ELEV": 0, "TO_ELEV": 0, "PAVED": null, "PRIVATE": null, "GEO_SOURCE": 0, "NAME": "SOUTH KIHEI ROAD", "Shape_Leng": 115.205039492 }, "geometry": { "type": "MultiLineString", "coordinates": [ [ [ -156.45089, 20.72909 ], [ -156.4501, 20.72836 ] ] ] } },
{ "type": "Feature", "properties": { "FID_kau_ce": 0, "SEGMENTID": 0.0, "ST_FULLNM": null, "ST_PRE": null, "ST_NAME": null, "ST_TYPE": null, "ST_SUF": null, "A1_FULLNM": null, "A1_ST_PRE": null, "A1_ST_NAME": null, "A1_ST_TYPE": null, "A1_ST_SUF": null, "A2_FULLNM": null, "A2_ST_PRE": null, "A2_ST_NAME": null, "A2_ST_TYPE": null, "A2_ST_SUF": null, "ROUTE_NUM": null, "ROUTE_TYPE": 0, "LF_ADDR": null, "LT_ADDR": null, "RF_ADDR": null, "RT_ADDR": null, "ONEWAY": 0, "FROM_ELEV": 0, "TO_ELEV": 0, "PAVED": null, "PRIVATE": null, "GEO_SOURCE": 0, "NAME": "KAM HWY", "Shape_Leng": 111.042653511 }, "geometry": { "type": "MultiLineString", "coordinates": [ [ [ -158.04013, 21.67399 ], [ -158.0409, 21.67329 ] ] ] } },
{ "type": "Feature", "properties": { "FID_kau_ce": 0, "SEGMENTID": 0.0, "ST_FULLNM": null, "ST_PRE": null, "ST_NAME": null, "ST_TYPE": null, "ST_SUF": null, "A1_FULLNM": null, "A1_ST_PRE": null, "A1_ST_NAME": null, "A1_ST_TYPE": null, "A1_ST_SUF": null, "A2_FULLNM": null, "A2_ST_PRE": null, "A2_ST_NAME": null, "A2_ST_TYPE": null, "A2_ST_SUF": null, "ROUTE_NUM": null, "ROUTE_TYPE": 0, "LF_ADDR": null, "LT_ADDR": null, "RF_ADDR": null, "RT_ADDR": null, "ONEWAY": 0, "FROM_ELEV": 0, "TO_ELEV": 0, "PAVED": null, "PRIVATE": null, "GEO_SOURCE": 0, "NAME": "KAM HWY", "Shape_Leng": 59.353073108499999 }, "geometry": { "type": "MultiLineString", "coordinates": [ [ [ -158.0409, 21.67329 ], [ -158.04127, 21.67295 ] ], [ [ -158.05471, 21.66082 ], [ -158.05475, 21.66079 ] ] ] } },
{ "type": "Feature", "properties": { "FID_kau_ce": 0, "SEGMENTID": 0.0, "ST_FULLNM": null, "ST_PRE": null, "ST_NAME": null, "ST_TYPE": null, "ST_SUF": null, "A1_FULLNM": null, "A1_ST_PRE": null, "A1_ST_NAME": null, "A1_ST_TYPE": null, "A1_ST_SUF": null, "A2_FULLNM": null, "A2_ST_PRE": null, "A2_ST_NAME": null, "A2_ST_TYPE": null, "A2_ST_SUF": null, "ROUTE_NUM": null, "ROUTE_TYPE": 0, "LF_ADDR": null, "LT_ADDR": null, "RF_ADDR": null, "RT_ADDR": null, "ONEWAY": 0, "FROM_ELEV": 0, "TO_ELEV": 0, "PAVED": null, "PRIVATE": null, "GEO_SOURCE": 0, "NAME": "KAM HWY", "Shape_Leng": 208.79059788500001 }, "geometry": { "type": "MultiLineString", "coordinates": [ [ [ -158.08536, 21.61852 ], [ -158.08676, 21.61715 ] ] ] } },
{ "type": "Feature", "properties": { "FID_kau_ce": 0, "SEGMENTID": 0.0, "ST_FULLNM": null, "ST_PRE": null, "ST_NAME": null, "ST_TYPE": null, "ST_SUF": null, "A1_FULLNM": null, "A1_ST_PRE": null, "A1_ST_NAME": null, "A1_ST_TYPE": null, "A1_ST_SUF": null, "A2_FULLNM": null, "A2_ST_PRE": null, "A2_ST_NAME": null, "A2_ST_TYPE": null, "A2_ST_SUF": null, "ROUTE_NUM": null, "ROUTE_TYPE": 0, "LF_ADDR": null, "LT_ADDR": null, "RF_ADDR": null, "RT_ADDR": null, "ONEWAY": 0, "FROM_ELEV": 0, "TO_ELEV": 0, "PAVED": null, "PRIVATE": null, "GEO_SOURCE": 0, "NAME": "KAM HWY", "Shape_Leng": 0.21287747601000001 }, "geometry": { "type": "MultiLineString", "coordinates": [ [ [ -157.91232, 21.61336 ], [ -157.91232, 21.61336 ] ] ] } },
{ "type": "Feature", "properties": { "FID_kau_ce": 0, "SEGMENTID": 0.0, "ST_FULLNM": null, "ST_PRE": null, "ST_NAME": null, "ST_TYPE": null, "ST_SUF": null, "A1_FULLNM": null, "A1_ST_PRE": null, "A1_ST_NAME": null, "A1_ST_TYPE": null, "A1_ST_SUF": null, "A2_FULLNM": null, "A2_ST_PRE": null, "A2_ST_NAME": null, "A2_ST_TYPE": null, "A2_ST_SUF": null, "ROUTE_NUM": null, "ROUTE_TYPE": 0, "LF_ADDR": null, "LT_ADDR": null, "RF_ADDR": null, "RT_ADDR": null, "ONEWAY": 0, "FROM_ELEV": 0, "TO_ELEV": 0, "PAVED": null, "PRIVATE": null, "GEO_SOURCE": 0, "NAME": "KAM HWY", "Shape_Leng": 8.7796646174300008 }, "geometry": { "type": "MultiLineString", "coordinates": [ [ [ -157.90945, 21.60933 ], [ -157.90946, 21.60935 ] ], [ [ -157.90938, 21.60921 ], [ -157.90941, 21.60926 ] ] ] } },
{ "type": "Feature", "properties": { "FID_kau_ce": 0, "SEGMENTID": 0.0, "ST_FULLNM": null, "ST_PRE": null, "ST_NAME": null, "ST_TYPE": null, "ST_SUF": null, "A1_FULLNM": null, "A1_ST_PRE": null, "A1_ST_NAME": null, "A1_ST_TYPE": null, "A1_ST_SUF": null, "A2_FULLNM": null, "A2_ST_PRE": null, "A2_ST_NAME": null, "A2_ST_TYPE": null, "A2_ST_SUF": null, "ROUTE_NUM": null, "ROUTE_TYPE": 0, "LF_ADDR": null, "LT_ADDR": null, "RF_ADDR": null, "RT_ADDR": null, "ONEWAY": 0, "FROM_ELEV": 0, "TO_ELEV": 0, "PAVED": null, "PRIVATE": null, "GEO_SOURCE": 0, "NAME": "KAM HWY", "Shape_Leng": 152.17776291800001 }, "geometry": { "type": "MultiLineString", "coordinates": [ [ [ -157.90834, 21.6077 ], [ -157.90915, 21.60884 ] ] ] } },
{ "type": "Feature", "properties": { "FID_kau_ce": 0, "SEGMENTID": 0.0, "ST_FULLNM": null, "ST_PRE": null, "ST_NAME": null, "ST_TYPE": null, "ST_SUF": null, "A1_FULLNM": null, "A1_ST_PRE": null, "A1_ST_NAME": null, "A1_ST_TYPE": null, "A1_ST_SUF": null, "A2_FULLNM": null, "A2_ST_PRE": null, "A2_ST_NAME": null, "A2_ST_TYPE": null, "A2_ST_SUF": null, "ROUTE_NUM": null, "ROUTE_TYPE": 0, "LF_ADDR": null, "LT_ADDR": null, "RF_ADDR": null, "RT_ADDR": null, "ONEWAY": 0, "FROM_ELEV": 0, "TO_ELEV": 0, "PAVED": null, "PRIVATE": null, "GEO_SOURCE": 0, "NAME": "KAM HWY", "Shape_Leng": 121.178073369 }, "geometry": { "type": "MultiLineString", "coordinates": [ [ [ -157.90104, 21.60483 ], [ -157.90122, 21.60497 ] ], [ [ -157.90001, 21.60401 ], [ -157.90072, 21.60458 ] ] ] } },
{ "type": "Feature", "properties": { "FID_kau_ce": 0, "SEGMENTID": 0.0, "ST_FULLNM": null, "ST_PRE": null, "ST_NAME": null, "ST_TYPE": null, "ST_SUF": null, "A1_FULLNM": null, "A1_ST_PRE": null, "A1_ST_NAME": null, "A1_ST_TYPE": null, "A1_ST_SUF": null, "A2_FULLNM": null, "A2_ST_PRE": null, "A2_ST_NAME": null, "A2_ST_TYPE": null, "A2_ST_SUF": null, "ROUTE_NUM": null, "ROUTE_TYPE": 0, "LF_ADDR": null, "LT_ADDR": null, "RF_ADDR": null, "RT_ADDR": null, "ONEWAY": 0, "FROM_ELEV": 0, "TO_ELEV": 0, "PAVED": null, "PRIVATE": null, "GEO_SOURCE": 0, "NAME": "KAM HWY", "Shape_Leng": 58.124956059600002 }, "geometry": { "type": "MultiLineString", "coordinates": [ [ [ -158.10324, 21.59461 ], [ -158.10334, 21.59409 ] ] ] } },
{ "type": "Feature", "properties": { "FID_kau_ce": 0, "SEGMENTID": 0.0, "ST_FULLNM": null, "ST_PRE": null, "ST_NAME": null, "ST_TYPE": null, "ST_SUF": null, "A1_FULLNM": null, "A1_ST_PRE": null, "A1_ST_NAME": null, "A1_ST_TYPE": null, "A1_ST_SUF": null, "A2_FULLNM": null, "A2_ST_PRE": null, "A2_ST_NAME": null, "A2_ST_TYPE": null, "A2_ST_SUF": null, "ROUTE_NUM": null, "ROUTE_TYPE": 0, "LF_ADDR": null, "LT_ADDR": null, "RF_ADDR": null, "RT_ADDR": null, "ONEWAY": 0, "FROM_ELEV": 0, "TO_ELEV": 0, "PAVED": null, "PRIVATE": null, "GEO_SOURCE": 0, "NAME": null, "Shape_Leng": 75.517578182500003 }, "geometry": { "type": "MultiLineString", "coordinates": [ [ [ -158.21528, 21.57916 ], [ -158.21598, 21.57895 ] ] ] } },
{ "type": "Feature", "properties": { "FID_kau_ce": 0, "SEGMENTID": 0.0, "ST_FULLNM": null, "ST_PRE": null, "ST_NAME": null, "ST_TYPE": null, "ST_SUF": null, "A1_FULLNM": null, "A1_ST_PRE": null, "A1_ST_NAME": null, "A1_ST_TYPE": null, "A1_ST_SUF": null, "A2_FULLNM": null, "A2_ST_PRE": null, "A2_ST_NAME": null, "A2_ST_TYPE": null, "A2_ST_SUF": null, "ROUTE_NUM": null, "ROUTE_TYPE": 0, "LF_ADDR": null, "LT_ADDR": null, "RF_ADDR": null, "RT_ADDR": null, "ONEWAY": 0, "FROM_ELEV": 0, "TO_ELEV": 0, "PAVED": null, "PRIVATE": null, "GEO_SOURCE": 0, "NAME": "KAM HWY", "Shape_Leng": 40.727093720500001 }, "geometry": { "type": "MultiLineString", "coordinates": [ [ [ -157.85031, 21.55413 ], [ -157.85056, 21.55442 ] ] ] } },
{ "type": "Feature", "properties": { "FID_kau_ce": 0, "SEGMENTID": 0.0, "ST_FULLNM": null, "ST_PRE": null, "ST_NAME": null, "ST_TYPE": null, "ST_SUF": null, "A1_FULLNM": null, "A1_ST_PRE": null, "A1_ST_NAME": null, "A1_ST_TYPE": null, "A1_ST_SUF": null, "A2_FULLNM": null, "A2_ST_PRE": null, "A2_ST_NAME": null, "A2_ST_TYPE": null, "A2_ST_SUF": null, "ROUTE_NUM": null, "ROUTE_TYPE": 0, "LF_ADDR": null, "LT_ADDR": null, "RF_ADDR": null, "RT_ADDR": null, "ONEWAY": 0, "FROM_ELEV": 0, "TO_ELEV": 0, "PAVED": null, "PRIVATE": null, "GEO_SOURCE": 0, "NAME": "KAM HWY", "Shape_Leng": 515.56714936499998 }, "geometry": { "type": "MultiLineString", "coordinates": [ [ [ -157.89898, 21.60307 ], [ -157.89904, 21.60313 ] ], [ [ -157.89748, 21.60004 ], [ -157.89778, 21.60084 ] ], [ [ -157.89603, 21.59622 ], [ -157.89607, 21.59636 ] ], [ [ -157.88947, 21.58883 ], [ -157.88949, 21.58886 ] ], [ [ -157.88708, 21.5833 ], [ -157.88766, 21.58605 ] ], [ [ -157.88696, 21.5826 ], [ -157.88697, 21.58266 ] ], [ [ -157.88693, 21.5825 ], [ -157.88695, 21.58259 ] ], [ [ -157.88378, 21.5778 ], [ -157.88412, 21.57817 ] ], [ [ -157.88132, 21.57638 ], [ -157.88138, 21.57641 ] ], [ [ -157.87605, 21.55967 ], [ -157.87605, 21.55967 ] ], [ [ -157.86222, 21.55951 ], [ -157.86225, 21.55951 ] ] ] } },
{ "type": "Feature", "properties": { "FID_kau_ce": 0, "SEGMENTID": 0.0, "ST_FULLNM": null, "ST_PRE": null, "ST_NAME": null, "ST_TYPE": null, "ST_SUF": null, "A1_FULLNM": null, "A1_ST_PRE": null, "A1_ST_NAME": null, "A1_ST_TYPE": null, "A1_ST_SUF": null, "A2_FULLNM": null, "A2_ST_PRE": null, "A2_ST_NAME": null, "A2_ST_TYPE": null, "A2_ST_SUF": null, "ROUTE_NUM": null, "ROUTE_TYPE": 0, "LF_ADDR": null, "LT_ADDR": null, "RF_ADDR": null, "RT_ADDR": null, "ONEWAY": 0, "FROM_ELEV": 0, "TO_ELEV": 0, "PAVED": null, "PRIVATE": null, "GEO_SOURCE": 0, "NAME": "KAM HWY", "Shape_Leng": 27.160030342 }, "geometry": { "type": "MultiLineString", "coordinates": [ [ [ -157.85017, 21.55393 ], [ -157.85031, 21.55413 ] ] ] } },
{ "type": "Feature", "properties": { "FID_kau_ce": 0, "SEGMENTID": 0.0, "ST_FULLNM": null, "ST_PRE": null, "ST_NAME": null, "ST_TYPE": null, "ST_SUF": null, "A1_FULLNM": null, "A1_ST_PRE": null, "A1_ST_NAME": null, "A1_ST_TYPE": null, "A1_ST_SUF": null, "A2_FULLNM": null, "A2_ST_PRE": null, "A2_ST_NAME": null, "A2_ST_TYPE": null, "A2_ST_SUF": null, "ROUTE_NUM": null, "ROUTE_TYPE": 0, "LF_ADDR": null, "LT_ADDR": null, "RF_ADDR": null, "RT_ADDR": null, "ONEWAY": 0, "FROM_ELEV": 0, "TO_ELEV": 0, "PAVED": null, "PRIVATE": null, "GEO_SOURCE": 0, "NAME": "KAM HWY", "Shape_Leng": 1072.6318602 }, "geometry": { "type": "MultiLineString", "coordinates": [ [ [ -157.8456, 21.54439 ], [ -157.84571, 21.5445 ] ], [ [ -157.84283, 21.54241 ], [ -157.84319, 21.5426 ] ], [ [ -157.83767, 21.53328 ], [ -157.83798, 21.53399 ] ], [ [ -157.83716, 21.53212 ], [ -157.83756, 21.53294 ] ], [ [ -157.83577, 21.52975 ], [ -157.83641, 21.53085 ] ], [ [ -157.83571, 21.52965 ], [ -157.83575, 21.52972 ] ], [ [ -157.83564, 21.52952 ], [ -157.8357, 21.52964 ] ], [ [ -157.8356, 21.52947 ], [ -157.83561, 21.52948 ] ], [ [ -157.83556, 21.52938 ], [ -157.83556, 21.52939 ] ], [ [ -157.8348, 21.5243 ], [ -157.83462, 21.52631 ] ], [ [ -157.83558, 21.5187 ], [ -157.83503, 21.52262 ] ] ] } },
{ "type": "Feature", "properties": { "FID_kau_ce": 0, "SEGMENTID": 0.0, "ST_FULLNM": null, "ST_PRE": null, "ST_NAME": null, "ST_TYPE": null, "ST_SUF": null, "A1_FULLNM": null, "A1_ST_PRE": null, "A1_ST_NAME": null, "A1_ST_TYPE": null, "A1_ST_SUF": null, "A2_FULLNM": null, "A2_ST_PRE": null, "A2_ST_NAME": null, "A2_ST_TYPE": null, "A2_ST_SUF": null, "ROUTE_NUM": null, "ROUTE_TYPE": 0, "LF_ADDR": null, "LT_ADDR": null, "RF_ADDR": null, "RT_ADDR": null, "ONEWAY": 0, "FROM_ELEV": 0, "TO_ELEV": 0, "PAVED": null, "PRIVATE": null, "GEO_SOURCE": 0, "NAME": null, "Shape_Leng": 489.93521537800001 }, "geometry": { "type": "MultiLineString", "coordinates": [ [ [ -158.22796, 21.51435 ], [ -158.22801, 21.51391 ] ], [ [ -158.22804, 21.51376 ], [ -158.22811, 21.51338 ] ], [ [ -158.22813, 21.5133 ], [ -158.22819, 21.51302 ] ], [ [ -158.2282, 21.51295 ], [ -158.22828, 21.51253 ] ], [ [ -158.22915, 21.50627 ], [ -158.22929, 21.50505 ] ], [ [ -158.22934, 21.50452 ], [ -158.22938, 21.50425 ] ], [ [ -158.2297, 21.50091 ], [ -158.2297, 21.50089 ] ], [ [ -158.22938, 21.4983 ], [ -158.22918, 21.49697 ] ] ] } },
{ "type": "Feature", "properties": { "FID_kau_ce": 0, "SEGMENTID": 0.0, "ST_FULLNM": null, "ST_PRE": null, "ST_NAME": null, "ST_TYPE": null, "ST_SUF": null, "A1_FULLNM": null, "A1_ST_PRE": null, "A1_ST_NAME": null, "A1_ST_TYPE": null, "A1_ST_SUF": null, "A2_FULLNM": null, "A2_ST_PRE": null, "A2_ST_NAME": null, "A2_ST_TYPE": null, "A2_ST_SUF": null, "ROUTE_NUM": null, "ROUTE_TYPE": 0, "LF_ADDR": null, "LT_ADDR": null, "RF_ADDR": null, "RT_ADDR": null, "ONEWAY": 0, "FROM_ELEV": 0, "TO_ELEV": 0, "PAVED": null, "PRIVATE": null, "GEO_SOURCE": 0, "NAME": "KAM HWY", "Shape_Leng": 25.414926684200001 }, "geometry": { "type": "MultiLineString", "coordinates": [ [ [ -157.84994, 21.48861 ], [ -157.85002, 21.48883 ] ] ] } },
{ "type": "Feature", "properties": { "FID_kau_ce": 0, "SEGMENTID": 0.0, "ST_FULLNM": null, "ST_PRE": null, "ST_NAME": null, "ST_TYPE": null, "ST_SUF": null, "A1_FULLNM": null, "A1_ST_PRE": null, "A1_ST_NAME": null, "A1_ST_TYPE": null, "A1_ST_SUF": null, "A2_FULLNM": null, "A2_ST_PRE": null, "A2_ST_NAME": null, "A2_ST_TYPE": null, "A2_ST_SUF": null, "ROUTE_NUM": null, "ROUTE_TYPE": 0, "LF_ADDR": null, "LT_ADDR": null, "RF_ADDR": null, "RT_ADDR": null, "ONEWAY": 0, "FROM_ELEV": 0, "TO_ELEV": 0, "PAVED": null, "PRIVATE": null, "GEO_SOURCE": 0, "NAME": "FARRINGTON HWY", "Shape_Leng": 363.24021258900001 }, "geometry": { "type": "MultiLineString", "coordinates": [ [ [ -158.22227, 21.4785 ], [ -158.22074, 21.47764 ], [ -158.21959, 21.47645 ] ] ] } },
{ "type": "Feature", "properties": { "FID_kau_ce": 0, "SEGMENTID": 0.0, "ST_FULLNM": null, "ST_PRE": null, "ST_NAME": null, "ST_TYPE": null, "ST_SUF": null, "A1_FULLNM": null, "A1_ST_PRE": null, "A1_ST_NAME": null, "A1_ST_TYPE": null, "A1_ST_SUF": null, "A2_FULLNM": null, "A2_ST_PRE": null, "A2_ST_NAME": null, "A2_ST_TYPE": null, "A2_ST_SUF": null, "ROUTE_NUM": null, "ROUTE_TYPE": 0, "LF_ADDR": null, "LT_ADDR": null, "RF_ADDR": null, "RT_ADDR": null, "ONEWAY": 0, "FROM_ELEV": 0, "TO_ELEV": 0, "PAVED": null, "PRIVATE": null, "GEO_SOURCE": 0, "NAME": "KAM HWY", "Shape_Leng": 0.43367476267 }, "geometry": { "type": "MultiLineString", "coordinates": [ [ [ -157.84452, 21.47057 ], [ -157.84452, 21.47057 ] ], [ [ -157.84446, 21.47038 ], [ -157.84446, 21.47038 ] ] ] } },
{ "type": "Feature", "properties": { "FID_kau_ce": 0, "SEGMENTID": 0.0, "ST_FULLNM": null, "ST_PRE": null, "ST_NAME": null, "ST_TYPE": null, "ST_SUF": null, "A1_FULLNM": null, "A1_ST_PRE": null, "A1_ST_NAME": null, "A1_ST_TYPE": null, "A1_ST_SUF": null, "A2_FULLNM": null, "A2_ST_PRE": null, "A2_ST_NAME": null, "A2_ST_TYPE": null, "A2_ST_SUF": null, "ROUTE_NUM": null, "ROUTE_TYPE": 0, "LF_ADDR": null, "LT_ADDR": null, "RF_ADDR": null, "RT_ADDR": null, "ONEWAY": 0, "FROM_ELEV": 0, "TO_ELEV": 0, "PAVED": null, "PRIVATE": null, "GEO_SOURCE": 0, "NAME": "KAM HWY", "Shape_Leng": 64.042664563800002 }, "geometry": { "type": "MultiLineString", "coordinates": [ [ [ -157.84443, 21.4703 ], [ -157.84446, 21.47038 ] ], [ [ -157.84433, 21.47001 ], [ -157.84443, 21.4703 ] ], [ [ -157.84432, 21.46999 ], [ -157.84432, 21.47 ] ], [ [ -157.84421, 21.46966 ], [ -157.84427, 21.46984 ] ] ] } },
{ "type": "Feature", "properties": { "FID_kau_ce": 0, "SEGMENTID": 0.0, "ST_FULLNM": null, "ST_PRE": null, "ST_NAME": null, "ST_TYPE": null, "ST_SUF": null, "A1_FULLNM": null, "A1_ST_PRE": null, "A1_ST_NAME": null, "A1_ST_TYPE": null, "A1_ST_SUF": null, "A2_FULLNM": null, "A2_ST_PRE": null, "A2_ST_NAME": null, "A2_ST_TYPE": null, "A2_ST_SUF": null, "ROUTE_NUM": null, "ROUTE_TYPE": 0, "LF_ADDR": null, "LT_ADDR": null, "RF_ADDR": null, "RT_ADDR": null, "ONEWAY": 0, "FROM_ELEV": 0, "TO_ELEV": 0, "PAVED": null, "PRIVATE": null, "GEO_SOURCE": 0, "NAME": "FARRINGTON HWY", "Shape_Leng": 60.416530851499999 }, "geometry": { "type": "MultiLineString", "coordinates": [ [ [ -158.20739, 21.4605 ], [ -158.20718, 21.4604 ] ], [ [ -158.20715, 21.46039 ], [ -158.20684, 21.46024 ] ] ] } },
{ "type": "Feature", "properties": { "FID_kau_ce": 0, "SEGMENTID": 0.0, "ST_FULLNM": null, "ST_PRE": null, "ST_NAME": null, "ST_TYPE": null, "ST_SUF": null, "A1_FULLNM": null, "A1_ST_PRE": null, "A1_ST_NAME": null, "A1_ST_TYPE": null, "A1_ST_SUF": null, "A2_FULLNM": null, "A2_ST_PRE": null, "A2_ST_NAME": null, "A2_ST_TYPE": null, "A2_ST_SUF": null, "ROUTE_NUM": null, "ROUTE_TYPE": 0, "LF_ADDR": null, "LT_ADDR": null, "RF_ADDR": null, "RT_ADDR": null, "ONEWAY": 0, "FROM_ELEV": 0, "TO_ELEV": 0, "PAVED": null, "PRIVATE": null, "GEO_SOURCE": 0, "NAME": "FARRINGTON HWY", "Shape_Leng": 29.554106257200001 }, "geometry": { "type": "MultiLineString", "coordinates": [ [ [ -158.20684, 21.46024 ], [ -158.20659, 21.46013 ] ] ] } },
{ "type": "Feature", "properties": { "FID_kau_ce": 0, "SEGMENTID": 0.0, "ST_FULLNM": null, "ST_PRE": null, "ST_NAME": null, "ST_TYPE": null, "ST_SUF": null, "A1_FULLNM": null, "A1_ST_PRE": null, "A1_ST_NAME": null, "A1_ST_TYPE": null, "A1_ST_SUF": null, "A2_FULLNM": null, "A2_ST_PRE": null, "A2_ST_NAME": null, "A2_ST_TYPE": null, "A2_ST_SUF": null, "ROUTE_NUM": null, "ROUTE_TYPE": 0, "LF_ADDR": null, "LT_ADDR": null, "RF_ADDR": null, "RT_ADDR": null, "ONEWAY": 0, "FROM_ELEV": 0, "TO_ELEV": 0, "PAVED": null, "PRIVATE": null, "GEO_SOURCE": 0, "NAME": "KAM HWY", "Shape_Leng": 23.474521001799999 }, "geometry": { "type": "MultiLineString", "coordinates": [ [ [ -157.82678, 21.45543 ], [ -157.82678, 21.45543 ] ], [ [ -157.82675, 21.45538 ], [ -157.82676, 21.4554 ] ], [ [ -157.82674, 21.45536 ], [ -157.82675, 21.45538 ] ], [ [ -157.82672, 21.45531 ], [ -157.82672, 21.45532 ] ], [ [ -157.82671, 21.4553 ], [ -157.82671, 21.4553 ] ], [ [ -157.8267, 21.45528 ], [ -157.8267, 21.45528 ] ], [ [ -157.82667, 21.45521 ], [ -157.82668, 21.45525 ] ], [ [ -157.82666, 21.4552 ], [ -157.82667, 21.45521 ] ], [ [ -157.82665, 21.45518 ], [ -157.82666, 21.45519 ] ], [ [ -157.82664, 21.45516 ], [ -157.82665, 21.45517 ] ], [ [ -157.82664, 21.45515 ], [ -157.82664, 21.45515 ] ], [ [ -157.82663, 21.45513 ], [ -157.82663, 21.45513 ] ], [ [ -157.82662, 21.45511 ], [ -157.82662, 21.45512 ] ], [ [ -157.82661, 21.4551 ], [ -157.82661, 21.4551 ] ], [ [ -157.82657, 21.45501 ], [ -157.82657, 21.45502 ] ], [ [ -157.82656, 21.455 ], [ -157.82656, 21.455 ] ], [ [ -157.82654, 21.45496 ], [ -157.82654, 21.45497 ] ], [ [ -157.82652, 21.45493 ], [ -157.82653, 21.45495 ] ], [ [ -157.82652, 21.45492 ], [ -157.82652, 21.45493 ] ], [ [ -157.8265, 21.45489 ], [ -157.8265, 21.45489 ] ], [ [ -157.82648, 21.45485 ], [ -157.82649, 21.45486 ] ], [ [ -157.82645, 21.45478 ], [ -157.82645, 21.45478 ] ], [ [ -157.82644, 21.45476 ], [ -157.82644, 21.45476 ] ] ] } },
{ "type": "Feature", "properties": { "FID_kau_ce": 0, "SEGMENTID": 0.0, "ST_FULLNM": null, "ST_PRE": null, "ST_NAME": null, "ST_TYPE": null, "ST_SUF": null, "A1_FULLNM": null, "A1_ST_PRE": null, "A1_ST_NAME": null, "A1_ST_TYPE": null, "A1_ST_SUF": null, "A2_FULLNM": null, "A2_ST_PRE": null, "A2_ST_NAME": null, "A2_ST_TYPE": null, "A2_ST_SUF": null, "ROUTE_NUM": null, "ROUTE_TYPE": 0, "LF_ADDR": null, "LT_ADDR": null, "RF_ADDR": null, "RT_ADDR": null, "ONEWAY": 0, "FROM_ELEV": 0, "TO_ELEV": 0, "PAVED": null, "PRIVATE": null, "GEO_SOURCE": 0, "NAME": "KAM HWY", "Shape_Leng": 147.24289464700001 }, "geometry": { "type": "MultiLineString", "coordinates": [ [ [ -157.82499, 21.45309 ], [ -157.82595, 21.45408 ] ] ] } },
{ "type": "Feature", "properties": { "FID_kau_ce": 0, "SEGMENTID": 0.0, "ST_FULLNM": null, "ST_PRE": null, "ST_NAME": null, "ST_TYPE": null, "ST_SUF": null, "A1_FULLNM": null, "A1_ST_PRE": null, "A1_ST_NAME": null, "A1_ST_TYPE": null, "A1_ST_SUF": null, "A2_FULLNM": null, "A2_ST_PRE": null, "A2_ST_NAME": null, "A2_ST_TYPE": null, "A2_ST_SUF": null, "ROUTE_NUM": null, "ROUTE_TYPE": 0, "LF_ADDR": null, "LT_ADDR": null, "RF_ADDR": null, "RT_ADDR": null, "ONEWAY": 0, "FROM_ELEV": 0, "TO_ELEV": 0, "PAVED": null, "PRIVATE": null, "GEO_SOURCE": 0, "NAME": "KAM HWY", "Shape_Leng": 574.59867370899997 }, "geometry": { "type": "MultiLineString", "coordinates": [ [ [ -157.81457, 21.44887 ], [ -157.81457, 21.44887 ] ], [ [ -157.81455, 21.44877 ], [ -157.81455, 21.44878 ] ], [ [ -157.81454, 21.44874 ], [ -157.81454, 21.44874 ] ], [ [ -157.81448, 21.44855 ], [ -157.81448, 21.44857 ] ], [ [ -157.81447, 21.44854 ], [ -157.81447, 21.44854 ] ], [ [ -157.81434, 21.44823 ], [ -157.81446, 21.44852 ] ], [ [ -157.81353, 21.44627 ], [ -157.81434, 21.44822 ] ], [ [ -157.81352, 21.44625 ], [ -157.81353, 21.44626 ] ], [ [ -157.81347, 21.44613 ], [ -157.81352, 21.44624 ] ], [ [ -157.81347, 21.44612 ], [ -157.81347, 21.44612 ] ], [ [ -157.81343, 21.44601 ], [ -157.81345, 21.44608 ] ], [ [ -157.81342, 21.446 ], [ -157.81342, 21.44601 ] ], [ [ -157.81341, 21.44598 ], [ -157.81341, 21.44598 ] ], [ [ -157.8134, 21.44596 ], [ -157.8134, 21.44596 ] ], [ [ -157.81339, 21.44593 ], [ -157.81339, 21.44594 ] ], [ [ -157.81338, 21.4459 ], [ -157.81339, 21.44592 ] ], [ [ -157.81337, 21.44588 ], [ -157.81338, 21.44589 ] ], [ [ -157.81336, 21.44585 ], [ -157.81337, 21.44587 ] ], [ [ -157.81335, 21.44584 ], [ -157.81336, 21.44585 ] ], [ [ -157.81335, 21.44582 ], [ -157.81335, 21.44583 ] ], [ [ -157.81334, 21.4458 ], [ -157.81334, 21.4458 ] ], [ [ -157.81332, 21.44577 ], [ -157.81333, 21.44578 ] ], [ [ -157.81321, 21.44551 ], [ -157.81324, 21.44558 ] ], [ [ -157.8132, 21.44549 ], [ -157.81321, 21.4455 ] ], [ [ -157.81319, 21.44546 ], [ -157.8132, 21.44548 ] ], [ [ -157.81318, 21.44544 ], [ -157.81319, 21.44546 ] ], [ [ -157.81314, 21.44536 ], [ -157.81318, 21.44544 ] ], [ [ -157.81244, 21.44397 ], [ -157.81314, 21.44536 ] ], [ [ -157.81243, 21.44396 ], [ -157.81243, 21.44397 ] ], [ [ -157.8124, 21.44391 ], [ -157.8124, 21.44391 ] ], [ [ -157.81204, 21.44332 ], [ -157.81239, 21.4439 ] ] ] } },
{ "type": "Feature", "properties": { "FID_kau_ce": 0, "SEGMENTID": 0.0, "ST_FULLNM": null, "ST_PRE": null, "ST_NAME": null, "ST_TYPE": null, "ST_SUF": null, "A1_FULLNM": null, "A1_ST_PRE": null, "A1_ST_NAME": null, "A1_ST_TYPE": null, "A1_ST_SUF": null, "A2_FULLNM": null, "A2_ST_PRE": null, "A2_ST_NAME": null, "A2_ST_TYPE": null, "A2_ST_SUF": null, "ROUTE_NUM": null, "ROUTE_TYPE": 0, "LF_ADDR": null, "LT_ADDR": null, "RF_ADDR": null, "RT_ADDR": null, "ONEWAY": 0, "FROM_ELEV": 0, "TO_ELEV": 0, "PAVED": null, "PRIVATE": null, "GEO_SOURCE": 0, "NAME": "FARRINGTON HWY", "Shape_Leng": 8.7622041170100005 }, "geometry": { "type": "MultiLineString", "coordinates": [ [ [ -158.17988, 21.42893 ], [ -158.17981, 21.42888 ] ] ] } },
{ "type": "Feature", "properties": { "FID_kau_ce": 0, "SEGMENTID": 0.0, "ST_FULLNM": null, "ST_PRE": null, "ST_NAME": null, "ST_TYPE": null, "ST_SUF": null, "A1_FULLNM": null, "A1_ST_PRE": null, "A1_ST_NAME": null, "A1_ST_TYPE": null, "A1_ST_SUF": null, "A2_FULLNM": null, "A2_ST_PRE": null, "A2_ST_NAME": null, "A2_ST_TYPE": null, "A2_ST_SUF": null, "ROUTE_NUM": null, "ROUTE_TYPE": 0, "LF_ADDR": null, "LT_ADDR": null, "RF_ADDR": null, "RT_ADDR": null, "ONEWAY": 0, "FROM_ELEV": 0, "TO_ELEV": 0, "PAVED": null, "PRIVATE": null, "GEO_SOURCE": 0, "NAME": "KALANIANAOLE HWY", "Shape_Leng": 44.926913867099998 }, "geometry": { "type": "MultiLineString", "coordinates": [ [ [ -157.71423, 21.28239 ], [ -157.71383, 21.28224 ] ] ] } },
{ "type": "Feature", "properties": { "FID_kau_ce": 0, "SEGMENTID": 0.0, "ST_FULLNM": null, "ST_PRE": null, "ST_NAME": null, "ST_TYPE": null, "ST_SUF": null, "A1_FULLNM": null, "A1_ST_PRE": null, "A1_ST_NAME": null, "A1_ST_TYPE": null, "A1_ST_SUF": null, "A2_FULLNM": null, "A2_ST_PRE": null, "A2_ST_NAME": null, "A2_ST_TYPE": null, "A2_ST_SUF": null, "ROUTE_NUM": null, "ROUTE_TYPE": 0, "LF_ADDR": null, "LT_ADDR": null, "RF_ADDR": null, "RT_ADDR": null, "ONEWAY": 0, "FROM_ELEV": 0, "TO_ELEV": 0, "PAVED": null, "PRIVATE": null, "GEO_SOURCE": 0, "NAME": "KALANIANAOLE HWY", "Shape_Leng": 13.082072285600001 }, "geometry": { "type": "MultiLineString", "coordinates": [ [ [ -157.67436, 21.28562 ], [ -157.67425, 21.28568 ] ] ] } },
{ "type": "Feature", "properties": { "FID_kau_ce": 0, "SEGMENTID": 0.0, "ST_FULLNM": null, "ST_PRE": null, "ST_NAME": null, "ST_TYPE": null, "ST_SUF": null, "A1_FULLNM": null, "A1_ST_PRE": null, "A1_ST_NAME": null, "A1_ST_TYPE": null, "A1_ST_SUF": null, "A2_FULLNM": null, "A2_ST_PRE": null, "A2_ST_NAME": null, "A2_ST_TYPE": null, "A2_ST_SUF": null, "ROUTE_NUM": null, "ROUTE_TYPE": 0, "LF_ADDR": null, "LT_ADDR": null, "RF_ADDR": null, "RT_ADDR": null, "ONEWAY": 0, "FROM_ELEV": 0, "TO_ELEV": 0, "PAVED": null, "PRIVATE": null, "GEO_SOURCE": 0, "NAME": "ALA MOANA", "Shape_Leng": 3.8663973482 }, "geometry": { "type": "MultiLineString", "coordinates": [ [ [ -157.85779, 21.29498 ], [ -157.85776, 21.29496 ] ] ] } },
{ "type": "Feature", "properties": { "FID_kau_ce": 0, "SEGMENTID": 0.0, "ST_FULLNM": null, "ST_PRE": null, "ST_NAME": null, "ST_TYPE": null, "ST_SUF": null, "A1_FULLNM": null, "A1_ST_PRE": null, "A1_ST_NAME": null, "A1_ST_TYPE": null, "A1_ST_SUF": null, "A2_FULLNM": null, "A2_ST_PRE": null, "A2_ST_NAME": null, "A2_ST_TYPE": null, "A2_ST_SUF": null, "ROUTE_NUM": null, "ROUTE_TYPE": 0, "LF_ADDR": null, "LT_ADDR": null, "RF_ADDR": null, "RT_ADDR": null, "ONEWAY": 0, "FROM_ELEV": 0, "TO_ELEV": 0, "PAVED": null, "PRIVATE": null, "GEO_SOURCE": 0, "NAME": "ALA MOANA", "Shape_Leng": 66.297271506399994 }, "geometry": { "type": "MultiLineString", "coordinates": [ [ [ -157.85776, 21.29496 ], [ -157.85723, 21.29465 ] ] ] } },
{ "type": "Feature", "properties": { "FID_kau_ce": 0, "SEGMENTID": 0.0, "ST_FULLNM": null, "ST_PRE": null, "ST_NAME": null, "ST_TYPE": null, "ST_SUF": null, "A1_FULLNM": null, "A1_ST_PRE": null, "A1_ST_NAME": null, "A1_ST_TYPE": null, "A1_ST_SUF": null, "A2_FULLNM": null, "A2_ST_PRE": null, "A2_ST_NAME": null, "A2_ST_TYPE": null, "A2_ST_SUF": null, "ROUTE_NUM": null, "ROUTE_TYPE": 0, "LF_ADDR": null, "LT_ADDR": null, "RF_ADDR": null, "RT_ADDR": null, "ONEWAY": 0, "FROM_ELEV": 0, "TO_ELEV": 0, "PAVED": null, "PRIVATE": null, "GEO_SOURCE": 0, "NAME": "KAPIOLANI BLVD", "Shape_Leng": 4.3742026379399999 }, "geometry": { "type": "MultiLineString", "coordinates": [ [ [ -157.83468, 21.29032 ], [ -157.83464, 21.2903 ] ] ] } },
{ "type": "Feature", "properties": { "FID_kau_ce": 0, "SEGMENTID": 0.0, "ST_FULLNM": null, "ST_PRE": null, "ST_NAME": null, "ST_TYPE": null, "ST_SUF": null, "A1_FULLNM": null, "A1_ST_PRE": null, "A1_ST_NAME": null, "A1_ST_TYPE": null, "A1_ST_SUF": null, "A2_FULLNM": null, "A2_ST_PRE": null, "A2_ST_NAME": null, "A2_ST_TYPE": null, "A2_ST_SUF": null, "ROUTE_NUM": null, "ROUTE_TYPE": 0, "LF_ADDR": null, "LT_ADDR": null, "RF_ADDR": null, "RT_ADDR": null, "ONEWAY": 0, "FROM_ELEV": 0, "TO_ELEV": 0, "PAVED": null, "PRIVATE": null, "GEO_SOURCE": 0, "NAME": "KAPIOLANI BLVD", "Shape_Leng": 5.2425658956800003 }, "geometry": { "type": "MultiLineString", "coordinates": [ [ [ -157.83464, 21.2903 ], [ -157.83459, 21.29029 ] ] ] } },
{ "type": "Feature", "properties": { "FID_kau_ce": 0, "SEGMENTID": 0.0, "ST_FULLNM": null, "ST_PRE": null, "ST_NAME": null, "ST_TYPE": null, "ST_SUF": null, "A1_FULLNM": null, "A1_ST_PRE": null, "A1_ST_NAME": null, "A1_ST_TYPE": null, "A1_ST_SUF": null, "A2_FULLNM": null, "A2_ST_PRE": null, "A2_ST_NAME": null, "A2_ST_TYPE": null, "A2_ST_SUF": null, "ROUTE_NUM": null, "ROUTE_TYPE": 0, "LF_ADDR": null, "LT_ADDR": null, "RF_ADDR": null, "RT_ADDR": null, "ONEWAY": 0, "FROM_ELEV": 0, "TO_ELEV": 0, "PAVED": null, "PRIVATE": null, "GEO_SOURCE": 0, "NAME": "KAM HWY", "Shape_Leng": 304.17610931600001 }, "geometry": { "type": "MultiLineString", "coordinates": [ [ [ -158.10314, 21.59803 ], [ -158.10308, 21.59614 ] ], [ [ -158.10305, 21.59576 ], [ -158.10305, 21.59563 ] ], [ [ -158.10311, 21.5953 ], [ -158.10324, 21.59461 ] ] ] } },
{ "type": "Feature", "properties": { "FID_kau_ce": 0, "SEGMENTID": 0.0, "ST_FULLNM": null, "ST_PRE": null, "ST_NAME": null, "ST_TYPE": null, "ST_SUF": null, "A1_FULLNM": null, "A1_ST_PRE": null, "A1_ST_NAME": null, "A1_ST_TYPE": null, "A1_ST_SUF": null, "A2_FULLNM": null, "A2_ST_PRE": null, "A2_ST_NAME": null, "A2_ST_TYPE": null, "A2_ST_SUF": null, "ROUTE_NUM": null, "ROUTE_TYPE": 0, "LF_ADDR": null, "LT_ADDR": null, "RF_ADDR": null, "RT_ADDR": null, "ONEWAY": 0, "FROM_ELEV": 0, "TO_ELEV": 0, "PAVED": null, "PRIVATE": null, "GEO_SOURCE": 0, "NAME": null, "Shape_Leng": 699.86062271499998 }, "geometry": { "type": "MultiLineString", "coordinates": [ [ [ -158.23548, 21.54108 ], [ -158.23548, 21.54108 ] ], [ [ -158.23581, 21.54129 ], [ -158.2358, 21.54129 ] ], [ [ -158.23919, 21.54486 ], [ -158.23918, 21.54485 ] ], [ [ -158.24026, 21.54712 ], [ -158.24013, 21.54598 ] ], [ [ -158.24041, 21.54762 ], [ -158.2404, 21.54761 ] ], [ [ -158.24059, 21.54782 ], [ -158.24049, 21.54772 ] ], [ [ -158.24253, 21.54978 ], [ -158.24074, 21.54797 ] ], [ [ -158.24349, 21.55074 ], [ -158.24305, 21.55029 ] ], [ [ -158.24397, 21.55118 ], [ -158.24396, 21.55118 ] ], [ [ -158.24404, 21.55124 ], [ -158.24402, 21.55123 ] ], [ [ -158.24409, 21.55129 ], [ -158.24407, 21.55127 ] ], [ [ -158.24414, 21.55133 ], [ -158.24411, 21.55131 ] ], [ [ -158.24436, 21.55147 ], [ -158.24416, 21.55136 ] ], [ [ -158.2444, 21.55149 ], [ -158.24436, 21.55147 ] ], [ [ -158.24671, 21.55362 ], [ -158.24552, 21.55249 ] ] ] } }
]
}
