{
"type": "FeatureCollection",
"name": "filtered_slr_potent_fld_hwys_1pt1ft",
"crs": { "type": "name", "properties": { "name": "urn:ogc:def:crs:OGC:1.3:CRS84" } },
"features": [
{ "type": "Feature", "properties": { "FID_kau_ce": 667, "SEGMENTID": 1280.0, "ST_FULLNM": "KAUMUALII HWY", "ST_PRE": null, "ST_NAME": "KAUMUALII", "ST_TYPE": "HWY", "ST_SUF": null, "A1_FULLNM": "HI-50", "A1_ST_PRE": null, "A1_ST_NAME": "HI-50", "A1_ST_TYPE": null, "A1_ST_SUF": null, "A2_FULLNM": null, "A2_ST_PRE": null, "A2_ST_NAME": null, "A2_ST_TYPE": null, "A2_ST_SUF": null, "ROUTE_NUM": "50", "ROUTE_TYPE": 3, "LF_ADDR": "18398", "LT_ADDR": "18358", "RF_ADDR": "18399", "RT_ADDR": "18359", "ONEWAY": 0, "FROM_ELEV": 0, "TO_ELEV": 0, "PAVED": "Y", "PRIVATE": "N", "GEO_SOURCE": 1, "NAME": "KAUMUALII HWY", "Shape_Leng": 176.605698042 }, "geometry": { "type": "MultiLineString", "coordinates": [ [ [ -159.71338, 21.96639 ], [ -159.71366, 21.96658 ] ], [ [ -159.71322, 21.96627 ], [ -159.71323, 21.96628 ] ], [ [ -159.71312, 21.9662 ], [ -159.71317, 21.96624 ] ], [ [ -159.71302, 21.96613 ], [ -159.7131, 21.96619 ] ], [ [ -159.7119, 21.96525 ], [ -159.71234, 21.96563 ] ], [ [ -159.71121, 21.96457 ], [ -159.71161, 21.96497 ] ] ] } },
{ "type": "Feature", "properties": { "FID_kau_ce": 674, "SEGMENTID": 1307.0, "ST_FULLNM": "KAUMUALII HWY", "ST_PRE": null, "ST_NAME": "KAUMUALII", "ST_TYPE": "HWY", "ST_SUF": null, "A1_FULLNM": "HI-50", "A1_ST_PRE": null, "A1_ST_NAME": "HI-50", "A1_ST_TYPE": null, "A1_ST_SUF": null, "A2_FULLNM": null, "A2_ST_PRE": null, "A2_ST_NAME": null, "A2_ST_TYPE": null, "A2_ST_SUF": null, "ROUTE_NUM": "50", "ROUTE_TYPE": 3, "LF_ADDR": "18098", "LT_ADDR": "18000", "RF_ADDR": "18099", "RT_ADDR": "18001", "ONEWAY": 0, "FROM_ELEV": 0, "TO_ELEV": 0, "PAVED": "Y", "PRIVATE": "N", "GEO_SOURCE": 1, "NAME": "KAUMUALII HWY", "Shape_Leng": 234.002314662 }, "geometry": { "type": "MultiLineString", "coordinates": [ [ [ -159.71946, 21.96874 ], [ -159.72162, 21.96938 ] ] ] } },
{ "type": "Feature", "properties": { "FID_kau_ce": 678, "SEGMENTID": 1311.0, "ST_FULLNM": "KAUMUALII HWY", "ST_PRE": null, "ST_NAME": "KAUMUALII", "ST_TYPE": "HWY", "ST_SUF": null, "A1_FULLNM": "HI-50", "A1_ST_PRE": null, "A1_ST_NAME": "HI-50", "A1_ST_TYPE": null, "A1_ST_SUF": null, "A2_FULLNM": null, "A2_ST_PRE": null, "A2_ST_NAME": null, "A2_ST_TYPE": null, "A2_ST_SUF": null, "ROUTE_NUM": "50", "ROUTE_TYPE": 3, "LF_ADDR": "17998", "LT_ADDR": "17900", "RF_ADDR": "17999", "RT_ADDR": "17901", "ONEWAY": 0, "FROM_ELEV": 0, "TO_ELEV": 0, "PAVED": "Y", "PRIVATE": "N", "GEO_SOURCE": 1, "NAME": "KAUMUALII HWY", "Shape_Leng": 271.46267713600002 }, "geometry": { "type": "MultiLineString", "coordinates": [ [ [ -159.72162, 21.96938 ], [ -159.72413, 21.97011 ] ] ] } },
{ "type": "Feature", "properties": { "FID_kau_ce": 786, "SEGMENTID": 281.0, "ST_FULLNM": "KAUMUALII HWY", "ST_PRE": null, "ST_NAME": "KAUMUALII", "ST_TYPE": "HWY", "ST_SUF": null, "A1_FULLNM": "HI-50", "A1_ST_PRE": null, "A1_ST_NAME": "HI-50", "A1_ST_TYPE": null, "A1_ST_SUF": null, "A2_FULLNM": null, "A2_ST_PRE": null, "A2_ST_NAME": null, "A2_ST_TYPE": null, "A2_ST_SUF": null, "ROUTE_NUM": "50", "ROUTE_TYPE": 3, "LF_ADDR": "10998", "LT_ADDR": "10952", "RF_ADDR": "10999", "RT_ADDR": "10953", "ONEWAY": 0, "FROM_ELEV": 0, "TO_ELEV": 0, "PAVED": "Y", "PRIVATE": "N", "GEO_SOURCE": 1, "NAME": "KAUMUALII HWY", "Shape_Leng": 5.6474720196400003 }, "geometry": { "type": "MultiLineString", "coordinates": [ [ [ -159.64925, 21.94434 ], [ -159.64926, 21.94436 ] ], [ [ -159.64745, 21.93987 ], [ -159.64746, 21.93989 ] ] ] } },
{ "type": "Feature", "properties": { "FID_kau_ce": 1145, "SEGMENTID": 3502.0, "ST_FULLNM": "KUHIO HWY", "ST_PRE": null, "ST_NAME": "KUHIO", "ST_TYPE": "HWY", "ST_SUF": null, "A1_FULLNM": "HI-560", "A1_ST_PRE": null, "A1_ST_NAME": "HI-560", "A1_ST_TYPE": null, "A1_ST_SUF": null, "A2_FULLNM": null, "A2_ST_PRE": null, "A2_ST_NAME": null, "A2_ST_TYPE": null, "A2_ST_SUF": null, "ROUTE_NUM": "560", "ROUTE_TYPE": 0, "LF_ADDR": "57093", "LT_ADDR": "57149", "RF_ADDR": "57090", "RT_ADDR": "57148", "ONEWAY": 0, "FROM_ELEV": 0, "TO_ELEV": 0, "PAVED": "Y", "PRIVATE": "N", "GEO_SOURCE": 1, "NAME": "KUHIO HWY", "Shape_Leng": 1.2999601378400001 }, "geometry": { "type": "MultiLineString", "coordinates": [ [ [ -159.54598, 22.22111 ], [ -159.54598, 22.22112 ] ] ] } },
{ "type": "Feature", "properties": { "FID_kau_ce": 1182, "SEGMENTID": 1238.0, "ST_FULLNM": "KAUMUALII HWY", "ST_PRE": null, "ST_NAME": "KAUMUALII", "ST_TYPE": "HWY", "ST_SUF": null, "A1_FULLNM": "HI-50", "A1_ST_PRE": null, "A1_ST_NAME": "HI-50", "A1_ST_TYPE": null, "A1_ST_SUF": null, "A2_FULLNM": null, "A2_ST_PRE": null, "A2_ST_NAME": null, "A2_ST_TYPE": null, "A2_ST_SUF": null, "ROUTE_NUM": "50", "ROUTE_TYPE": 3, "LF_ADDR": "18701", "LT_ADDR": "18749", "RF_ADDR": "18700", "RT_ADDR": "18748", "ONEWAY": 0, "FROM_ELEV": 0, "TO_ELEV": 0, "PAVED": "Y", "PRIVATE": "N", "GEO_SOURCE": 1, "NAME": "KAUMUALII HWY", "Shape_Leng": 8.4624899695700009 }, "geometry": { "type": "MultiLineString", "coordinates": [ [ [ -159.70222, 21.96122 ], [ -159.70214, 21.96124 ] ] ] } },
{ "type": "Feature", "properties": { "FID_kau_ce": 1190, "SEGMENTID": 1246.0, "ST_FULLNM": "KAUMUALII HWY", "ST_PRE": null, "ST_NAME": "KAUMUALII", "ST_TYPE": "HWY", "ST_SUF": null, "A1_FULLNM": "HI-50", "A1_ST_PRE": null, "A1_ST_NAME": "HI-50", "A1_ST_TYPE": null, "A1_ST_SUF": null, "A2_FULLNM": null, "A2_ST_PRE": null, "A2_ST_NAME": null, "A2_ST_TYPE": null, "A2_ST_SUF": null, "ROUTE_NUM": "50", "ROUTE_TYPE": 3, "LF_ADDR": "18598", "LT_ADDR": "18550", "RF_ADDR": "18599", "RT_ADDR": "18551", "ONEWAY": 0, "FROM_ELEV": 0, "TO_ELEV": 0, "PAVED": "Y", "PRIVATE": "N", "GEO_SOURCE": 1, "NAME": "KAUMUALII HWY", "Shape_Leng": 253.51828166499999 }, "geometry": { "type": "MultiLineString", "coordinates": [ [ [ -159.70619, 21.96113 ], [ -159.70839, 21.96212 ] ] ] } },
{ "type": "Feature", "properties": { "FID_kau_ce": 1202, "SEGMENTID": 1258.0, "ST_FULLNM": "KAUMUALII HWY", "ST_PRE": null, "ST_NAME": "KAUMUALII", "ST_TYPE": "HWY", "ST_SUF": null, "A1_FULLNM": "HI-50", "A1_ST_PRE": null, "A1_ST_NAME": "HI-50", "A1_ST_TYPE": null, "A1_ST_SUF": null, "A2_FULLNM": null, "A2_ST_PRE": null, "A2_ST_NAME": null, "A2_ST_TYPE": null, "A2_ST_SUF": null, "ROUTE_NUM": "50", "ROUTE_TYPE": 3, "LF_ADDR": "18548", "LT_ADDR": "18500", "RF_ADDR": "18549", "RT_ADDR": "18501", "ONEWAY": 0, "FROM_ELEV": 0, "TO_ELEV": 0, "PAVED": "Y", "PRIVATE": "N", "GEO_SOURCE": 1, "NAME": "KAUMUALII HWY", "Shape_Leng": 135.16293384299999 }, "geometry": { "type": "MultiLineString", "coordinates": [ [ [ -159.70839, 21.96212 ], [ -159.70945, 21.96285 ] ] ] } },
{ "type": "Feature", "properties": { "FID_kau_ce": 1211, "SEGMENTID": 1267.0, "ST_FULLNM": "KAUMUALII HWY", "ST_PRE": null, "ST_NAME": "KAUMUALII", "ST_TYPE": "HWY", "ST_SUF": null, "A1_FULLNM": "HI-50", "A1_ST_PRE": null, "A1_ST_NAME": "HI-50", "A1_ST_TYPE": null, "A1_ST_SUF": null, "A2_FULLNM": null, "A2_ST_PRE": null, "A2_ST_NAME": null, "A2_ST_TYPE": null, "A2_ST_SUF": null, "ROUTE_NUM": "50", "ROUTE_TYPE": 3, "LF_ADDR": "18462", "LT_ADDR": "18400", "RF_ADDR": "18463", "RT_ADDR": "18401", "ONEWAY": 0, "FROM_ELEV": 0, "TO_ELEV": 0, "PAVED": "Y", "PRIVATE": "N", "GEO_SOURCE": 1, "NAME": "KAUMUALII HWY", "Shape_Leng": 129.30488409099999 }, "geometry": { "type": "MultiLineString", "coordinates": [ [ [ -159.7104, 21.96368 ], [ -159.71121, 21.96457 ] ] ] } },
{ "type": "Feature", "properties": { "FID_kau_ce": 1281, "SEGMENTID": 514.0, "ST_FULLNM": "KAUMUALII HWY", "ST_PRE": null, "ST_NAME": "KAUMUALII", "ST_TYPE": "HWY", "ST_SUF": null, "A1_FULLNM": "HI-50", "A1_ST_PRE": null, "A1_ST_NAME": "HI-50", "A1_ST_TYPE": null, "A1_ST_SUF": null, "A2_FULLNM": null, "A2_ST_PRE": null, "A2_ST_NAME": null, "A2_ST_TYPE": null, "A2_ST_SUF": null, "ROUTE_NUM": "50", "ROUTE_TYPE": 3, "LF_ADDR": "18498", "LT_ADDR": "18464", "RF_ADDR": "18499", "RT_ADDR": "18465", "ONEWAY": 0, "FROM_ELEV": 0, "TO_ELEV": 0, "PAVED": "Y", "PRIVATE": "N", "GEO_SOURCE": 1, "NAME": "KAUMUALII HWY", "Shape_Leng": 135.57923193400001 }, "geometry": { "type": "MultiLineString", "coordinates": [ [ [ -159.70945, 21.96285 ], [ -159.7104, 21.96368 ] ] ] } },
{ "type": "Feature", "properties": { "FID_kau_ce": 1344, "SEGMENTID": 852.0, "ST_FULLNM": "KAUMUALII HWY", "ST_PRE": null, "ST_NAME": "KAUMUALII", "ST_TYPE": "HWY", "ST_SUF": null, "A1_FULLNM": "HI-50", "A1_ST_PRE": null, "A1_ST_NAME": "HI-50", "A1_ST_TYPE": null, "A1_ST_SUF": null, "A2_FULLNM": null, "A2_ST_PRE": null, "A2_ST_NAME": null, "A2_ST_TYPE": null, "A2_ST_SUF": null, "ROUTE_NUM": "50", "ROUTE_TYPE": 3, "LF_ADDR": "17898", "LT_ADDR": "17624", "RF_ADDR": "17899", "RT_ADDR": "17625", "ONEWAY": 0, "FROM_ELEV": 0, "TO_ELEV": 0, "PAVED": "Y", "PRIVATE": "N", "GEO_SOURCE": 1, "NAME": "KAUMUALII HWY", "Shape_Leng": 653.47247013699996 }, "geometry": { "type": "MultiLineString", "coordinates": [ [ [ -159.72413, 21.97011 ], [ -159.73008, 21.97207 ] ] ] } },
{ "type": "Feature", "properties": { "FID_kau_ce": 1387, "SEGMENTID": 1297.0, "ST_FULLNM": "KAUMUALII HWY", "ST_PRE": null, "ST_NAME": "KAUMUALII", "ST_TYPE": "HWY", "ST_SUF": null, "A1_FULLNM": "HI-50", "A1_ST_PRE": null, "A1_ST_NAME": "HI-50", "A1_ST_TYPE": null, "A1_ST_SUF": null, "A2_FULLNM": null, "A2_ST_PRE": null, "A2_ST_NAME": null, "A2_ST_TYPE": null, "A2_ST_SUF": null, "ROUTE_NUM": "50", "ROUTE_TYPE": 3, "LF_ADDR": "18298", "LT_ADDR": "18200", "RF_ADDR": "18299", "RT_ADDR": "18201", "ONEWAY": 0, "FROM_ELEV": 0, "TO_ELEV": 0, "PAVED": "Y", "PRIVATE": "N", "GEO_SOURCE": 1, "NAME": "KAUMUALII HWY", "Shape_Leng": 411.34728591099997 }, "geometry": { "type": "MultiLineString", "coordinates": [ [ [ -159.71366, 21.96658 ], [ -159.71728, 21.9681 ] ] ] } },
{ "type": "Feature", "properties": { "FID_kau_ce": 1390, "SEGMENTID": 1300.0, "ST_FULLNM": "KAUMUALII HWY", "ST_PRE": null, "ST_NAME": "KAUMUALII", "ST_TYPE": "HWY", "ST_SUF": null, "A1_FULLNM": "HI-50", "A1_ST_PRE": null, "A1_ST_NAME": "HI-50", "A1_ST_TYPE": null, "A1_ST_SUF": null, "A2_FULLNM": null, "A2_ST_PRE": null, "A2_ST_NAME": null, "A2_ST_TYPE": null, "A2_ST_SUF": null, "ROUTE_NUM": "50", "ROUTE_TYPE": 3, "LF_ADDR": "18198", "LT_ADDR": "18100", "RF_ADDR": "18199", "RT_ADDR": "18101", "ONEWAY": 0, "FROM_ELEV": 0, "TO_ELEV": 0, "PAVED": "Y", "PRIVATE": "N", "GEO_SOURCE": 1, "NAME": "KAUMUALII HWY", "Shape_Leng": 235.971895222 }, "geometry": { "type": "MultiLineString", "coordinates": [ [ [ -159.71728, 21.9681 ], [ -159.71946, 21.96874 ] ] ] } },
{ "type": "Feature", "properties": { "FID_kau_ce": 1697, "SEGMENTID": 917.0, "ST_FULLNM": "KAUMUALII HWY", "ST_PRE": null, "ST_NAME": "KAUMUALII", "ST_TYPE": "HWY", "ST_SUF": null, "A1_FULLNM": "HI-50", "A1_ST_PRE": null, "A1_ST_NAME": "HI-50", "A1_ST_TYPE": null, "A1_ST_SUF": null, "A2_FULLNM": null, "A2_ST_PRE": null, "A2_ST_NAME": null, "A2_ST_TYPE": null, "A2_ST_SUF": null, "ROUTE_NUM": "50", "ROUTE_TYPE": 3, "LF_ADDR": "18698", "LT_ADDR": "18600", "RF_ADDR": "18699", "RT_ADDR": "18601", "ONEWAY": 0, "FROM_ELEV": 0, "TO_ELEV": 0, "PAVED": "Y", "PRIVATE": "N", "GEO_SOURCE": 1, "NAME": "KAUMUALII HWY", "Shape_Leng": 373.92727787899997 }, "geometry": { "type": "MultiLineString", "coordinates": [ [ [ -159.70266, 21.96107 ], [ -159.70446, 21.96076 ], [ -159.70619, 21.96113 ] ] ] } },
{ "type": "Feature", "properties": { "FID_kau_ce": 1699, "SEGMENTID": 919.0, "ST_FULLNM": "KAUMUALII HWY", "ST_PRE": null, "ST_NAME": "KAUMUALII", "ST_TYPE": "HWY", "ST_SUF": null, "A1_FULLNM": "HI-50", "A1_ST_PRE": null, "A1_ST_NAME": "HI-50", "A1_ST_TYPE": null, "A1_ST_SUF": null, "A2_FULLNM": null, "A2_ST_PRE": null, "A2_ST_NAME": null, "A2_ST_TYPE": null, "A2_ST_SUF": null, "ROUTE_NUM": "50", "ROUTE_TYPE": 3, "LF_ADDR": null, "LT_ADDR": null, "RF_ADDR": null, "RT_ADDR": null, "ONEWAY": 0, "FROM_ELEV": 0, "TO_ELEV": 0, "PAVED": "Y", "PRIVATE": "N", "GEO_SOURCE": 1, "NAME": "KAUMUALII HWY", "Shape_Leng": 4.9305415688099998 }, "geometry": { "type": "MultiLineString", "coordinates": [ [ [ -159.70266, 21.96107 ], [ -159.70262, 21.96108 ] ] ] } },
{ "type": "Feature", "properties": { "FID_kau_ce": 1712, "SEGMENTID": 957.0, "ST_FULLNM": "KAUMUALII HWY", "ST_PRE": null, "ST_NAME": "KAUMUALII", "ST_TYPE": "HWY", "ST_SUF": null, "A1_FULLNM": "HI-50", "A1_ST_PRE": null, "A1_ST_NAME": "HI-50", "A1_ST_TYPE": null, "A1_ST_SUF": null, "A2_FULLNM": null, "A2_ST_PRE": null, "A2_ST_NAME": null, "A2_ST_TYPE": null, "A2_ST_SUF": null, "ROUTE_NUM": "50", "ROUTE_TYPE": 3, "LF_ADDR": null, "LT_ADDR": null, "RF_ADDR": null, "RT_ADDR": null, "ONEWAY": 0, "FROM_ELEV": 0, "TO_ELEV": 0, "PAVED": "Y", "PRIVATE": "N", "GEO_SOURCE": 1, "NAME": "KAUMUALII HWY", "Shape_Leng": 27.9953127102 }, "geometry": { "type": "MultiLineString", "coordinates": [ [ [ -159.77696, 22.0201 ], [ -159.777, 22.02016 ] ], [ [ -159.77252, 22.01538 ], [ -159.77262, 22.01549 ] ], [ [ -159.77183, 22.01465 ], [ -159.77184, 22.01466 ] ], [ [ -159.77125, 22.01403 ], [ -159.77125, 22.01403 ] ], [ [ -159.77086, 22.01362 ], [ -159.77087, 22.01363 ] ] ] } },
{ "type": "Feature", "properties": { "FID_kau_ce": 1724, "SEGMENTID": 969.0, "ST_FULLNM": "KAUMUALII HWY", "ST_PRE": null, "ST_NAME": "KAUMUALII", "ST_TYPE": "HWY", "ST_SUF": null, "A1_FULLNM": "HI-50", "A1_ST_PRE": null, "A1_ST_NAME": "HI-50", "A1_ST_TYPE": null, "A1_ST_SUF": null, "A2_FULLNM": null, "A2_ST_PRE": null, "A2_ST_NAME": null, "A2_ST_TYPE": null, "A2_ST_SUF": null, "ROUTE_NUM": "50", "ROUTE_TYPE": 3, "LF_ADDR": null, "LT_ADDR": null, "RF_ADDR": null, "RT_ADDR": null, "ONEWAY": 0, "FROM_ELEV": 0, "TO_ELEV": 0, "PAVED": "Y", "PRIVATE": "N", "GEO_SOURCE": 1, "NAME": "KAUMUALII HWY", "Shape_Leng": 7.2440405219199997 }, "geometry": { "type": "MultiLineString", "coordinates": [ [ [ -159.7771, 22.03288 ], [ -159.77708, 22.03294 ] ] ] } },
{ "type": "Feature", "properties": { "FID_kau_ce": 2640, "SEGMENTID": 2313.0, "ST_FULLNM": "KUHIO HWY", "ST_PRE": null, "ST_NAME": "KUHIO", "ST_TYPE": "HWY", "ST_SUF": null, "A1_FULLNM": "HI-56", "A1_ST_PRE": null, "A1_ST_NAME": "HI-56", "A1_ST_TYPE": null, "A1_ST_SUF": null, "A2_FULLNM": null, "A2_ST_PRE": null, "A2_ST_NAME": null, "A2_ST_TYPE": null, "A2_ST_SUF": null, "ROUTE_NUM": "56", "ROUTE_TYPE": 3, "LF_ADDR": "4771", "LT_ADDR": "4859", "RF_ADDR": "4772", "RT_ADDR": "4858", "ONEWAY": 0, "FROM_ELEV": 0, "TO_ELEV": 0, "PAVED": "Y", "PRIVATE": "N", "GEO_SOURCE": 1, "NAME": "KUHIO HWY", "Shape_Leng": 9.5882191133300001 }, "geometry": { "type": "MultiLineString", "coordinates": [ [ [ -159.32126, 22.06104 ], [ -159.32119, 22.0611 ] ] ] } },
{ "type": "Feature", "properties": { "FID_kau_ce": 2671, "SEGMENTID": 2364.0, "ST_FULLNM": "KUHIO HWY", "ST_PRE": null, "ST_NAME": "KUHIO", "ST_TYPE": "HWY", "ST_SUF": null, "A1_FULLNM": "HI-56", "A1_ST_PRE": null, "A1_ST_NAME": "HI-56", "A1_ST_TYPE": null, "A1_ST_SUF": null, "A2_FULLNM": null, "A2_ST_PRE": null, "A2_ST_NAME": null, "A2_ST_TYPE": null, "A2_ST_SUF": null, "ROUTE_NUM": "56", "ROUTE_TYPE": 3, "LF_ADDR": "41451", "LT_ADDR": "41579", "RF_ADDR": "41450", "RT_ADDR": "41584", "ONEWAY": 0, "FROM_ELEV": 0, "TO_ELEV": 0, "PAVED": "Y", "PRIVATE": "N", "GEO_SOURCE": 1, "NAME": "KUHIO HWY", "Shape_Leng": 47.202301751699999 }, "geometry": { "type": "MultiLineString", "coordinates": [ [ [ -159.31483, 22.0791 ], [ -159.31462, 22.07942 ] ], [ [ -159.31519, 22.07861 ], [ -159.31515, 22.07865 ] ] ] } },
{ "type": "Feature", "properties": { "FID_kau_ce": 3165, "SEGMENTID": 3064.0, "ST_FULLNM": "KUHIO HWY", "ST_PRE": null, "ST_NAME": "KUHIO", "ST_TYPE": "HWY", "ST_SUF": null, "A1_FULLNM": "HI-560", "A1_ST_PRE": null, "A1_ST_NAME": "HI-560", "A1_ST_TYPE": null, "A1_ST_SUF": null, "A2_FULLNM": null, "A2_ST_PRE": null, "A2_ST_NAME": null, "A2_ST_TYPE": null, "A2_ST_SUF": null, "ROUTE_NUM": "560", "ROUTE_TYPE": 3, "LF_ADDR": "56698", "LT_ADDR": "56602", "RF_ADDR": "56699", "RT_ADDR": "56601", "ONEWAY": 0, "FROM_ELEV": 0, "TO_ELEV": 0, "PAVED": "Y", "PRIVATE": "N", "GEO_SOURCE": 1, "NAME": "KUHIO HWY", "Shape_Leng": 125.67815450499999 }, "geometry": { "type": "MultiLineString", "coordinates": [ [ [ -159.54176, 22.2131 ], [ -159.54108, 22.21307 ] ], [ [ -159.54263, 22.21284 ], [ -159.54215, 22.21306 ] ] ] } },
{ "type": "Feature", "properties": { "FID_kau_ce": 3327, "SEGMENTID": 3305.0, "ST_FULLNM": "KUHIO HWY", "ST_PRE": null, "ST_NAME": "KUHIO", "ST_TYPE": "HWY", "ST_SUF": null, "A1_FULLNM": "HI-560", "A1_ST_PRE": null, "A1_ST_NAME": "HI-560", "A1_ST_TYPE": null, "A1_ST_SUF": null, "A2_FULLNM": null, "A2_ST_PRE": null, "A2_ST_NAME": null, "A2_ST_TYPE": null, "A2_ST_SUF": null, "ROUTE_NUM": "560", "ROUTE_TYPE": 3, "LF_ADDR": "57738", "LT_ADDR": "57642", "RF_ADDR": "57699", "RT_ADDR": "57653", "ONEWAY": 0, "FROM_ELEV": 0, "TO_ELEV": 0, "PAVED": "Y", "PRIVATE": "N", "GEO_SOURCE": 1, "NAME": "KUHIO HWY", "Shape_Leng": 3.2297636073699998 }, "geometry": { "type": "MultiLineString", "coordinates": [ [ [ -159.56052, 22.22259 ], [ -159.56049, 22.2226 ] ] ] } },
{ "type": "Feature", "properties": { "FID_kau_ce": 3338, "SEGMENTID": 3316.0, "ST_FULLNM": "KUHIO HWY", "ST_PRE": null, "ST_NAME": "KUHIO", "ST_TYPE": "HWY", "ST_SUF": null, "A1_FULLNM": "HI-560", "A1_ST_PRE": null, "A1_ST_NAME": "HI-560", "A1_ST_TYPE": null, "A1_ST_SUF": null, "A2_FULLNM": null, "A2_ST_PRE": null, "A2_ST_NAME": null, "A2_ST_TYPE": null, "A2_ST_SUF": null, "ROUTE_NUM": "560", "ROUTE_TYPE": 3, "LF_ADDR": "58398", "LT_ADDR": "57740", "RF_ADDR": "58399", "RT_ADDR": "57701", "ONEWAY": 0, "FROM_ELEV": 0, "TO_ELEV": 0, "PAVED": "Y", "PRIVATE": "N", "GEO_SOURCE": 1, "NAME": "KUHIO HWY", "Shape_Leng": 453.89274415599999 }, "geometry": { "type": "MultiLineString", "coordinates": [ [ [ -159.56194, 22.22177 ], [ -159.56183, 22.22188 ] ], [ [ -159.56934, 22.22148 ], [ -159.56901, 22.2214 ] ], [ [ -159.56804, 22.2211 ], [ -159.56733, 22.22023 ] ], [ [ -159.56352, 22.22064 ], [ -159.56328, 22.22068 ] ], [ [ -159.56429, 22.22045 ], [ -159.56367, 22.22062 ] ], [ [ -159.56473, 22.21973 ], [ -159.56448, 22.22022 ] ], [ [ -159.56692, 22.21979 ], [ -159.56638, 22.21958 ] ], [ [ -159.56475, 22.21968 ], [ -159.56473, 22.21971 ] ], [ [ -159.56526, 22.21937 ], [ -159.56478, 22.21964 ] ] ] } },
{ "type": "Feature", "properties": { "FID_kau_ce": 3561, "SEGMENTID": 3562.0, "ST_FULLNM": "KUHIO HWY", "ST_PRE": null, "ST_NAME": "KUHIO", "ST_TYPE": "HWY", "ST_SUF": null, "A1_FULLNM": "HI-560", "A1_ST_PRE": null, "A1_ST_NAME": "HI-560", "A1_ST_TYPE": null, "A1_ST_SUF": null, "A2_FULLNM": null, "A2_ST_PRE": null, "A2_ST_NAME": null, "A2_ST_TYPE": null, "A2_ST_SUF": null, "ROUTE_NUM": "560", "ROUTE_TYPE": 0, "LF_ADDR": "56801", "LT_ADDR": "56939", "RF_ADDR": "56800", "RT_ADDR": "56998", "ONEWAY": 0, "FROM_ELEV": 0, "TO_ELEV": 0, "PAVED": "Y", "PRIVATE": "N", "GEO_SOURCE": 1, "NAME": "KUHIO HWY", "Shape_Leng": 17.028515923800001 }, "geometry": { "type": "MultiLineString", "coordinates": [ [ [ -159.54314, 22.21797 ], [ -159.54327, 22.21806 ] ] ] } },
{ "type": "Feature", "properties": { "FID_kau_ce": 3563, "SEGMENTID": 3564.0, "ST_FULLNM": "KUHIO HWY", "ST_PRE": null, "ST_NAME": "KUHIO", "ST_TYPE": "HWY", "ST_SUF": null, "A1_FULLNM": "HI-560", "A1_ST_PRE": null, "A1_ST_NAME": "HI-560", "A1_ST_TYPE": null, "A1_ST_SUF": null, "A2_FULLNM": null, "A2_ST_PRE": null, "A2_ST_NAME": null, "A2_ST_TYPE": null, "A2_ST_SUF": null, "ROUTE_NUM": "560", "ROUTE_TYPE": 0, "LF_ADDR": "56957", "LT_ADDR": "57009", "RF_ADDR": "57000", "RT_ADDR": "56998", "ONEWAY": 0, "FROM_ELEV": 0, "TO_ELEV": 0, "PAVED": "Y", "PRIVATE": "N", "GEO_SOURCE": 1, "NAME": "KUHIO HWY", "Shape_Leng": 3.97079029473 }, "geometry": { "type": "MultiLineString", "coordinates": [ [ [ -159.54327, 22.21806 ], [ -159.5433, 22.21808 ] ] ] } },
{ "type": "Feature", "properties": { "FID_kau_ce": 3564, "SEGMENTID": 3565.0, "ST_FULLNM": "KUHIO HWY", "ST_PRE": null, "ST_NAME": "KUHIO", "ST_TYPE": "HWY", "ST_SUF": null, "A1_FULLNM": "HI-560", "A1_ST_PRE": null, "A1_ST_NAME": "HI-560", "A1_ST_TYPE": null, "A1_ST_SUF": null, "A2_FULLNM": null, "A2_ST_PRE": null, "A2_ST_NAME": null, "A2_ST_TYPE": null, "A2_ST_SUF": null, "ROUTE_NUM": "560", "ROUTE_TYPE": 0, "LF_ADDR": "57011", "LT_ADDR": "57059", "RF_ADDR": "57000", "RT_ADDR": "57058", "ONEWAY": 0, "FROM_ELEV": 0, "TO_ELEV": 0, "PAVED": "Y", "PRIVATE": "N", "GEO_SOURCE": 1, "NAME": "KUHIO HWY", "Shape_Leng": 8.3705387800099995 }, "geometry": { "type": "MultiLineString", "coordinates": [ [ [ -159.54426, 22.21909 ], [ -159.54428, 22.21912 ] ], [ [ -159.54421, 22.21904 ], [ -159.54424, 22.21907 ] ] ] } },
{ "type": "Feature", "properties": { "FID_kau_ce": 0, "SEGMENTID": 0.0, "ST_FULLNM": null, "ST_PRE": null, "ST_NAME": null, "ST_TYPE": null, "ST_SUF": null, "A1_FULLNM": null, "A1_ST_PRE": null, "A1_ST_NAME": null, "A1_ST_TYPE": null, "A1_ST_SUF": null, "A2_FULLNM": null, "A2_ST_PRE": null, "A2_ST_NAME": null, "A2_ST_TYPE": null, "A2_ST_SUF": null, "ROUTE_NUM": null, "ROUTE_TYPE": 0, "LF_ADDR": null, "LT_ADDR": null, "RF_ADDR": null, "RT_ADDR": null, "ONEWAY": 0, "FROM_ELEV": 0, "TO_ELEV": 0, "PAVED": null, "PRIVATE": null, "GEO_SOURCE": 0, "NAME": "HONOAPIILANI HIGHWAY", "Shape_Leng": 112.82605157899999 }, "geometry": { "type": "MultiLineString", "coordinates": [ [ [ -156.68788, 20.90873 ], [ -156.6882, 20.9097 ] ] ] } },
{ "type": "Feature", "properties": { "FID_kau_ce": 0, "SEGMENTID": 0.0, "ST_FULLNM": null, "ST_PRE": null, "ST_NAME": null, "ST_TYPE": null, "ST_SUF": null, "A1_FULLNM": null, "A1_ST_PRE": null, "A1_ST_NAME": null, "A1_ST_TYPE": null, "A1_ST_SUF": null, "A2_FULLNM": null, "A2_ST_PRE": null, "A2_ST_NAME": null, "A2_ST_TYPE": null, "A2_ST_SUF": null, "ROUTE_NUM": null, "ROUTE_TYPE": 0, "LF_ADDR": null, "LT_ADDR": null, "RF_ADDR": null, "RT_ADDR": null, "ONEWAY": 0, "FROM_ELEV": 0, "TO_ELEV": 0, "PAVED": null, "PRIVATE": null, "GEO_SOURCE": 0, "NAME": "NORTH KIHEI ROAD", "Shape_Leng": 517.94603563400005 }, "geometry": { "type": "MultiLineString", "coordinates": [ [ [ -156.47444, 20.79024 ], [ -156.47257, 20.78941 ], [ -156.47024, 20.78778 ] ] ] } },
{ "type": "Feature", "properties": { "FID_kau_ce": 0, "SEGMENTID": 0.0, "ST_FULLNM": null, "ST_PRE": null, "ST_NAME": null, "ST_TYPE": null, "ST_SUF": null, "A1_FULLNM": null, "A1_ST_PRE": null, "A1_ST_NAME": null, "A1_ST_TYPE": null, "A1_ST_SUF": null, "A2_FULLNM": null, "A2_ST_PRE": null, "A2_ST_NAME": null, "A2_ST_TYPE": null, "A2_ST_SUF": null, "ROUTE_NUM": null, "ROUTE_TYPE": 0, "LF_ADDR": null, "LT_ADDR": null, "RF_ADDR": null, "RT_ADDR": null, "ONEWAY": 0, "FROM_ELEV": 0, "TO_ELEV": 0, "PAVED": null, "PRIVATE": null, "GEO_SOURCE": 0, "NAME": "NORTH KIHEI ROAD", "Shape_Leng": 728.24522376799996 }, "geometry": { "type": "MultiLineString", "coordinates": [ [ [ -156.48449, 20.79511 ], [ -156.47835, 20.79199 ] ] ] } },
{ "type": "Feature", "properties": { "FID_kau_ce": 0, "SEGMENTID": 0.0, "ST_FULLNM": null, "ST_PRE": null, "ST_NAME": null, "ST_TYPE": null, "ST_SUF": null, "A1_FULLNM": null, "A1_ST_PRE": null, "A1_ST_NAME": null, "A1_ST_TYPE": null, "A1_ST_SUF": null, "A2_FULLNM": null, "A2_ST_PRE": null, "A2_ST_NAME": null, "A2_ST_TYPE": null, "A2_ST_SUF": null, "ROUTE_NUM": null, "ROUTE_TYPE": 0, "LF_ADDR": null, "LT_ADDR": null, "RF_ADDR": null, "RT_ADDR": null, "ONEWAY": 0, "FROM_ELEV": 0, "TO_ELEV": 0, "PAVED": null, "PRIVATE": null, "GEO_SOURCE": 0, "NAME": "KAHULUI BEACH ROAD", "Shape_Leng": 308.15514060499999 }, "geometry": { "type": "MultiLineString", "coordinates": [ [ [ -156.47348, 20.89067 ], [ -156.4758, 20.89237 ] ] ] } },
{ "type": "Feature", "properties": { "FID_kau_ce": 0, "SEGMENTID": 0.0, "ST_FULLNM": null, "ST_PRE": null, "ST_NAME": null, "ST_TYPE": null, "ST_SUF": null, "A1_FULLNM": null, "A1_ST_PRE": null, "A1_ST_NAME": null, "A1_ST_TYPE": null, "A1_ST_SUF": null, "A2_FULLNM": null, "A2_ST_PRE": null, "A2_ST_NAME": null, "A2_ST_TYPE": null, "A2_ST_SUF": null, "ROUTE_NUM": null, "ROUTE_TYPE": 0, "LF_ADDR": null, "LT_ADDR": null, "RF_ADDR": null, "RT_ADDR": null, "ONEWAY": 0, "FROM_ELEV": 0, "TO_ELEV": 0, "PAVED": null, "PRIVATE": null, "GEO_SOURCE": 0, "NAME": "KAHULUI BEACH ROAD", "Shape_Leng": 218.11428345600001 }, "geometry": { "type": "MultiLineString", "coordinates": [ [ [ -156.47721, 20.89336 ], [ -156.47864, 20.89478 ] ] ] } },
{ "type": "Feature", "properties": { "FID_kau_ce": 0, "SEGMENTID": 0.0, "ST_FULLNM": null, "ST_PRE": null, "ST_NAME": null, "ST_TYPE": null, "ST_SUF": null, "A1_FULLNM": null, "A1_ST_PRE": null, "A1_ST_NAME": null, "A1_ST_TYPE": null, "A1_ST_SUF": null, "A2_FULLNM": null, "A2_ST_PRE": null, "A2_ST_NAME": null, "A2_ST_TYPE": null, "A2_ST_SUF": null, "ROUTE_NUM": null, "ROUTE_TYPE": 0, "LF_ADDR": null, "LT_ADDR": null, "RF_ADDR": null, "RT_ADDR": null, "ONEWAY": 0, "FROM_ELEV": 0, "TO_ELEV": 0, "PAVED": null, "PRIVATE": null, "GEO_SOURCE": 0, "NAME": "KAHULUI BEACH ROAD", "Shape_Leng": 10.9709093194 }, "geometry": { "type": "MultiLineString", "coordinates": [ [ [ -156.48037, 20.8978 ], [ -156.48041, 20.89789 ] ] ] } },
{ "type": "Feature", "properties": { "FID_kau_ce": 0, "SEGMENTID": 0.0, "ST_FULLNM": null, "ST_PRE": null, "ST_NAME": null, "ST_TYPE": null, "ST_SUF": null, "A1_FULLNM": null, "A1_ST_PRE": null, "A1_ST_NAME": null, "A1_ST_TYPE": null, "A1_ST_SUF": null, "A2_FULLNM": null, "A2_ST_PRE": null, "A2_ST_NAME": null, "A2_ST_TYPE": null, "A2_ST_SUF": null, "ROUTE_NUM": null, "ROUTE_TYPE": 0, "LF_ADDR": null, "LT_ADDR": null, "RF_ADDR": null, "RT_ADDR": null, "ONEWAY": 0, "FROM_ELEV": 0, "TO_ELEV": 0, "PAVED": null, "PRIVATE": null, "GEO_SOURCE": 0, "NAME": "KAHULUI BEACH ROAD", "Shape_Leng": 1.6464204602000001 }, "geometry": { "type": "MultiLineString", "coordinates": [ [ [ -156.48043, 20.89794 ], [ -156.48044, 20.89795 ] ] ] } },
{ "type": "Feature", "properties": { "FID_kau_ce": 0, "SEGMENTID": 0.0, "ST_FULLNM": null, "ST_PRE": null, "ST_NAME": null, "ST_TYPE": null, "ST_SUF": null, "A1_FULLNM": null, "A1_ST_PRE": null, "A1_ST_NAME": null, "A1_ST_TYPE": null, "A1_ST_SUF": null, "A2_FULLNM": null, "A2_ST_PRE": null, "A2_ST_NAME": null, "A2_ST_TYPE": null, "A2_ST_SUF": null, "ROUTE_NUM": null, "ROUTE_TYPE": 0, "LF_ADDR": null, "LT_ADDR": null, "RF_ADDR": null, "RT_ADDR": null, "ONEWAY": 0, "FROM_ELEV": 0, "TO_ELEV": 0, "PAVED": null, "PRIVATE": null, "GEO_SOURCE": 0, "NAME": "KAHULUI BEACH ROAD", "Shape_Leng": 3.3271994865500001 }, "geometry": { "type": "MultiLineString", "coordinates": [ [ [ -156.48047, 20.89803 ], [ -156.48049, 20.89805 ] ] ] } },
{ "type": "Feature", "properties": { "FID_kau_ce": 0, "SEGMENTID": 0.0, "ST_FULLNM": null, "ST_PRE": null, "ST_NAME": null, "ST_TYPE": null, "ST_SUF": null, "A1_FULLNM": null, "A1_ST_PRE": null, "A1_ST_NAME": null, "A1_ST_TYPE": null, "A1_ST_SUF": null, "A2_FULLNM": null, "A2_ST_PRE": null, "A2_ST_NAME": null, "A2_ST_TYPE": null, "A2_ST_SUF": null, "ROUTE_NUM": null, "ROUTE_TYPE": 0, "LF_ADDR": null, "LT_ADDR": null, "RF_ADDR": null, "RT_ADDR": null, "ONEWAY": 0, "FROM_ELEV": 0, "TO_ELEV": 0, "PAVED": null, "PRIVATE": null, "GEO_SOURCE": 0, "NAME": "KAHULUI BEACH ROAD", "Shape_Leng": 33.642789358100003 }, "geometry": { "type": "MultiLineString", "coordinates": [ [ [ -156.48079, 20.89884 ], [ -156.4809, 20.89913 ] ] ] } },
{ "type": "Feature", "properties": { "FID_kau_ce": 0, "SEGMENTID": 0.0, "ST_FULLNM": null, "ST_PRE": null, "ST_NAME": null, "ST_TYPE": null, "ST_SUF": null, "A1_FULLNM": null, "A1_ST_PRE": null, "A1_ST_NAME": null, "A1_ST_TYPE": null, "A1_ST_SUF": null, "A2_FULLNM": null, "A2_ST_PRE": null, "A2_ST_NAME": null, "A2_ST_TYPE": null, "A2_ST_SUF": null, "ROUTE_NUM": null, "ROUTE_TYPE": 0, "LF_ADDR": null, "LT_ADDR": null, "RF_ADDR": null, "RT_ADDR": null, "ONEWAY": 0, "FROM_ELEV": 0, "TO_ELEV": 0, "PAVED": null, "PRIVATE": null, "GEO_SOURCE": 0, "NAME": "HONOAPIILANI HIGHWAY", "Shape_Leng": 9.4929498356599993 }, "geometry": { "type": "MultiLineString", "coordinates": [ [ [ -156.56673, 20.79287 ], [ -156.56681, 20.7929 ] ] ] } },
{ "type": "Feature", "properties": { "FID_kau_ce": 0, "SEGMENTID": 0.0, "ST_FULLNM": null, "ST_PRE": null, "ST_NAME": null, "ST_TYPE": null, "ST_SUF": null, "A1_FULLNM": null, "A1_ST_PRE": null, "A1_ST_NAME": null, "A1_ST_TYPE": null, "A1_ST_SUF": null, "A2_FULLNM": null, "A2_ST_PRE": null, "A2_ST_NAME": null, "A2_ST_TYPE": null, "A2_ST_SUF": null, "ROUTE_NUM": null, "ROUTE_TYPE": 0, "LF_ADDR": null, "LT_ADDR": null, "RF_ADDR": null, "RT_ADDR": null, "ONEWAY": 0, "FROM_ELEV": 0, "TO_ELEV": 0, "PAVED": null, "PRIVATE": null, "GEO_SOURCE": 0, "NAME": "HONOAPIILANI HIGHWAY", "Shape_Leng": 112.39350414899999 }, "geometry": { "type": "MultiLineString", "coordinates": [ [ [ -156.57422, 20.79397 ], [ -156.57529, 20.7941 ] ] ] } },
{ "type": "Feature", "properties": { "FID_kau_ce": 0, "SEGMENTID": 0.0, "ST_FULLNM": null, "ST_PRE": null, "ST_NAME": null, "ST_TYPE": null, "ST_SUF": null, "A1_FULLNM": null, "A1_ST_PRE": null, "A1_ST_NAME": null, "A1_ST_TYPE": null, "A1_ST_SUF": null, "A2_FULLNM": null, "A2_ST_PRE": null, "A2_ST_NAME": null, "A2_ST_TYPE": null, "A2_ST_SUF": null, "ROUTE_NUM": null, "ROUTE_TYPE": 0, "LF_ADDR": null, "LT_ADDR": null, "RF_ADDR": null, "RT_ADDR": null, "ONEWAY": 0, "FROM_ELEV": 0, "TO_ELEV": 0, "PAVED": null, "PRIVATE": null, "GEO_SOURCE": 0, "NAME": "HONOAPIILANI HIGHWAY", "Shape_Leng": 607.76710564099994 }, "geometry": { "type": "MultiLineString", "coordinates": [ [ [ -156.57554, 20.79413 ], [ -156.58132, 20.79492 ] ] ] } },
{ "type": "Feature", "properties": { "FID_kau_ce": 0, "SEGMENTID": 0.0, "ST_FULLNM": null, "ST_PRE": null, "ST_NAME": null, "ST_TYPE": null, "ST_SUF": null, "A1_FULLNM": null, "A1_ST_PRE": null, "A1_ST_NAME": null, "A1_ST_TYPE": null, "A1_ST_SUF": null, "A2_FULLNM": null, "A2_ST_PRE": null, "A2_ST_NAME": null, "A2_ST_TYPE": null, "A2_ST_SUF": null, "ROUTE_NUM": null, "ROUTE_TYPE": 0, "LF_ADDR": null, "LT_ADDR": null, "RF_ADDR": null, "RT_ADDR": null, "ONEWAY": 0, "FROM_ELEV": 0, "TO_ELEV": 0, "PAVED": null, "PRIVATE": null, "GEO_SOURCE": 0, "NAME": "HONOAPIILANI HIGHWAY", "Shape_Leng": 214.80348757600001 }, "geometry": { "type": "MultiLineString", "coordinates": [ [ [ -156.58717, 20.79719 ], [ -156.589, 20.79808 ] ] ] } },
{ "type": "Feature", "properties": { "FID_kau_ce": 0, "SEGMENTID": 0.0, "ST_FULLNM": null, "ST_PRE": null, "ST_NAME": null, "ST_TYPE": null, "ST_SUF": null, "A1_FULLNM": null, "A1_ST_PRE": null, "A1_ST_NAME": null, "A1_ST_TYPE": null, "A1_ST_SUF": null, "A2_FULLNM": null, "A2_ST_PRE": null, "A2_ST_NAME": null, "A2_ST_TYPE": null, "A2_ST_SUF": null, "ROUTE_NUM": null, "ROUTE_TYPE": 0, "LF_ADDR": null, "LT_ADDR": null, "RF_ADDR": null, "RT_ADDR": null, "ONEWAY": 0, "FROM_ELEV": 0, "TO_ELEV": 0, "PAVED": null, "PRIVATE": null, "GEO_SOURCE": 0, "NAME": "HONOAPIILANI HIGHWAY", "Shape_Leng": 154.134435293 }, "geometry": { "type": "MultiLineString", "coordinates": [ [ [ -156.59042, 20.79898 ], [ -156.5916, 20.79983 ] ] ] } },
{ "type": "Feature", "properties": { "FID_kau_ce": 0, "SEGMENTID": 0.0, "ST_FULLNM": null, "ST_PRE": null, "ST_NAME": null, "ST_TYPE": null, "ST_SUF": null, "A1_FULLNM": null, "A1_ST_PRE": null, "A1_ST_NAME": null, "A1_ST_TYPE": null, "A1_ST_SUF": null, "A2_FULLNM": null, "A2_ST_PRE": null, "A2_ST_NAME": null, "A2_ST_TYPE": null, "A2_ST_SUF": null, "ROUTE_NUM": null, "ROUTE_TYPE": 0, "LF_ADDR": null, "LT_ADDR": null, "RF_ADDR": null, "RT_ADDR": null, "ONEWAY": 0, "FROM_ELEV": 0, "TO_ELEV": 0, "PAVED": null, "PRIVATE": null, "GEO_SOURCE": 0, "NAME": "HONOAPIILANI HIGHWAY", "Shape_Leng": 162.07931909300001 }, "geometry": { "type": "MultiLineString", "coordinates": [ [ [ -156.59262, 20.80058 ], [ -156.59382, 20.80152 ] ] ] } },
{ "type": "Feature", "properties": { "FID_kau_ce": 0, "SEGMENTID": 0.0, "ST_FULLNM": null, "ST_PRE": null, "ST_NAME": null, "ST_TYPE": null, "ST_SUF": null, "A1_FULLNM": null, "A1_ST_PRE": null, "A1_ST_NAME": null, "A1_ST_TYPE": null, "A1_ST_SUF": null, "A2_FULLNM": null, "A2_ST_PRE": null, "A2_ST_NAME": null, "A2_ST_TYPE": null, "A2_ST_SUF": null, "ROUTE_NUM": null, "ROUTE_TYPE": 0, "LF_ADDR": null, "LT_ADDR": null, "RF_ADDR": null, "RT_ADDR": null, "ONEWAY": 0, "FROM_ELEV": 0, "TO_ELEV": 0, "PAVED": null, "PRIVATE": null, "GEO_SOURCE": 0, "NAME": "HONOAPIILANI HIGHWAY", "Shape_Leng": 26.358674581799999 }, "geometry": { "type": "MultiLineString", "coordinates": [ [ [ -156.59625, 20.80362 ], [ -156.59643, 20.80378 ] ] ] } },
{ "type": "Feature", "properties": { "FID_kau_ce": 0, "SEGMENTID": 0.0, "ST_FULLNM": null, "ST_PRE": null, "ST_NAME": null, "ST_TYPE": null, "ST_SUF": null, "A1_FULLNM": null, "A1_ST_PRE": null, "A1_ST_NAME": null, "A1_ST_TYPE": null, "A1_ST_SUF": null, "A2_FULLNM": null, "A2_ST_PRE": null, "A2_ST_NAME": null, "A2_ST_TYPE": null, "A2_ST_SUF": null, "ROUTE_NUM": null, "ROUTE_TYPE": 0, "LF_ADDR": null, "LT_ADDR": null, "RF_ADDR": null, "RT_ADDR": null, "ONEWAY": 0, "FROM_ELEV": 0, "TO_ELEV": 0, "PAVED": null, "PRIVATE": null, "GEO_SOURCE": 0, "NAME": "HONOAPIILANI HIGHWAY", "Shape_Leng": 83.915784713799994 }, "geometry": { "type": "MultiLineString", "coordinates": [ [ [ -156.59721, 20.80447 ], [ -156.59781, 20.80498 ] ] ] } },
{ "type": "Feature", "properties": { "FID_kau_ce": 0, "SEGMENTID": 0.0, "ST_FULLNM": null, "ST_PRE": null, "ST_NAME": null, "ST_TYPE": null, "ST_SUF": null, "A1_FULLNM": null, "A1_ST_PRE": null, "A1_ST_NAME": null, "A1_ST_TYPE": null, "A1_ST_SUF": null, "A2_FULLNM": null, "A2_ST_PRE": null, "A2_ST_NAME": null, "A2_ST_TYPE": null, "A2_ST_SUF": null, "ROUTE_NUM": null, "ROUTE_TYPE": 0, "LF_ADDR": null, "LT_ADDR": null, "RF_ADDR": null, "RT_ADDR": null, "ONEWAY": 0, "FROM_ELEV": 0, "TO_ELEV": 0, "PAVED": null, "PRIVATE": null, "GEO_SOURCE": 0, "NAME": "HONOAPIILANI HIGHWAY", "Shape_Leng": 70.979543785800004 }, "geometry": { "type": "MultiLineString", "coordinates": [ [ [ -156.60384, 20.80842 ], [ -156.60444, 20.80872 ] ] ] } },
{ "type": "Feature", "properties": { "FID_kau_ce": 0, "SEGMENTID": 0.0, "ST_FULLNM": null, "ST_PRE": null, "ST_NAME": null, "ST_TYPE": null, "ST_SUF": null, "A1_FULLNM": null, "A1_ST_PRE": null, "A1_ST_NAME": null, "A1_ST_TYPE": null, "A1_ST_SUF": null, "A2_FULLNM": null, "A2_ST_PRE": null, "A2_ST_NAME": null, "A2_ST_TYPE": null, "A2_ST_SUF": null, "ROUTE_NUM": null, "ROUTE_TYPE": 0, "LF_ADDR": null, "LT_ADDR": null, "RF_ADDR": null, "RT_ADDR": null, "ONEWAY": 0, "FROM_ELEV": 0, "TO_ELEV": 0, "PAVED": null, "PRIVATE": null, "GEO_SOURCE": 0, "NAME": "HONOAPIILANI HIGHWAY", "Shape_Leng": 114.344985791 }, "geometry": { "type": "MultiLineString", "coordinates": [ [ [ -156.60781, 20.81008 ], [ -156.60889, 20.81029 ] ] ] } },
{ "type": "Feature", "properties": { "FID_kau_ce": 0, "SEGMENTID": 0.0, "ST_FULLNM": null, "ST_PRE": null, "ST_NAME": null, "ST_TYPE": null, "ST_SUF": null, "A1_FULLNM": null, "A1_ST_PRE": null, "A1_ST_NAME": null, "A1_ST_TYPE": null, "A1_ST_SUF": null, "A2_FULLNM": null, "A2_ST_PRE": null, "A2_ST_NAME": null, "A2_ST_TYPE": null, "A2_ST_SUF": null, "ROUTE_NUM": null, "ROUTE_TYPE": 0, "LF_ADDR": null, "LT_ADDR": null, "RF_ADDR": null, "RT_ADDR": null, "ONEWAY": 0, "FROM_ELEV": 0, "TO_ELEV": 0, "PAVED": null, "PRIVATE": null, "GEO_SOURCE": 0, "NAME": "HONOAPIILANI HIGHWAY", "Shape_Leng": 370.886267777 }, "geometry": { "type": "MultiLineString", "coordinates": [ [ [ -156.60928, 20.81034 ], [ -156.61284, 20.81041 ] ] ] } },
{ "type": "Feature", "properties": { "FID_kau_ce": 0, "SEGMENTID": 0.0, "ST_FULLNM": null, "ST_PRE": null, "ST_NAME": null, "ST_TYPE": null, "ST_SUF": null, "A1_FULLNM": null, "A1_ST_PRE": null, "A1_ST_NAME": null, "A1_ST_TYPE": null, "A1_ST_SUF": null, "A2_FULLNM": null, "A2_ST_PRE": null, "A2_ST_NAME": null, "A2_ST_TYPE": null, "A2_ST_SUF": null, "ROUTE_NUM": null, "ROUTE_TYPE": 0, "LF_ADDR": null, "LT_ADDR": null, "RF_ADDR": null, "RT_ADDR": null, "ONEWAY": 0, "FROM_ELEV": 0, "TO_ELEV": 0, "PAVED": null, "PRIVATE": null, "GEO_SOURCE": 0, "NAME": "HONOAPIILANI HIGHWAY", "Shape_Leng": 340.02135703599998 }, "geometry": { "type": "MultiLineString", "coordinates": [ [ [ -156.62885, 20.81914 ], [ -156.62998, 20.82202 ] ] ] } },
{ "type": "Feature", "properties": { "FID_kau_ce": 0, "SEGMENTID": 0.0, "ST_FULLNM": null, "ST_PRE": null, "ST_NAME": null, "ST_TYPE": null, "ST_SUF": null, "A1_FULLNM": null, "A1_ST_PRE": null, "A1_ST_NAME": null, "A1_ST_TYPE": null, "A1_ST_SUF": null, "A2_FULLNM": null, "A2_ST_PRE": null, "A2_ST_NAME": null, "A2_ST_TYPE": null, "A2_ST_SUF": null, "ROUTE_NUM": null, "ROUTE_TYPE": 0, "LF_ADDR": null, "LT_ADDR": null, "RF_ADDR": null, "RT_ADDR": null, "ONEWAY": 0, "FROM_ELEV": 0, "TO_ELEV": 0, "PAVED": null, "PRIVATE": null, "GEO_SOURCE": 0, "NAME": "HONOAPIILANI HIGHWAY", "Shape_Leng": 356.06700399200002 }, "geometry": { "type": "MultiLineString", "coordinates": [ [ [ -156.63015, 20.82237 ], [ -156.63186, 20.82514 ] ] ] } },
{ "type": "Feature", "properties": { "FID_kau_ce": 0, "SEGMENTID": 0.0, "ST_FULLNM": null, "ST_PRE": null, "ST_NAME": null, "ST_TYPE": null, "ST_SUF": null, "A1_FULLNM": null, "A1_ST_PRE": null, "A1_ST_NAME": null, "A1_ST_TYPE": null, "A1_ST_SUF": null, "A2_FULLNM": null, "A2_ST_PRE": null, "A2_ST_NAME": null, "A2_ST_TYPE": null, "A2_ST_SUF": null, "ROUTE_NUM": null, "ROUTE_TYPE": 0, "LF_ADDR": null, "LT_ADDR": null, "RF_ADDR": null, "RT_ADDR": null, "ONEWAY": 0, "FROM_ELEV": 0, "TO_ELEV": 0, "PAVED": null, "PRIVATE": null, "GEO_SOURCE": 0, "NAME": "HONOAPIILANI HIGHWAY", "Shape_Leng": 114.16678610300001 }, "geometry": { "type": "MultiLineString", "coordinates": [ [ [ -156.63206, 20.82537 ], [ -156.63276, 20.82616 ] ] ] } },
{ "type": "Feature", "properties": { "FID_kau_ce": 0, "SEGMENTID": 0.0, "ST_FULLNM": null, "ST_PRE": null, "ST_NAME": null, "ST_TYPE": null, "ST_SUF": null, "A1_FULLNM": null, "A1_ST_PRE": null, "A1_ST_NAME": null, "A1_ST_TYPE": null, "A1_ST_SUF": null, "A2_FULLNM": null, "A2_ST_PRE": null, "A2_ST_NAME": null, "A2_ST_TYPE": null, "A2_ST_SUF": null, "ROUTE_NUM": null, "ROUTE_TYPE": 0, "LF_ADDR": null, "LT_ADDR": null, "RF_ADDR": null, "RT_ADDR": null, "ONEWAY": 0, "FROM_ELEV": 0, "TO_ELEV": 0, "PAVED": null, "PRIVATE": null, "GEO_SOURCE": 0, "NAME": "HONOAPIILANI HIGHWAY", "Shape_Leng": 153.892050498 }, "geometry": { "type": "MultiLineString", "coordinates": [ [ [ -156.63283, 20.82623 ], [ -156.63387, 20.82722 ] ] ] } },
{ "type": "Feature", "properties": { "FID_kau_ce": 0, "SEGMENTID": 0.0, "ST_FULLNM": null, "ST_PRE": null, "ST_NAME": null, "ST_TYPE": null, "ST_SUF": null, "A1_FULLNM": null, "A1_ST_PRE": null, "A1_ST_NAME": null, "A1_ST_TYPE": null, "A1_ST_SUF": null, "A2_FULLNM": null, "A2_ST_PRE": null, "A2_ST_NAME": null, "A2_ST_TYPE": null, "A2_ST_SUF": null, "ROUTE_NUM": null, "ROUTE_TYPE": 0, "LF_ADDR": null, "LT_ADDR": null, "RF_ADDR": null, "RT_ADDR": null, "ONEWAY": 0, "FROM_ELEV": 0, "TO_ELEV": 0, "PAVED": null, "PRIVATE": null, "GEO_SOURCE": 0, "NAME": "HONOAPIILANI HIGHWAY", "Shape_Leng": 12.613779681500001 }, "geometry": { "type": "MultiLineString", "coordinates": [ [ [ -156.63606, 20.8291 ], [ -156.63615, 20.82918 ] ] ] } },
{ "type": "Feature", "properties": { "FID_kau_ce": 0, "SEGMENTID": 0.0, "ST_FULLNM": null, "ST_PRE": null, "ST_NAME": null, "ST_TYPE": null, "ST_SUF": null, "A1_FULLNM": null, "A1_ST_PRE": null, "A1_ST_NAME": null, "A1_ST_TYPE": null, "A1_ST_SUF": null, "A2_FULLNM": null, "A2_ST_PRE": null, "A2_ST_NAME": null, "A2_ST_TYPE": null, "A2_ST_SUF": null, "ROUTE_NUM": null, "ROUTE_TYPE": 0, "LF_ADDR": null, "LT_ADDR": null, "RF_ADDR": null, "RT_ADDR": null, "ONEWAY": 0, "FROM_ELEV": 0, "TO_ELEV": 0, "PAVED": null, "PRIVATE": null, "GEO_SOURCE": 0, "NAME": "HONOAPIILANI HIGHWAY", "Shape_Leng": 523.88436729199998 }, "geometry": { "type": "MultiLineString", "coordinates": [ [ [ -156.64041, 20.83268 ], [ -156.64517, 20.83418 ] ] ] } },
{ "type": "Feature", "properties": { "FID_kau_ce": 0, "SEGMENTID": 0.0, "ST_FULLNM": null, "ST_PRE": null, "ST_NAME": null, "ST_TYPE": null, "ST_SUF": null, "A1_FULLNM": null, "A1_ST_PRE": null, "A1_ST_NAME": null, "A1_ST_TYPE": null, "A1_ST_SUF": null, "A2_FULLNM": null, "A2_ST_PRE": null, "A2_ST_NAME": null, "A2_ST_TYPE": null, "A2_ST_SUF": null, "ROUTE_NUM": null, "ROUTE_TYPE": 0, "LF_ADDR": null, "LT_ADDR": null, "RF_ADDR": null, "RT_ADDR": null, "ONEWAY": 0, "FROM_ELEV": 0, "TO_ELEV": 0, "PAVED": null, "PRIVATE": null, "GEO_SOURCE": 0, "NAME": "HONOAPIILANI HIGHWAY", "Shape_Leng": 93.847754234500002 }, "geometry": { "type": "MultiLineString", "coordinates": [ [ [ -156.64972, 20.83862 ], [ -156.65017, 20.83935 ] ] ] } },
{ "type": "Feature", "properties": { "FID_kau_ce": 0, "SEGMENTID": 0.0, "ST_FULLNM": null, "ST_PRE": null, "ST_NAME": null, "ST_TYPE": null, "ST_SUF": null, "A1_FULLNM": null, "A1_ST_PRE": null, "A1_ST_NAME": null, "A1_ST_TYPE": null, "A1_ST_SUF": null, "A2_FULLNM": null, "A2_ST_PRE": null, "A2_ST_NAME": null, "A2_ST_TYPE": null, "A2_ST_SUF": null, "ROUTE_NUM": null, "ROUTE_TYPE": 0, "LF_ADDR": null, "LT_ADDR": null, "RF_ADDR": null, "RT_ADDR": null, "ONEWAY": 0, "FROM_ELEV": 0, "TO_ELEV": 0, "PAVED": null, "PRIVATE": null, "GEO_SOURCE": 0, "NAME": "HONOAPIILANI HIGHWAY", "Shape_Leng": 7.6900972412800002 }, "geometry": { "type": "MultiLineString", "coordinates": [ [ [ -156.65072, 20.84026 ], [ -156.65076, 20.84032 ] ] ] } },
{ "type": "Feature", "properties": { "FID_kau_ce": 0, "SEGMENTID": 0.0, "ST_FULLNM": null, "ST_PRE": null, "ST_NAME": null, "ST_TYPE": null, "ST_SUF": null, "A1_FULLNM": null, "A1_ST_PRE": null, "A1_ST_NAME": null, "A1_ST_TYPE": null, "A1_ST_SUF": null, "A2_FULLNM": null, "A2_ST_PRE": null, "A2_ST_NAME": null, "A2_ST_TYPE": null, "A2_ST_SUF": null, "ROUTE_NUM": null, "ROUTE_TYPE": 0, "LF_ADDR": null, "LT_ADDR": null, "RF_ADDR": null, "RT_ADDR": null, "ONEWAY": 0, "FROM_ELEV": 0, "TO_ELEV": 0, "PAVED": null, "PRIVATE": null, "GEO_SOURCE": 0, "NAME": "HONOAPIILANI HIGHWAY", "Shape_Leng": 6.4805110360100002 }, "geometry": { "type": "MultiLineString", "coordinates": [ [ [ -156.65155, 20.84162 ], [ -156.65158, 20.84167 ] ] ] } },
{ "type": "Feature", "properties": { "FID_kau_ce": 0, "SEGMENTID": 0.0, "ST_FULLNM": null, "ST_PRE": null, "ST_NAME": null, "ST_TYPE": null, "ST_SUF": null, "A1_FULLNM": null, "A1_ST_PRE": null, "A1_ST_NAME": null, "A1_ST_TYPE": null, "A1_ST_SUF": null, "A2_FULLNM": null, "A2_ST_PRE": null, "A2_ST_NAME": null, "A2_ST_TYPE": null, "A2_ST_SUF": null, "ROUTE_NUM": null, "ROUTE_TYPE": 0, "LF_ADDR": null, "LT_ADDR": null, "RF_ADDR": null, "RT_ADDR": null, "ONEWAY": 0, "FROM_ELEV": 0, "TO_ELEV": 0, "PAVED": null, "PRIVATE": null, "GEO_SOURCE": 0, "NAME": "HONOAPIILANI HIGHWAY", "Shape_Leng": 265.14260629299997 }, "geometry": { "type": "MultiLineString", "coordinates": [ [ [ -156.65354, 20.84476 ], [ -156.65501, 20.84671 ] ] ] } },
{ "type": "Feature", "properties": { "FID_kau_ce": 0, "SEGMENTID": 0.0, "ST_FULLNM": null, "ST_PRE": null, "ST_NAME": null, "ST_TYPE": null, "ST_SUF": null, "A1_FULLNM": null, "A1_ST_PRE": null, "A1_ST_NAME": null, "A1_ST_TYPE": null, "A1_ST_SUF": null, "A2_FULLNM": null, "A2_ST_PRE": null, "A2_ST_NAME": null, "A2_ST_TYPE": null, "A2_ST_SUF": null, "ROUTE_NUM": null, "ROUTE_TYPE": 0, "LF_ADDR": null, "LT_ADDR": null, "RF_ADDR": null, "RT_ADDR": null, "ONEWAY": 0, "FROM_ELEV": 0, "TO_ELEV": 0, "PAVED": null, "PRIVATE": null, "GEO_SOURCE": 0, "NAME": "HONOAPIILANI HIGHWAY", "Shape_Leng": 120.677738976 }, "geometry": { "type": "MultiLineString", "coordinates": [ [ [ -156.65524, 20.84699 ], [ -156.65597, 20.84783 ] ] ] } },
{ "type": "Feature", "properties": { "FID_kau_ce": 0, "SEGMENTID": 0.0, "ST_FULLNM": null, "ST_PRE": null, "ST_NAME": null, "ST_TYPE": null, "ST_SUF": null, "A1_FULLNM": null, "A1_ST_PRE": null, "A1_ST_NAME": null, "A1_ST_TYPE": null, "A1_ST_SUF": null, "A2_FULLNM": null, "A2_ST_PRE": null, "A2_ST_NAME": null, "A2_ST_TYPE": null, "A2_ST_SUF": null, "ROUTE_NUM": null, "ROUTE_TYPE": 0, "LF_ADDR": null, "LT_ADDR": null, "RF_ADDR": null, "RT_ADDR": null, "ONEWAY": 0, "FROM_ELEV": 0, "TO_ELEV": 0, "PAVED": null, "PRIVATE": null, "GEO_SOURCE": 0, "NAME": "HONOAPIILANI HIGHWAY", "Shape_Leng": 411.56356323 }, "geometry": { "type": "MultiLineString", "coordinates": [ [ [ -156.65656, 20.8485 ], [ -156.65938, 20.85109 ] ] ] } },
{ "type": "Feature", "properties": { "FID_kau_ce": 0, "SEGMENTID": 0.0, "ST_FULLNM": null, "ST_PRE": null, "ST_NAME": null, "ST_TYPE": null, "ST_SUF": null, "A1_FULLNM": null, "A1_ST_PRE": null, "A1_ST_NAME": null, "A1_ST_TYPE": null, "A1_ST_SUF": null, "A2_FULLNM": null, "A2_ST_PRE": null, "A2_ST_NAME": null, "A2_ST_TYPE": null, "A2_ST_SUF": null, "ROUTE_NUM": null, "ROUTE_TYPE": 0, "LF_ADDR": null, "LT_ADDR": null, "RF_ADDR": null, "RT_ADDR": null, "ONEWAY": 0, "FROM_ELEV": 0, "TO_ELEV": 0, "PAVED": null, "PRIVATE": null, "GEO_SOURCE": 0, "NAME": "HONOAPIILANI HIGHWAY", "Shape_Leng": 266.32459223699999 }, "geometry": { "type": "MultiLineString", "coordinates": [ [ [ -156.65939, 20.8511 ], [ -156.66128, 20.85271 ] ] ] } },
{ "type": "Feature", "properties": { "FID_kau_ce": 0, "SEGMENTID": 0.0, "ST_FULLNM": null, "ST_PRE": null, "ST_NAME": null, "ST_TYPE": null, "ST_SUF": null, "A1_FULLNM": null, "A1_ST_PRE": null, "A1_ST_NAME": null, "A1_ST_TYPE": null, "A1_ST_SUF": null, "A2_FULLNM": null, "A2_ST_PRE": null, "A2_ST_NAME": null, "A2_ST_TYPE": null, "A2_ST_SUF": null, "ROUTE_NUM": null, "ROUTE_TYPE": 0, "LF_ADDR": null, "LT_ADDR": null, "RF_ADDR": null, "RT_ADDR": null, "ONEWAY": 0, "FROM_ELEV": 0, "TO_ELEV": 0, "PAVED": null, "PRIVATE": null, "GEO_SOURCE": 0, "NAME": "HONOAPIILANI HIGHWAY", "Shape_Leng": 117.782862026 }, "geometry": { "type": "MultiLineString", "coordinates": [ [ [ -156.66212, 20.8536 ], [ -156.66281, 20.85445 ] ] ] } },
{ "type": "Feature", "properties": { "FID_kau_ce": 0, "SEGMENTID": 0.0, "ST_FULLNM": null, "ST_PRE": null, "ST_NAME": null, "ST_TYPE": null, "ST_SUF": null, "A1_FULLNM": null, "A1_ST_PRE": null, "A1_ST_NAME": null, "A1_ST_TYPE": null, "A1_ST_SUF": null, "A2_FULLNM": null, "A2_ST_PRE": null, "A2_ST_NAME": null, "A2_ST_TYPE": null, "A2_ST_SUF": null, "ROUTE_NUM": null, "ROUTE_TYPE": 0, "LF_ADDR": null, "LT_ADDR": null, "RF_ADDR": null, "RT_ADDR": null, "ONEWAY": 0, "FROM_ELEV": 0, "TO_ELEV": 0, "PAVED": null, "PRIVATE": null, "GEO_SOURCE": 0, "NAME": "HONOAPIILANI HIGHWAY", "Shape_Leng": 1.91752420062 }, "geometry": { "type": "MultiLineString", "coordinates": [ [ [ -156.66293, 20.85462 ], [ -156.66294, 20.85463 ] ] ] } },
{ "type": "Feature", "properties": { "FID_kau_ce": 0, "SEGMENTID": 0.0, "ST_FULLNM": null, "ST_PRE": null, "ST_NAME": null, "ST_TYPE": null, "ST_SUF": null, "A1_FULLNM": null, "A1_ST_PRE": null, "A1_ST_NAME": null, "A1_ST_TYPE": null, "A1_ST_SUF": null, "A2_FULLNM": null, "A2_ST_PRE": null, "A2_ST_NAME": null, "A2_ST_TYPE": null, "A2_ST_SUF": null, "ROUTE_NUM": null, "ROUTE_TYPE": 0, "LF_ADDR": null, "LT_ADDR": null, "RF_ADDR": null, "RT_ADDR": null, "ONEWAY": 0, "FROM_ELEV": 0, "TO_ELEV": 0, "PAVED": null, "PRIVATE": null, "GEO_SOURCE": 0, "NAME": "HONOAPIILANI HIGHWAY", "Shape_Leng": 182.88078030299999 }, "geometry": { "type": "MultiLineString", "coordinates": [ [ [ -156.68491, 20.8944 ], [ -156.68486, 20.89605 ] ] ] } },
{ "type": "Feature", "properties": { "FID_kau_ce": 0, "SEGMENTID": 0.0, "ST_FULLNM": null, "ST_PRE": null, "ST_NAME": null, "ST_TYPE": null, "ST_SUF": null, "A1_FULLNM": null, "A1_ST_PRE": null, "A1_ST_NAME": null, "A1_ST_TYPE": null, "A1_ST_SUF": null, "A2_FULLNM": null, "A2_ST_PRE": null, "A2_ST_NAME": null, "A2_ST_TYPE": null, "A2_ST_SUF": null, "ROUTE_NUM": null, "ROUTE_TYPE": 0, "LF_ADDR": null, "LT_ADDR": null, "RF_ADDR": null, "RT_ADDR": null, "ONEWAY": 0, "FROM_ELEV": 0, "TO_ELEV": 0, "PAVED": null, "PRIVATE": null, "GEO_SOURCE": 0, "NAME": "HONOAPIILANI HIGHWAY", "Shape_Leng": 202.03258514800001 }, "geometry": { "type": "MultiLineString", "coordinates": [ [ [ -156.68466, 20.90057 ], [ -156.68466, 20.9024 ] ] ] } },
{ "type": "Feature", "properties": { "FID_kau_ce": 0, "SEGMENTID": 0.0, "ST_FULLNM": null, "ST_PRE": null, "ST_NAME": null, "ST_TYPE": null, "ST_SUF": null, "A1_FULLNM": null, "A1_ST_PRE": null, "A1_ST_NAME": null, "A1_ST_TYPE": null, "A1_ST_SUF": null, "A2_FULLNM": null, "A2_ST_PRE": null, "A2_ST_NAME": null, "A2_ST_TYPE": null, "A2_ST_SUF": null, "ROUTE_NUM": null, "ROUTE_TYPE": 0, "LF_ADDR": null, "LT_ADDR": null, "RF_ADDR": null, "RT_ADDR": null, "ONEWAY": 0, "FROM_ELEV": 0, "TO_ELEV": 0, "PAVED": null, "PRIVATE": null, "GEO_SOURCE": 0, "NAME": "HONOAPIILANI HIGHWAY", "Shape_Leng": 42.0863781762 }, "geometry": { "type": "MultiLineString", "coordinates": [ [ [ -156.68517, 20.90371 ], [ -156.68536, 20.90405 ] ] ] } },
{ "type": "Feature", "properties": { "FID_kau_ce": 0, "SEGMENTID": 0.0, "ST_FULLNM": null, "ST_PRE": null, "ST_NAME": null, "ST_TYPE": null, "ST_SUF": null, "A1_FULLNM": null, "A1_ST_PRE": null, "A1_ST_NAME": null, "A1_ST_TYPE": null, "A1_ST_SUF": null, "A2_FULLNM": null, "A2_ST_PRE": null, "A2_ST_NAME": null, "A2_ST_TYPE": null, "A2_ST_SUF": null, "ROUTE_NUM": null, "ROUTE_TYPE": 0, "LF_ADDR": null, "LT_ADDR": null, "RF_ADDR": null, "RT_ADDR": null, "ONEWAY": 0, "FROM_ELEV": 0, "TO_ELEV": 0, "PAVED": null, "PRIVATE": null, "GEO_SOURCE": 0, "NAME": "HONOAPIILANI HIGHWAY", "Shape_Leng": 1.64752076667 }, "geometry": { "type": "MultiLineString", "coordinates": [ [ [ -156.68546, 20.90421 ], [ -156.68547, 20.90422 ] ] ] } },
{ "type": "Feature", "properties": { "FID_kau_ce": 0, "SEGMENTID": 0.0, "ST_FULLNM": null, "ST_PRE": null, "ST_NAME": null, "ST_TYPE": null, "ST_SUF": null, "A1_FULLNM": null, "A1_ST_PRE": null, "A1_ST_NAME": null, "A1_ST_TYPE": null, "A1_ST_SUF": null, "A2_FULLNM": null, "A2_ST_PRE": null, "A2_ST_NAME": null, "A2_ST_TYPE": null, "A2_ST_SUF": null, "ROUTE_NUM": null, "ROUTE_TYPE": 0, "LF_ADDR": null, "LT_ADDR": null, "RF_ADDR": null, "RT_ADDR": null, "ONEWAY": 0, "FROM_ELEV": 0, "TO_ELEV": 0, "PAVED": null, "PRIVATE": null, "GEO_SOURCE": 0, "NAME": "HONOAPIILANI HIGHWAY", "Shape_Leng": 43.020403932999997 }, "geometry": { "type": "MultiLineString", "coordinates": [ [ [ -156.68719, 20.90714 ], [ -156.68736, 20.90749 ] ] ] } },
{ "type": "Feature", "properties": { "FID_kau_ce": 0, "SEGMENTID": 0.0, "ST_FULLNM": null, "ST_PRE": null, "ST_NAME": null, "ST_TYPE": null, "ST_SUF": null, "A1_FULLNM": null, "A1_ST_PRE": null, "A1_ST_NAME": null, "A1_ST_TYPE": null, "A1_ST_SUF": null, "A2_FULLNM": null, "A2_ST_PRE": null, "A2_ST_NAME": null, "A2_ST_TYPE": null, "A2_ST_SUF": null, "ROUTE_NUM": null, "ROUTE_TYPE": 0, "LF_ADDR": null, "LT_ADDR": null, "RF_ADDR": null, "RT_ADDR": null, "ONEWAY": 0, "FROM_ELEV": 0, "TO_ELEV": 0, "PAVED": null, "PRIVATE": null, "GEO_SOURCE": 0, "NAME": "HONOAPIILANI HIGHWAY", "Shape_Leng": 9.0014822819399996 }, "geometry": { "type": "MultiLineString", "coordinates": [ [ [ -156.68785, 20.90865 ], [ -156.68788, 20.90873 ] ] ] } },
{ "type": "Feature", "properties": { "FID_kau_ce": 0, "SEGMENTID": 0.0, "ST_FULLNM": null, "ST_PRE": null, "ST_NAME": null, "ST_TYPE": null, "ST_SUF": null, "A1_FULLNM": null, "A1_ST_PRE": null, "A1_ST_NAME": null, "A1_ST_TYPE": null, "A1_ST_SUF": null, "A2_FULLNM": null, "A2_ST_PRE": null, "A2_ST_NAME": null, "A2_ST_TYPE": null, "A2_ST_SUF": null, "ROUTE_NUM": null, "ROUTE_TYPE": 0, "LF_ADDR": null, "LT_ADDR": null, "RF_ADDR": null, "RT_ADDR": null, "ONEWAY": 0, "FROM_ELEV": 0, "TO_ELEV": 0, "PAVED": null, "PRIVATE": null, "GEO_SOURCE": 0, "NAME": "KAHULUI BEACH ROAD", "Shape_Leng": 3.4152748598199998 }, "geometry": { "type": "MultiLineString", "coordinates": [ [ [ -156.48103, 20.89948 ], [ -156.48104, 20.89951 ] ] ] } },
{ "type": "Feature", "properties": { "FID_kau_ce": 0, "SEGMENTID": 0.0, "ST_FULLNM": null, "ST_PRE": null, "ST_NAME": null, "ST_TYPE": null, "ST_SUF": null, "A1_FULLNM": null, "A1_ST_PRE": null, "A1_ST_NAME": null, "A1_ST_TYPE": null, "A1_ST_SUF": null, "A2_FULLNM": null, "A2_ST_PRE": null, "A2_ST_NAME": null, "A2_ST_TYPE": null, "A2_ST_SUF": null, "ROUTE_NUM": null, "ROUTE_TYPE": 0, "LF_ADDR": null, "LT_ADDR": null, "RF_ADDR": null, "RT_ADDR": null, "ONEWAY": 0, "FROM_ELEV": 0, "TO_ELEV": 0, "PAVED": null, "PRIVATE": null, "GEO_SOURCE": 0, "NAME": "KAHULUI BEACH ROAD", "Shape_Leng": 5.3132858243500003 }, "geometry": { "type": "MultiLineString", "coordinates": [ [ [ -156.48104, 20.89952 ], [ -156.48106, 20.89957 ] ] ] } },
{ "type": "Feature", "properties": { "FID_kau_ce": 0, "SEGMENTID": 0.0, "ST_FULLNM": null, "ST_PRE": null, "ST_NAME": null, "ST_TYPE": null, "ST_SUF": null, "A1_FULLNM": null, "A1_ST_PRE": null, "A1_ST_NAME": null, "A1_ST_TYPE": null, "A1_ST_SUF": null, "A2_FULLNM": null, "A2_ST_PRE": null, "A2_ST_NAME": null, "A2_ST_TYPE": null, "A2_ST_SUF": null, "ROUTE_NUM": null, "ROUTE_TYPE": 0, "LF_ADDR": null, "LT_ADDR": null, "RF_ADDR": null, "RT_ADDR": null, "ONEWAY": 0, "FROM_ELEV": 0, "TO_ELEV": 0, "PAVED": null, "PRIVATE": null, "GEO_SOURCE": 0, "NAME": "KAHULUI BEACH ROAD", "Shape_Leng": 13.064550666700001 }, "geometry": { "type": "MultiLineString", "coordinates": [ [ [ -156.48127, 20.90015 ], [ -156.48131, 20.90026 ] ] ] } },
{ "type": "Feature", "properties": { "FID_kau_ce": 0, "SEGMENTID": 0.0, "ST_FULLNM": null, "ST_PRE": null, "ST_NAME": null, "ST_TYPE": null, "ST_SUF": null, "A1_FULLNM": null, "A1_ST_PRE": null, "A1_ST_NAME": null, "A1_ST_TYPE": null, "A1_ST_SUF": null, "A2_FULLNM": null, "A2_ST_PRE": null, "A2_ST_NAME": null, "A2_ST_TYPE": null, "A2_ST_SUF": null, "ROUTE_NUM": null, "ROUTE_TYPE": 0, "LF_ADDR": null, "LT_ADDR": null, "RF_ADDR": null, "RT_ADDR": null, "ONEWAY": 0, "FROM_ELEV": 0, "TO_ELEV": 0, "PAVED": null, "PRIVATE": null, "GEO_SOURCE": 0, "NAME": "SOUTH KIHEI ROAD", "Shape_Leng": 147.88462621100001 }, "geometry": { "type": "MultiLineString", "coordinates": [ [ [ -156.4511, 20.72936 ], [ -156.45013, 20.72838 ] ] ] } },
{ "type": "Feature", "properties": { "FID_kau_ce": 0, "SEGMENTID": 0.0, "ST_FULLNM": null, "ST_PRE": null, "ST_NAME": null, "ST_TYPE": null, "ST_SUF": null, "A1_FULLNM": null, "A1_ST_PRE": null, "A1_ST_NAME": null, "A1_ST_TYPE": null, "A1_ST_SUF": null, "A2_FULLNM": null, "A2_ST_PRE": null, "A2_ST_NAME": null, "A2_ST_TYPE": null, "A2_ST_SUF": null, "ROUTE_NUM": null, "ROUTE_TYPE": 0, "LF_ADDR": null, "LT_ADDR": null, "RF_ADDR": null, "RT_ADDR": null, "ONEWAY": 0, "FROM_ELEV": 0, "TO_ELEV": 0, "PAVED": null, "PRIVATE": null, "GEO_SOURCE": 0, "NAME": "SOUTH KIHEI ROAD", "Shape_Leng": 128.57013415899999 }, "geometry": { "type": "MultiLineString", "coordinates": [ [ [ -156.4586, 20.76752 ], [ -156.45848, 20.76637 ] ] ] } },
{ "type": "Feature", "properties": { "FID_kau_ce": 0, "SEGMENTID": 0.0, "ST_FULLNM": null, "ST_PRE": null, "ST_NAME": null, "ST_TYPE": null, "ST_SUF": null, "A1_FULLNM": null, "A1_ST_PRE": null, "A1_ST_NAME": null, "A1_ST_TYPE": null, "A1_ST_SUF": null, "A2_FULLNM": null, "A2_ST_PRE": null, "A2_ST_NAME": null, "A2_ST_TYPE": null, "A2_ST_SUF": null, "ROUTE_NUM": null, "ROUTE_TYPE": 0, "LF_ADDR": null, "LT_ADDR": null, "RF_ADDR": null, "RT_ADDR": null, "ONEWAY": 0, "FROM_ELEV": 0, "TO_ELEV": 0, "PAVED": null, "PRIVATE": null, "GEO_SOURCE": 0, "NAME": "SOUTH KIHEI ROAD", "Shape_Leng": 506.796112768 }, "geometry": { "type": "MultiLineString", "coordinates": [ [ [ -156.45977, 20.77245 ], [ -156.45866, 20.768 ] ] ] } },
{ "type": "Feature", "properties": { "FID_kau_ce": 0, "SEGMENTID": 0.0, "ST_FULLNM": null, "ST_PRE": null, "ST_NAME": null, "ST_TYPE": null, "ST_SUF": null, "A1_FULLNM": null, "A1_ST_PRE": null, "A1_ST_NAME": null, "A1_ST_TYPE": null, "A1_ST_SUF": null, "A2_FULLNM": null, "A2_ST_PRE": null, "A2_ST_NAME": null, "A2_ST_TYPE": null, "A2_ST_SUF": null, "ROUTE_NUM": null, "ROUTE_TYPE": 0, "LF_ADDR": null, "LT_ADDR": null, "RF_ADDR": null, "RT_ADDR": null, "ONEWAY": 0, "FROM_ELEV": 0, "TO_ELEV": 0, "PAVED": null, "PRIVATE": null, "GEO_SOURCE": 0, "NAME": "SOUTH KIHEI ROAD", "Shape_Leng": 210.16517427900001 }, "geometry": { "type": "MultiLineString", "coordinates": [ [ [ -156.46215, 20.78061 ], [ -156.46111, 20.77899 ] ] ] } },
{ "type": "Feature", "properties": { "FID_kau_ce": 0, "SEGMENTID": 0.0, "ST_FULLNM": null, "ST_PRE": null, "ST_NAME": null, "ST_TYPE": null, "ST_SUF": null, "A1_FULLNM": null, "A1_ST_PRE": null, "A1_ST_NAME": null, "A1_ST_TYPE": null, "A1_ST_SUF": null, "A2_FULLNM": null, "A2_ST_PRE": null, "A2_ST_NAME": null, "A2_ST_TYPE": null, "A2_ST_SUF": null, "ROUTE_NUM": null, "ROUTE_TYPE": 0, "LF_ADDR": null, "LT_ADDR": null, "RF_ADDR": null, "RT_ADDR": null, "ONEWAY": 0, "FROM_ELEV": 0, "TO_ELEV": 0, "PAVED": null, "PRIVATE": null, "GEO_SOURCE": 0, "NAME": "SOUTH KIHEI ROAD", "Shape_Leng": 18.815390590700002 }, "geometry": { "type": "MultiLineString", "coordinates": [ [ [ -156.46239, 20.78099 ], [ -156.4623, 20.78084 ] ] ] } },
{ "type": "Feature", "properties": { "FID_kau_ce": 0, "SEGMENTID": 0.0, "ST_FULLNM": null, "ST_PRE": null, "ST_NAME": null, "ST_TYPE": null, "ST_SUF": null, "A1_FULLNM": null, "A1_ST_PRE": null, "A1_ST_NAME": null, "A1_ST_TYPE": null, "A1_ST_SUF": null, "A2_FULLNM": null, "A2_ST_PRE": null, "A2_ST_NAME": null, "A2_ST_TYPE": null, "A2_ST_SUF": null, "ROUTE_NUM": null, "ROUTE_TYPE": 0, "LF_ADDR": null, "LT_ADDR": null, "RF_ADDR": null, "RT_ADDR": null, "ONEWAY": 0, "FROM_ELEV": 0, "TO_ELEV": 0, "PAVED": null, "PRIVATE": null, "GEO_SOURCE": 0, "NAME": "HANA HIGHWAY 36", "Shape_Leng": 13.4461967032 }, "geometry": { "type": "MultiLineString", "coordinates": [ [ [ -156.36432, 20.93056 ], [ -156.36419, 20.93059 ] ] ] } },
{ "type": "Feature", "properties": { "FID_kau_ce": 0, "SEGMENTID": 0.0, "ST_FULLNM": null, "ST_PRE": null, "ST_NAME": null, "ST_TYPE": null, "ST_SUF": null, "A1_FULLNM": null, "A1_ST_PRE": null, "A1_ST_NAME": null, "A1_ST_TYPE": null, "A1_ST_SUF": null, "A2_FULLNM": null, "A2_ST_PRE": null, "A2_ST_NAME": null, "A2_ST_TYPE": null, "A2_ST_SUF": null, "ROUTE_NUM": null, "ROUTE_TYPE": 0, "LF_ADDR": null, "LT_ADDR": null, "RF_ADDR": null, "RT_ADDR": null, "ONEWAY": 0, "FROM_ELEV": 0, "TO_ELEV": 0, "PAVED": null, "PRIVATE": null, "GEO_SOURCE": 0, "NAME": "KAM HWY", "Shape_Leng": 157.973173852 }, "geometry": { "type": "MultiLineString", "coordinates": [ [ [ -158.03982, 21.6743 ], [ -158.0409, 21.67329 ] ] ] } },
{ "type": "Feature", "properties": { "FID_kau_ce": 0, "SEGMENTID": 0.0, "ST_FULLNM": null, "ST_PRE": null, "ST_NAME": null, "ST_TYPE": null, "ST_SUF": null, "A1_FULLNM": null, "A1_ST_PRE": null, "A1_ST_NAME": null, "A1_ST_TYPE": null, "A1_ST_SUF": null, "A2_FULLNM": null, "A2_ST_PRE": null, "A2_ST_NAME": null, "A2_ST_TYPE": null, "A2_ST_SUF": null, "ROUTE_NUM": null, "ROUTE_TYPE": 0, "LF_ADDR": null, "LT_ADDR": null, "RF_ADDR": null, "RT_ADDR": null, "ONEWAY": 0, "FROM_ELEV": 0, "TO_ELEV": 0, "PAVED": null, "PRIVATE": null, "GEO_SOURCE": 0, "NAME": "KAM HWY", "Shape_Leng": 64.374732047600006 }, "geometry": { "type": "MultiLineString", "coordinates": [ [ [ -158.0409, 21.67329 ], [ -158.04127, 21.67295 ] ], [ [ -158.05469, 21.66084 ], [ -158.05477, 21.66077 ] ] ] } },
{ "type": "Feature", "properties": { "FID_kau_ce": 0, "SEGMENTID": 0.0, "ST_FULLNM": null, "ST_PRE": null, "ST_NAME": null, "ST_TYPE": null, "ST_SUF": null, "A1_FULLNM": null, "A1_ST_PRE": null, "A1_ST_NAME": null, "A1_ST_TYPE": null, "A1_ST_SUF": null, "A2_FULLNM": null, "A2_ST_PRE": null, "A2_ST_NAME": null, "A2_ST_TYPE": null, "A2_ST_SUF": null, "ROUTE_NUM": null, "ROUTE_TYPE": 0, "LF_ADDR": null, "LT_ADDR": null, "RF_ADDR": null, "RT_ADDR": null, "ONEWAY": 0, "FROM_ELEV": 0, "TO_ELEV": 0, "PAVED": null, "PRIVATE": null, "GEO_SOURCE": 0, "NAME": "KAM HWY", "Shape_Leng": 0.17938297051 }, "geometry": { "type": "MultiLineString", "coordinates": [ [ [ -158.08203, 21.62139 ], [ -158.08203, 21.62139 ] ] ] } },
{ "type": "Feature", "properties": { "FID_kau_ce": 0, "SEGMENTID": 0.0, "ST_FULLNM": null, "ST_PRE": null, "ST_NAME": null, "ST_TYPE": null, "ST_SUF": null, "A1_FULLNM": null, "A1_ST_PRE": null, "A1_ST_NAME": null, "A1_ST_TYPE": null, "A1_ST_SUF": null, "A2_FULLNM": null, "A2_ST_PRE": null, "A2_ST_NAME": null, "A2_ST_TYPE": null, "A2_ST_SUF": null, "ROUTE_NUM": null, "ROUTE_TYPE": 0, "LF_ADDR": null, "LT_ADDR": null, "RF_ADDR": null, "RT_ADDR": null, "ONEWAY": 0, "FROM_ELEV": 0, "TO_ELEV": 0, "PAVED": null, "PRIVATE": null, "GEO_SOURCE": 0, "NAME": "KAM HWY", "Shape_Leng": 239.53848165 }, "geometry": { "type": "MultiLineString", "coordinates": [ [ [ -158.08525, 21.61863 ], [ -158.08685, 21.61706 ] ] ] } },
{ "type": "Feature", "properties": { "FID_kau_ce": 0, "SEGMENTID": 0.0, "ST_FULLNM": null, "ST_PRE": null, "ST_NAME": null, "ST_TYPE": null, "ST_SUF": null, "A1_FULLNM": null, "A1_ST_PRE": null, "A1_ST_NAME": null, "A1_ST_TYPE": null, "A1_ST_SUF": null, "A2_FULLNM": null, "A2_ST_PRE": null, "A2_ST_NAME": null, "A2_ST_TYPE": null, "A2_ST_SUF": null, "ROUTE_NUM": null, "ROUTE_TYPE": 0, "LF_ADDR": null, "LT_ADDR": null, "RF_ADDR": null, "RT_ADDR": null, "ONEWAY": 0, "FROM_ELEV": 0, "TO_ELEV": 0, "PAVED": null, "PRIVATE": null, "GEO_SOURCE": 0, "NAME": "KAM HWY", "Shape_Leng": 8.9650663186500008 }, "geometry": { "type": "MultiLineString", "coordinates": [ [ [ -157.91319, 21.61492 ], [ -157.9132, 21.61496 ] ], [ [ -157.91296, 21.61427 ], [ -157.91299, 21.61431 ] ] ] } },
{ "type": "Feature", "properties": { "FID_kau_ce": 0, "SEGMENTID": 0.0, "ST_FULLNM": null, "ST_PRE": null, "ST_NAME": null, "ST_TYPE": null, "ST_SUF": null, "A1_FULLNM": null, "A1_ST_PRE": null, "A1_ST_NAME": null, "A1_ST_TYPE": null, "A1_ST_SUF": null, "A2_FULLNM": null, "A2_ST_PRE": null, "A2_ST_NAME": null, "A2_ST_TYPE": null, "A2_ST_SUF": null, "ROUTE_NUM": null, "ROUTE_TYPE": 0, "LF_ADDR": null, "LT_ADDR": null, "RF_ADDR": null, "RT_ADDR": null, "ONEWAY": 0, "FROM_ELEV": 0, "TO_ELEV": 0, "PAVED": null, "PRIVATE": null, "GEO_SOURCE": 0, "NAME": "KAM HWY", "Shape_Leng": 47.485846154699999 }, "geometry": { "type": "MultiLineString", "coordinates": [ [ [ -157.9093, 21.60909 ], [ -157.90953, 21.60946 ] ] ] } },
{ "type": "Feature", "properties": { "FID_kau_ce": 0, "SEGMENTID": 0.0, "ST_FULLNM": null, "ST_PRE": null, "ST_NAME": null, "ST_TYPE": null, "ST_SUF": null, "A1_FULLNM": null, "A1_ST_PRE": null, "A1_ST_NAME": null, "A1_ST_TYPE": null, "A1_ST_SUF": null, "A2_FULLNM": null, "A2_ST_PRE": null, "A2_ST_NAME": null, "A2_ST_TYPE": null, "A2_ST_SUF": null, "ROUTE_NUM": null, "ROUTE_TYPE": 0, "LF_ADDR": null, "LT_ADDR": null, "RF_ADDR": null, "RT_ADDR": null, "ONEWAY": 0, "FROM_ELEV": 0, "TO_ELEV": 0, "PAVED": null, "PRIVATE": null, "GEO_SOURCE": 0, "NAME": "KAM HWY", "Shape_Leng": 163.28814750699999 }, "geometry": { "type": "MultiLineString", "coordinates": [ [ [ -157.90924, 21.609 ], [ -157.9093, 21.60909 ] ], [ [ -157.90891, 21.60845 ], [ -157.90917, 21.60889 ] ], [ [ -157.90834, 21.60771 ], [ -157.90887, 21.6084 ] ] ] } },
{ "type": "Feature", "properties": { "FID_kau_ce": 0, "SEGMENTID": 0.0, "ST_FULLNM": null, "ST_PRE": null, "ST_NAME": null, "ST_TYPE": null, "ST_SUF": null, "A1_FULLNM": null, "A1_ST_PRE": null, "A1_ST_NAME": null, "A1_ST_TYPE": null, "A1_ST_SUF": null, "A2_FULLNM": null, "A2_ST_PRE": null, "A2_ST_NAME": null, "A2_ST_TYPE": null, "A2_ST_SUF": null, "ROUTE_NUM": null, "ROUTE_TYPE": 0, "LF_ADDR": null, "LT_ADDR": null, "RF_ADDR": null, "RT_ADDR": null, "ONEWAY": 0, "FROM_ELEV": 0, "TO_ELEV": 0, "PAVED": null, "PRIVATE": null, "GEO_SOURCE": 0, "NAME": "KAM HWY", "Shape_Leng": 87.499653686200006 }, "geometry": { "type": "MultiLineString", "coordinates": [ [ [ -157.9043, 21.60654 ], [ -157.90508, 21.60683 ] ], [ [ -157.90409, 21.60643 ], [ -157.90409, 21.60643 ] ], [ [ -157.90317, 21.60599 ], [ -157.90318, 21.606 ] ] ] } },
{ "type": "Feature", "properties": { "FID_kau_ce": 0, "SEGMENTID": 0.0, "ST_FULLNM": null, "ST_PRE": null, "ST_NAME": null, "ST_TYPE": null, "ST_SUF": null, "A1_FULLNM": null, "A1_ST_PRE": null, "A1_ST_NAME": null, "A1_ST_TYPE": null, "A1_ST_SUF": null, "A2_FULLNM": null, "A2_ST_PRE": null, "A2_ST_NAME": null, "A2_ST_TYPE": null, "A2_ST_SUF": null, "ROUTE_NUM": null, "ROUTE_TYPE": 0, "LF_ADDR": null, "LT_ADDR": null, "RF_ADDR": null, "RT_ADDR": null, "ONEWAY": 0, "FROM_ELEV": 0, "TO_ELEV": 0, "PAVED": null, "PRIVATE": null, "GEO_SOURCE": 0, "NAME": "KAM HWY", "Shape_Leng": 412.86840038499997 }, "geometry": { "type": "MultiLineString", "coordinates": [ [ [ -157.89947, 21.60357 ], [ -157.90267, 21.60576 ] ] ] } },
{ "type": "Feature", "properties": { "FID_kau_ce": 0, "SEGMENTID": 0.0, "ST_FULLNM": null, "ST_PRE": null, "ST_NAME": null, "ST_TYPE": null, "ST_SUF": null, "A1_FULLNM": null, "A1_ST_PRE": null, "A1_ST_NAME": null, "A1_ST_TYPE": null, "A1_ST_SUF": null, "A2_FULLNM": null, "A2_ST_PRE": null, "A2_ST_NAME": null, "A2_ST_TYPE": null, "A2_ST_SUF": null, "ROUTE_NUM": null, "ROUTE_TYPE": 0, "LF_ADDR": null, "LT_ADDR": null, "RF_ADDR": null, "RT_ADDR": null, "ONEWAY": 0, "FROM_ELEV": 0, "TO_ELEV": 0, "PAVED": null, "PRIVATE": null, "GEO_SOURCE": 0, "NAME": "KAM HWY", "Shape_Leng": 58.124939824400002 }, "geometry": { "type": "MultiLineString", "coordinates": [ [ [ -158.10324, 21.59461 ], [ -158.10334, 21.59409 ] ] ] } },
{ "type": "Feature", "properties": { "FID_kau_ce": 0, "SEGMENTID": 0.0, "ST_FULLNM": null, "ST_PRE": null, "ST_NAME": null, "ST_TYPE": null, "ST_SUF": null, "A1_FULLNM": null, "A1_ST_PRE": null, "A1_ST_NAME": null, "A1_ST_TYPE": null, "A1_ST_SUF": null, "A2_FULLNM": null, "A2_ST_PRE": null, "A2_ST_NAME": null, "A2_ST_TYPE": null, "A2_ST_SUF": null, "ROUTE_NUM": null, "ROUTE_TYPE": 0, "LF_ADDR": null, "LT_ADDR": null, "RF_ADDR": null, "RT_ADDR": null, "ONEWAY": 0, "FROM_ELEV": 0, "TO_ELEV": 0, "PAVED": null, "PRIVATE": null, "GEO_SOURCE": 0, "NAME": null, "Shape_Leng": 158.13625731499999 }, "geometry": { "type": "MultiLineString", "coordinates": [ [ [ -158.21477, 21.57932 ], [ -158.21619, 21.57889 ] ], [ [ -158.2289, 21.57842 ], [ -158.22894, 21.57842 ] ] ] } },
{ "type": "Feature", "properties": { "FID_kau_ce": 0, "SEGMENTID": 0.0, "ST_FULLNM": null, "ST_PRE": null, "ST_NAME": null, "ST_TYPE": null, "ST_SUF": null, "A1_FULLNM": null, "A1_ST_PRE": null, "A1_ST_NAME": null, "A1_ST_TYPE": null, "A1_ST_SUF": null, "A2_FULLNM": null, "A2_ST_PRE": null, "A2_ST_NAME": null, "A2_ST_TYPE": null, "A2_ST_SUF": null, "ROUTE_NUM": null, "ROUTE_TYPE": 0, "LF_ADDR": null, "LT_ADDR": null, "RF_ADDR": null, "RT_ADDR": null, "ONEWAY": 0, "FROM_ELEV": 0, "TO_ELEV": 0, "PAVED": null, "PRIVATE": null, "GEO_SOURCE": 0, "NAME": "KAM HWY", "Shape_Leng": 95.971563843300004 }, "geometry": { "type": "MultiLineString", "coordinates": [ [ [ -157.85031, 21.55413 ], [ -157.85095, 21.55475 ] ] ] } },
{ "type": "Feature", "properties": { "FID_kau_ce": 0, "SEGMENTID": 0.0, "ST_FULLNM": null, "ST_PRE": null, "ST_NAME": null, "ST_TYPE": null, "ST_SUF": null, "A1_FULLNM": null, "A1_ST_PRE": null, "A1_ST_NAME": null, "A1_ST_TYPE": null, "A1_ST_SUF": null, "A2_FULLNM": null, "A2_ST_PRE": null, "A2_ST_NAME": null, "A2_ST_TYPE": null, "A2_ST_SUF": null, "ROUTE_NUM": null, "ROUTE_TYPE": 0, "LF_ADDR": null, "LT_ADDR": null, "RF_ADDR": null, "RT_ADDR": null, "ONEWAY": 0, "FROM_ELEV": 0, "TO_ELEV": 0, "PAVED": null, "PRIVATE": null, "GEO_SOURCE": 0, "NAME": "KAM HWY", "Shape_Leng": 1070.69727756 }, "geometry": { "type": "MultiLineString", "coordinates": [ [ [ -157.89935, 21.60345 ], [ -157.89947, 21.60357 ] ], [ [ -157.8989, 21.60299 ], [ -157.89913, 21.60322 ] ], [ [ -157.89745, 21.59995 ], [ -157.89782, 21.60091 ] ], [ [ -157.89593, 21.5958 ], [ -157.89613, 21.5965 ] ], [ [ -157.89454, 21.59357 ], [ -157.89463, 21.59367 ] ], [ [ -157.89449, 21.59351 ], [ -157.89454, 21.59357 ] ], [ [ -157.89444, 21.59346 ], [ -157.89445, 21.59346 ] ], [ [ -157.88947, 21.58883 ], [ -157.88949, 21.58886 ] ], [ [ -157.88703, 21.58298 ], [ -157.88775, 21.5862 ] ], [ [ -157.88693, 21.5825 ], [ -157.88698, 21.58269 ] ], [ [ -157.88375, 21.57778 ], [ -157.8842, 21.57825 ] ], [ [ -157.88132, 21.57638 ], [ -157.88138, 21.57641 ] ], [ [ -157.87519, 21.56496 ], [ -157.87528, 21.56534 ] ], [ [ -157.87552, 21.56221 ], [ -157.8755, 21.56226 ] ], [ [ -157.86222, 21.55951 ], [ -157.86397, 21.56014 ] ], [ [ -157.87606, 21.55965 ], [ -157.87602, 21.55976 ] ], [ [ -157.86075, 21.55873 ], [ -157.86075, 21.55874 ] ], [ [ -157.86003, 21.55844 ], [ -157.86047, 21.55861 ] ], [ [ -157.87686, 21.55786 ], [ -157.87687, 21.55789 ] ], [ [ -157.86929, 21.55474 ], [ -157.86945, 21.55461 ] ] ] } },
{ "type": "Feature", "properties": { "FID_kau_ce": 0, "SEGMENTID": 0.0, "ST_FULLNM": null, "ST_PRE": null, "ST_NAME": null, "ST_TYPE": null, "ST_SUF": null, "A1_FULLNM": null, "A1_ST_PRE": null, "A1_ST_NAME": null, "A1_ST_TYPE": null, "A1_ST_SUF": null, "A2_FULLNM": null, "A2_ST_PRE": null, "A2_ST_NAME": null, "A2_ST_TYPE": null, "A2_ST_SUF": null, "ROUTE_NUM": null, "ROUTE_TYPE": 0, "LF_ADDR": null, "LT_ADDR": null, "RF_ADDR": null, "RT_ADDR": null, "ONEWAY": 0, "FROM_ELEV": 0, "TO_ELEV": 0, "PAVED": null, "PRIVATE": null, "GEO_SOURCE": 0, "NAME": "KAM HWY", "Shape_Leng": 258.312301805 }, "geometry": { "type": "MultiLineString", "coordinates": [ [ [ -157.84891, 21.5522 ], [ -157.85031, 21.55413 ] ] ] } },
{ "type": "Feature", "properties": { "FID_kau_ce": 0, "SEGMENTID": 0.0, "ST_FULLNM": null, "ST_PRE": null, "ST_NAME": null, "ST_TYPE": null, "ST_SUF": null, "A1_FULLNM": null, "A1_ST_PRE": null, "A1_ST_NAME": null, "A1_ST_TYPE": null, "A1_ST_SUF": null, "A2_FULLNM": null, "A2_ST_PRE": null, "A2_ST_NAME": null, "A2_ST_TYPE": null, "A2_ST_SUF": null, "ROUTE_NUM": null, "ROUTE_TYPE": 0, "LF_ADDR": null, "LT_ADDR": null, "RF_ADDR": null, "RT_ADDR": null, "ONEWAY": 0, "FROM_ELEV": 0, "TO_ELEV": 0, "PAVED": null, "PRIVATE": null, "GEO_SOURCE": 0, "NAME": "KAM HWY", "Shape_Leng": 67.617344260300001 }, "geometry": { "type": "MultiLineString", "coordinates": [ [ [ -157.84855, 21.5517 ], [ -157.84891, 21.5522 ] ] ] } },
{ "type": "Feature", "properties": { "FID_kau_ce": 0, "SEGMENTID": 0.0, "ST_FULLNM": null, "ST_PRE": null, "ST_NAME": null, "ST_TYPE": null, "ST_SUF": null, "A1_FULLNM": null, "A1_ST_PRE": null, "A1_ST_NAME": null, "A1_ST_TYPE": null, "A1_ST_SUF": null, "A2_FULLNM": null, "A2_ST_PRE": null, "A2_ST_NAME": null, "A2_ST_TYPE": null, "A2_ST_SUF": null, "ROUTE_NUM": null, "ROUTE_TYPE": 0, "LF_ADDR": null, "LT_ADDR": null, "RF_ADDR": null, "RT_ADDR": null, "ONEWAY": 0, "FROM_ELEV": 0, "TO_ELEV": 0, "PAVED": null, "PRIVATE": null, "GEO_SOURCE": 0, "NAME": "KAM HWY", "Shape_Leng": 170.76607092099999 }, "geometry": { "type": "MultiLineString", "coordinates": [ [ [ -157.84656, 21.54751 ], [ -157.84661, 21.54863 ] ], [ [ -157.84669, 21.54686 ], [ -157.84662, 21.54718 ] ], [ [ -157.84674, 21.54658 ], [ -157.84672, 21.54667 ] ] ] } },
{ "type": "Feature", "properties": { "FID_kau_ce": 0, "SEGMENTID": 0.0, "ST_FULLNM": null, "ST_PRE": null, "ST_NAME": null, "ST_TYPE": null, "ST_SUF": null, "A1_FULLNM": null, "A1_ST_PRE": null, "A1_ST_NAME": null, "A1_ST_TYPE": null, "A1_ST_SUF": null, "A2_FULLNM": null, "A2_ST_PRE": null, "A2_ST_NAME": null, "A2_ST_TYPE": null, "A2_ST_SUF": null, "ROUTE_NUM": null, "ROUTE_TYPE": 0, "LF_ADDR": null, "LT_ADDR": null, "RF_ADDR": null, "RT_ADDR": null, "ONEWAY": 0, "FROM_ELEV": 0, "TO_ELEV": 0, "PAVED": null, "PRIVATE": null, "GEO_SOURCE": 0, "NAME": "KAM HWY", "Shape_Leng": 1696.1876751699999 }, "geometry": { "type": "MultiLineString", "coordinates": [ [ [ -157.84555, 21.54434 ], [ -157.84575, 21.54455 ] ], [ [ -157.84255, 21.54223 ], [ -157.84463, 21.5434 ] ], [ [ -157.84219, 21.54183 ], [ -157.84239, 21.54208 ] ], [ [ -157.84126, 21.53893 ], [ -157.84149, 21.53995 ] ], [ [ -157.84095, 21.53818 ], [ -157.84119, 21.53869 ] ], [ [ -157.8405, 21.53699 ], [ -157.84072, 21.53761 ] ], [ [ -157.83767, 21.53327 ], [ -157.83806, 21.53407 ] ], [ [ -157.83759, 21.53304 ], [ -157.83761, 21.5331 ] ], [ [ -157.83714, 21.53209 ], [ -157.83756, 21.53294 ] ], [ [ -157.83563, 21.52952 ], [ -157.83647, 21.53094 ] ], [ [ -157.83561, 21.52947 ], [ -157.83562, 21.5295 ] ], [ [ -157.83554, 21.52933 ], [ -157.83558, 21.52942 ] ], [ [ -157.83552, 21.52929 ], [ -157.83553, 21.52932 ] ], [ [ -157.83547, 21.52915 ], [ -157.83548, 21.5292 ] ], [ [ -157.83482, 21.52413 ], [ -157.83463, 21.52635 ] ], [ [ -157.83484, 21.52398 ], [ -157.83484, 21.52402 ] ], [ [ -157.8356, 21.51859 ], [ -157.83503, 21.52262 ] ], [ [ -157.83655, 21.51751 ], [ -157.83644, 21.51756 ] ] ] } },
{ "type": "Feature", "properties": { "FID_kau_ce": 0, "SEGMENTID": 0.0, "ST_FULLNM": null, "ST_PRE": null, "ST_NAME": null, "ST_TYPE": null, "ST_SUF": null, "A1_FULLNM": null, "A1_ST_PRE": null, "A1_ST_NAME": null, "A1_ST_TYPE": null, "A1_ST_SUF": null, "A2_FULLNM": null, "A2_ST_PRE": null, "A2_ST_NAME": null, "A2_ST_TYPE": null, "A2_ST_SUF": null, "ROUTE_NUM": null, "ROUTE_TYPE": 0, "LF_ADDR": null, "LT_ADDR": null, "RF_ADDR": null, "RT_ADDR": null, "ONEWAY": 0, "FROM_ELEV": 0, "TO_ELEV": 0, "PAVED": null, "PRIVATE": null, "GEO_SOURCE": 0, "NAME": null, "Shape_Leng": 617.92459092900003 }, "geometry": { "type": "MultiLineString", "coordinates": [ [ [ -158.22796, 21.51436 ], [ -158.22801, 21.51392 ] ], [ [ -158.22803, 21.51381 ], [ -158.22808, 21.51357 ] ], [ [ -158.22814, 21.51327 ], [ -158.22827, 21.51257 ] ], [ [ -158.22838, 21.51203 ], [ -158.22849, 21.51145 ] ], [ [ -158.22916, 21.50623 ], [ -158.22921, 21.50578 ] ], [ [ -158.22921, 21.50577 ], [ -158.22929, 21.50505 ] ], [ [ -158.22931, 21.50488 ], [ -158.22933, 21.50462 ] ], [ [ -158.22936, 21.50439 ], [ -158.22937, 21.50433 ] ], [ [ -158.22938, 21.49828 ], [ -158.22918, 21.49696 ] ], [ [ -158.22912, 21.48994 ], [ -158.22923, 21.48918 ] ] ] } },
{ "type": "Feature", "properties": { "FID_kau_ce": 0, "SEGMENTID": 0.0, "ST_FULLNM": null, "ST_PRE": null, "ST_NAME": null, "ST_TYPE": null, "ST_SUF": null, "A1_FULLNM": null, "A1_ST_PRE": null, "A1_ST_NAME": null, "A1_ST_TYPE": null, "A1_ST_SUF": null, "A2_FULLNM": null, "A2_ST_PRE": null, "A2_ST_NAME": null, "A2_ST_TYPE": null, "A2_ST_SUF": null, "ROUTE_NUM": null, "ROUTE_TYPE": 0, "LF_ADDR": null, "LT_ADDR": null, "RF_ADDR": null, "RT_ADDR": null, "ONEWAY": 0, "FROM_ELEV": 0, "TO_ELEV": 0, "PAVED": null, "PRIVATE": null, "GEO_SOURCE": 0, "NAME": "KAM HWY", "Shape_Leng": 36.9386253156 }, "geometry": { "type": "MultiLineString", "coordinates": [ [ [ -157.84994, 21.4886 ], [ -157.85003, 21.48884 ] ], [ [ -157.84991, 21.48852 ], [ -157.84991, 21.48853 ] ], [ [ -157.84949, 21.48754 ], [ -157.84952, 21.48761 ] ] ] } },
{ "type": "Feature", "properties": { "FID_kau_ce": 0, "SEGMENTID": 0.0, "ST_FULLNM": null, "ST_PRE": null, "ST_NAME": null, "ST_TYPE": null, "ST_SUF": null, "A1_FULLNM": null, "A1_ST_PRE": null, "A1_ST_NAME": null, "A1_ST_TYPE": null, "A1_ST_SUF": null, "A2_FULLNM": null, "A2_ST_PRE": null, "A2_ST_NAME": null, "A2_ST_TYPE": null, "A2_ST_SUF": null, "ROUTE_NUM": null, "ROUTE_TYPE": 0, "LF_ADDR": null, "LT_ADDR": null, "RF_ADDR": null, "RT_ADDR": null, "ONEWAY": 0, "FROM_ELEV": 0, "TO_ELEV": 0, "PAVED": null, "PRIVATE": null, "GEO_SOURCE": 0, "NAME": "FARRINGTON HWY", "Shape_Leng": 382.71884676899998 }, "geometry": { "type": "MultiLineString", "coordinates": [ [ [ -158.22228, 21.4785 ], [ -158.22066, 21.47757 ], [ -158.21949, 21.47632 ] ] ] } },
{ "type": "Feature", "properties": { "FID_kau_ce": 0, "SEGMENTID": 0.0, "ST_FULLNM": null, "ST_PRE": null, "ST_NAME": null, "ST_TYPE": null, "ST_SUF": null, "A1_FULLNM": null, "A1_ST_PRE": null, "A1_ST_NAME": null, "A1_ST_TYPE": null, "A1_ST_SUF": null, "A2_FULLNM": null, "A2_ST_PRE": null, "A2_ST_NAME": null, "A2_ST_TYPE": null, "A2_ST_SUF": null, "ROUTE_NUM": null, "ROUTE_TYPE": 0, "LF_ADDR": null, "LT_ADDR": null, "RF_ADDR": null, "RT_ADDR": null, "ONEWAY": 0, "FROM_ELEV": 0, "TO_ELEV": 0, "PAVED": null, "PRIVATE": null, "GEO_SOURCE": 0, "NAME": "KAM HWY", "Shape_Leng": 7.0821425405799996 }, "geometry": { "type": "MultiLineString", "coordinates": [ [ [ -157.84452, 21.47055 ], [ -157.84453, 21.4706 ] ], [ [ -157.84451, 21.47054 ], [ -157.84451, 21.47054 ] ], [ [ -157.84446, 21.4704 ], [ -157.84447, 21.47041 ] ], [ [ -157.84446, 21.47038 ], [ -157.84446, 21.47038 ] ] ] } },
{ "type": "Feature", "properties": { "FID_kau_ce": 0, "SEGMENTID": 0.0, "ST_FULLNM": null, "ST_PRE": null, "ST_NAME": null, "ST_TYPE": null, "ST_SUF": null, "A1_FULLNM": null, "A1_ST_PRE": null, "A1_ST_NAME": null, "A1_ST_TYPE": null, "A1_ST_SUF": null, "A2_FULLNM": null, "A2_ST_PRE": null, "A2_ST_NAME": null, "A2_ST_TYPE": null, "A2_ST_SUF": null, "ROUTE_NUM": null, "ROUTE_TYPE": 0, "LF_ADDR": null, "LT_ADDR": null, "RF_ADDR": null, "RT_ADDR": null, "ONEWAY": 0, "FROM_ELEV": 0, "TO_ELEV": 0, "PAVED": null, "PRIVATE": null, "GEO_SOURCE": 0, "NAME": "KAM HWY", "Shape_Leng": 71.548586972600006 }, "geometry": { "type": "MultiLineString", "coordinates": [ [ [ -157.84431, 21.46996 ], [ -157.84446, 21.47038 ] ], [ [ -157.84421, 21.46965 ], [ -157.84427, 21.46985 ] ] ] } },
{ "type": "Feature", "properties": { "FID_kau_ce": 0, "SEGMENTID": 0.0, "ST_FULLNM": null, "ST_PRE": null, "ST_NAME": null, "ST_TYPE": null, "ST_SUF": null, "A1_FULLNM": null, "A1_ST_PRE": null, "A1_ST_NAME": null, "A1_ST_TYPE": null, "A1_ST_SUF": null, "A2_FULLNM": null, "A2_ST_PRE": null, "A2_ST_NAME": null, "A2_ST_TYPE": null, "A2_ST_SUF": null, "ROUTE_NUM": null, "ROUTE_TYPE": 0, "LF_ADDR": null, "LT_ADDR": null, "RF_ADDR": null, "RT_ADDR": null, "ONEWAY": 0, "FROM_ELEV": 0, "TO_ELEV": 0, "PAVED": null, "PRIVATE": null, "GEO_SOURCE": 0, "NAME": "FARRINGTON HWY", "Shape_Leng": 117.53067662399999 }, "geometry": { "type": "MultiLineString", "coordinates": [ [ [ -158.20786, 21.46071 ], [ -158.20684, 21.46024 ] ] ] } },
{ "type": "Feature", "properties": { "FID_kau_ce": 0, "SEGMENTID": 0.0, "ST_FULLNM": null, "ST_PRE": null, "ST_NAME": null, "ST_TYPE": null, "ST_SUF": null, "A1_FULLNM": null, "A1_ST_PRE": null, "A1_ST_NAME": null, "A1_ST_TYPE": null, "A1_ST_SUF": null, "A2_FULLNM": null, "A2_ST_PRE": null, "A2_ST_NAME": null, "A2_ST_TYPE": null, "A2_ST_SUF": null, "ROUTE_NUM": null, "ROUTE_TYPE": 0, "LF_ADDR": null, "LT_ADDR": null, "RF_ADDR": null, "RT_ADDR": null, "ONEWAY": 0, "FROM_ELEV": 0, "TO_ELEV": 0, "PAVED": null, "PRIVATE": null, "GEO_SOURCE": 0, "NAME": "KAM HWY", "Shape_Leng": 31.233374329299998 }, "geometry": { "type": "MultiLineString", "coordinates": [ [ [ -157.84226, 21.46139 ], [ -157.8423, 21.46146 ] ], [ [ -157.84224, 21.46135 ], [ -157.84226, 21.46139 ] ], [ [ -157.84222, 21.46133 ], [ -157.84223, 21.46134 ] ], [ [ -157.84221, 21.46131 ], [ -157.84222, 21.46132 ] ], [ [ -157.84221, 21.4613 ], [ -157.84221, 21.46131 ] ], [ [ -157.84207, 21.46107 ], [ -157.84208, 21.46108 ] ], [ [ -157.842, 21.46095 ], [ -157.84201, 21.46097 ] ], [ [ -157.842, 21.46094 ], [ -157.842, 21.46095 ] ], [ [ -157.84194, 21.46085 ], [ -157.84195, 21.46086 ] ], [ [ -157.84171, 21.46052 ], [ -157.84174, 21.46057 ] ] ] } },
{ "type": "Feature", "properties": { "FID_kau_ce": 0, "SEGMENTID": 0.0, "ST_FULLNM": null, "ST_PRE": null, "ST_NAME": null, "ST_TYPE": null, "ST_SUF": null, "A1_FULLNM": null, "A1_ST_PRE": null, "A1_ST_NAME": null, "A1_ST_TYPE": null, "A1_ST_SUF": null, "A2_FULLNM": null, "A2_ST_PRE": null, "A2_ST_NAME": null, "A2_ST_TYPE": null, "A2_ST_SUF": null, "ROUTE_NUM": null, "ROUTE_TYPE": 0, "LF_ADDR": null, "LT_ADDR": null, "RF_ADDR": null, "RT_ADDR": null, "ONEWAY": 0, "FROM_ELEV": 0, "TO_ELEV": 0, "PAVED": null, "PRIVATE": null, "GEO_SOURCE": 0, "NAME": "FARRINGTON HWY", "Shape_Leng": 51.292269395700004 }, "geometry": { "type": "MultiLineString", "coordinates": [ [ [ -158.20684, 21.46024 ], [ -158.2064, 21.46004 ] ] ] } },
{ "type": "Feature", "properties": { "FID_kau_ce": 0, "SEGMENTID": 0.0, "ST_FULLNM": null, "ST_PRE": null, "ST_NAME": null, "ST_TYPE": null, "ST_SUF": null, "A1_FULLNM": null, "A1_ST_PRE": null, "A1_ST_NAME": null, "A1_ST_TYPE": null, "A1_ST_SUF": null, "A2_FULLNM": null, "A2_ST_PRE": null, "A2_ST_NAME": null, "A2_ST_TYPE": null, "A2_ST_SUF": null, "ROUTE_NUM": null, "ROUTE_TYPE": 0, "LF_ADDR": null, "LT_ADDR": null, "RF_ADDR": null, "RT_ADDR": null, "ONEWAY": 0, "FROM_ELEV": 0, "TO_ELEV": 0, "PAVED": null, "PRIVATE": null, "GEO_SOURCE": 0, "NAME": "KAM HWY", "Shape_Leng": 91.240129361300006 }, "geometry": { "type": "MultiLineString", "coordinates": [ [ [ -157.82677, 21.45542 ], [ -157.82678, 21.45543 ] ], [ [ -157.82658, 21.45504 ], [ -157.82677, 21.45541 ] ], [ [ -157.82646, 21.45481 ], [ -157.82658, 21.45504 ] ], [ [ -157.82641, 21.45472 ], [ -157.82646, 21.4548 ] ], [ [ -157.8264, 21.4547 ], [ -157.82641, 21.45471 ] ], [ [ -157.8264, 21.45468 ], [ -157.8264, 21.45469 ] ], [ [ -157.82632, 21.45454 ], [ -157.82632, 21.45455 ] ], [ [ -157.82631, 21.45452 ], [ -157.82631, 21.45453 ] ], [ [ -157.8263, 21.45451 ], [ -157.8263, 21.45451 ] ], [ [ -157.82629, 21.45449 ], [ -157.8263, 21.4545 ] ], [ [ -157.82628, 21.45448 ], [ -157.82629, 21.45448 ] ], [ [ -157.82615, 21.45429 ], [ -157.82615, 21.45429 ] ] ] } },
{ "type": "Feature", "properties": { "FID_kau_ce": 0, "SEGMENTID": 0.0, "ST_FULLNM": null, "ST_PRE": null, "ST_NAME": null, "ST_TYPE": null, "ST_SUF": null, "A1_FULLNM": null, "A1_ST_PRE": null, "A1_ST_NAME": null, "A1_ST_TYPE": null, "A1_ST_SUF": null, "A2_FULLNM": null, "A2_ST_PRE": null, "A2_ST_NAME": null, "A2_ST_TYPE": null, "A2_ST_SUF": null, "ROUTE_NUM": null, "ROUTE_TYPE": 0, "LF_ADDR": null, "LT_ADDR": null, "RF_ADDR": null, "RT_ADDR": null, "ONEWAY": 0, "FROM_ELEV": 0, "TO_ELEV": 0, "PAVED": null, "PRIVATE": null, "GEO_SOURCE": 0, "NAME": "KAM HWY", "Shape_Leng": 149.059985326 }, "geometry": { "type": "MultiLineString", "coordinates": [ [ [ -157.82604, 21.45417 ], [ -157.82605, 21.45417 ] ], [ [ -157.82603, 21.45416 ], [ -157.82604, 21.45416 ] ], [ [ -157.82603, 21.45415 ], [ -157.82603, 21.45415 ] ], [ [ -157.82602, 21.45414 ], [ -157.82602, 21.45414 ] ], [ [ -157.82601, 21.45413 ], [ -157.82601, 21.45413 ] ], [ [ -157.826, 21.45412 ], [ -157.826, 21.45413 ] ], [ [ -157.82499, 21.45309 ], [ -157.82595, 21.45408 ] ] ] } },
{ "type": "Feature", "properties": { "FID_kau_ce": 0, "SEGMENTID": 0.0, "ST_FULLNM": null, "ST_PRE": null, "ST_NAME": null, "ST_TYPE": null, "ST_SUF": null, "A1_FULLNM": null, "A1_ST_PRE": null, "A1_ST_NAME": null, "A1_ST_TYPE": null, "A1_ST_SUF": null, "A2_FULLNM": null, "A2_ST_PRE": null, "A2_ST_NAME": null, "A2_ST_TYPE": null, "A2_ST_SUF": null, "ROUTE_NUM": null, "ROUTE_TYPE": 0, "LF_ADDR": null, "LT_ADDR": null, "RF_ADDR": null, "RT_ADDR": null, "ONEWAY": 0, "FROM_ELEV": 0, "TO_ELEV": 0, "PAVED": null, "PRIVATE": null, "GEO_SOURCE": 0, "NAME": "FARRINGTON HWY", "Shape_Leng": 29.830411570300001 }, "geometry": { "type": "MultiLineString", "coordinates": [ [ [ -158.1882, 21.44587 ], [ -158.18805, 21.44563 ] ] ] } },
{ "type": "Feature", "properties": { "FID_kau_ce": 0, "SEGMENTID": 0.0, "ST_FULLNM": null, "ST_PRE": null, "ST_NAME": null, "ST_TYPE": null, "ST_SUF": null, "A1_FULLNM": null, "A1_ST_PRE": null, "A1_ST_NAME": null, "A1_ST_TYPE": null, "A1_ST_SUF": null, "A2_FULLNM": null, "A2_ST_PRE": null, "A2_ST_NAME": null, "A2_ST_TYPE": null, "A2_ST_SUF": null, "ROUTE_NUM": null, "ROUTE_TYPE": 0, "LF_ADDR": null, "LT_ADDR": null, "RF_ADDR": null, "RT_ADDR": null, "ONEWAY": 0, "FROM_ELEV": 0, "TO_ELEV": 0, "PAVED": null, "PRIVATE": null, "GEO_SOURCE": 0, "NAME": "FARRINGTON HWY", "Shape_Leng": 98.327071194300004 }, "geometry": { "type": "MultiLineString", "coordinates": [ [ [ -158.18805, 21.44563 ], [ -158.18788, 21.44516 ] ], [ [ -158.18769, 21.44466 ], [ -158.18757, 21.44429 ] ] ] } },
{ "type": "Feature", "properties": { "FID_kau_ce": 0, "SEGMENTID": 0.0, "ST_FULLNM": null, "ST_PRE": null, "ST_NAME": null, "ST_TYPE": null, "ST_SUF": null, "A1_FULLNM": null, "A1_ST_PRE": null, "A1_ST_NAME": null, "A1_ST_TYPE": null, "A1_ST_SUF": null, "A2_FULLNM": null, "A2_ST_PRE": null, "A2_ST_NAME": null, "A2_ST_TYPE": null, "A2_ST_SUF": null, "ROUTE_NUM": null, "ROUTE_TYPE": 0, "LF_ADDR": null, "LT_ADDR": null, "RF_ADDR": null, "RT_ADDR": null, "ONEWAY": 0, "FROM_ELEV": 0, "TO_ELEV": 0, "PAVED": null, "PRIVATE": null, "GEO_SOURCE": 0, "NAME": "FARRINGTON HWY", "Shape_Leng": 2.96684178288 }, "geometry": { "type": "MultiLineString", "coordinates": [ [ [ -158.18757, 21.44429 ], [ -158.18756, 21.44426 ] ] ] } },
{ "type": "Feature", "properties": { "FID_kau_ce": 0, "SEGMENTID": 0.0, "ST_FULLNM": null, "ST_PRE": null, "ST_NAME": null, "ST_TYPE": null, "ST_SUF": null, "A1_FULLNM": null, "A1_ST_PRE": null, "A1_ST_NAME": null, "A1_ST_TYPE": null, "A1_ST_SUF": null, "A2_FULLNM": null, "A2_ST_PRE": null, "A2_ST_NAME": null, "A2_ST_TYPE": null, "A2_ST_SUF": null, "ROUTE_NUM": null, "ROUTE_TYPE": 0, "LF_ADDR": null, "LT_ADDR": null, "RF_ADDR": null, "RT_ADDR": null, "ONEWAY": 0, "FROM_ELEV": 0, "TO_ELEV": 0, "PAVED": null, "PRIVATE": null, "GEO_SOURCE": 0, "NAME": "KAM HWY", "Shape_Leng": 623.28199423000001 }, "geometry": { "type": "MultiLineString", "coordinates": [ [ [ -157.81457, 21.44889 ], [ -157.81458, 21.44892 ] ], [ [ -157.81457, 21.44887 ], [ -157.81457, 21.44887 ] ], [ [ -157.81455, 21.4488 ], [ -157.81456, 21.44882 ] ], [ [ -157.81454, 21.44876 ], [ -157.81455, 21.44878 ] ], [ [ -157.81453, 21.44872 ], [ -157.81454, 21.44874 ] ], [ [ -157.81447, 21.44853 ], [ -157.81448, 21.44857 ] ], [ [ -157.81347, 21.44612 ], [ -157.81446, 21.44852 ] ], [ [ -157.81341, 21.44597 ], [ -157.81345, 21.44608 ] ], [ [ -157.81332, 21.44576 ], [ -157.8134, 21.44596 ] ], [ [ -157.81332, 21.44575 ], [ -157.81332, 21.44576 ] ], [ [ -157.81331, 21.44573 ], [ -157.81331, 21.44574 ] ], [ [ -157.81329, 21.44569 ], [ -157.81329, 21.44569 ] ], [ [ -157.81327, 21.44565 ], [ -157.81328, 21.44567 ] ], [ [ -157.81327, 21.44563 ], [ -157.81327, 21.44565 ] ], [ [ -157.81326, 21.44562 ], [ -157.81326, 21.44562 ] ], [ [ -157.81325, 21.44559 ], [ -157.81325, 21.4456 ] ], [ [ -157.81242, 21.44394 ], [ -157.81324, 21.44558 ] ], [ [ -157.81241, 21.44393 ], [ -157.81241, 21.44393 ] ], [ [ -157.81204, 21.44331 ], [ -157.8124, 21.44392 ] ], [ [ -157.81203, 21.4433 ], [ -157.81204, 21.44331 ] ], [ [ -157.81203, 21.44329 ], [ -157.81203, 21.4433 ] ] ] } },
{ "type": "Feature", "properties": { "FID_kau_ce": 0, "SEGMENTID": 0.0, "ST_FULLNM": null, "ST_PRE": null, "ST_NAME": null, "ST_TYPE": null, "ST_SUF": null, "A1_FULLNM": null, "A1_ST_PRE": null, "A1_ST_NAME": null, "A1_ST_TYPE": null, "A1_ST_SUF": null, "A2_FULLNM": null, "A2_ST_PRE": null, "A2_ST_NAME": null, "A2_ST_TYPE": null, "A2_ST_SUF": null, "ROUTE_NUM": null, "ROUTE_TYPE": 0, "LF_ADDR": null, "LT_ADDR": null, "RF_ADDR": null, "RT_ADDR": null, "ONEWAY": 0, "FROM_ELEV": 0, "TO_ELEV": 0, "PAVED": null, "PRIVATE": null, "GEO_SOURCE": 0, "NAME": "FARRINGTON HWY", "Shape_Leng": 13.9369231921 }, "geometry": { "type": "MultiLineString", "coordinates": [ [ [ -158.17992, 21.42895 ], [ -158.17981, 21.42888 ] ] ] } },
{ "type": "Feature", "properties": { "FID_kau_ce": 0, "SEGMENTID": 0.0, "ST_FULLNM": null, "ST_PRE": null, "ST_NAME": null, "ST_TYPE": null, "ST_SUF": null, "A1_FULLNM": null, "A1_ST_PRE": null, "A1_ST_NAME": null, "A1_ST_TYPE": null, "A1_ST_SUF": null, "A2_FULLNM": null, "A2_ST_PRE": null, "A2_ST_NAME": null, "A2_ST_TYPE": null, "A2_ST_SUF": null, "ROUTE_NUM": null, "ROUTE_TYPE": 0, "LF_ADDR": null, "LT_ADDR": null, "RF_ADDR": null, "RT_ADDR": null, "ONEWAY": 0, "FROM_ELEV": 0, "TO_ELEV": 0, "PAVED": null, "PRIVATE": null, "GEO_SOURCE": 0, "NAME": "FARRINGTON HWY", "Shape_Leng": 31.852332649200001 }, "geometry": { "type": "MultiLineString", "coordinates": [ [ [ -158.17931, 21.42843 ], [ -158.17914, 21.42821 ] ], [ [ -158.17891, 21.42787 ], [ -158.1789, 21.42786 ] ] ] } },
{ "type": "Feature", "properties": { "FID_kau_ce": 0, "SEGMENTID": 0.0, "ST_FULLNM": null, "ST_PRE": null, "ST_NAME": null, "ST_TYPE": null, "ST_SUF": null, "A1_FULLNM": null, "A1_ST_PRE": null, "A1_ST_NAME": null, "A1_ST_TYPE": null, "A1_ST_SUF": null, "A2_FULLNM": null, "A2_ST_PRE": null, "A2_ST_NAME": null, "A2_ST_TYPE": null, "A2_ST_SUF": null, "ROUTE_NUM": null, "ROUTE_TYPE": 0, "LF_ADDR": null, "LT_ADDR": null, "RF_ADDR": null, "RT_ADDR": null, "ONEWAY": 0, "FROM_ELEV": 0, "TO_ELEV": 0, "PAVED": null, "PRIVATE": null, "GEO_SOURCE": 0, "NAME": "FARRINGTON HWY", "Shape_Leng": 72.722680878099993 }, "geometry": { "type": "MultiLineString", "coordinates": [ [ [ -158.1789, 21.42786 ], [ -158.17864, 21.42725 ] ] ] } },
{ "type": "Feature", "properties": { "FID_kau_ce": 0, "SEGMENTID": 0.0, "ST_FULLNM": null, "ST_PRE": null, "ST_NAME": null, "ST_TYPE": null, "ST_SUF": null, "A1_FULLNM": null, "A1_ST_PRE": null, "A1_ST_NAME": null, "A1_ST_TYPE": null, "A1_ST_SUF": null, "A2_FULLNM": null, "A2_ST_PRE": null, "A2_ST_NAME": null, "A2_ST_TYPE": null, "A2_ST_SUF": null, "ROUTE_NUM": null, "ROUTE_TYPE": 0, "LF_ADDR": null, "LT_ADDR": null, "RF_ADDR": null, "RT_ADDR": null, "ONEWAY": 0, "FROM_ELEV": 0, "TO_ELEV": 0, "PAVED": null, "PRIVATE": null, "GEO_SOURCE": 0, "NAME": "FARRINGTON HWY", "Shape_Leng": 69.851104907500002 }, "geometry": { "type": "MultiLineString", "coordinates": [ [ [ -158.17864, 21.42725 ], [ -158.17849, 21.42663 ] ] ] } },
{ "type": "Feature", "properties": { "FID_kau_ce": 0, "SEGMENTID": 0.0, "ST_FULLNM": null, "ST_PRE": null, "ST_NAME": null, "ST_TYPE": null, "ST_SUF": null, "A1_FULLNM": null, "A1_ST_PRE": null, "A1_ST_NAME": null, "A1_ST_TYPE": null, "A1_ST_SUF": null, "A2_FULLNM": null, "A2_ST_PRE": null, "A2_ST_NAME": null, "A2_ST_TYPE": null, "A2_ST_SUF": null, "ROUTE_NUM": null, "ROUTE_TYPE": 0, "LF_ADDR": null, "LT_ADDR": null, "RF_ADDR": null, "RT_ADDR": null, "ONEWAY": 0, "FROM_ELEV": 0, "TO_ELEV": 0, "PAVED": null, "PRIVATE": null, "GEO_SOURCE": 0, "NAME": "FARRINGTON HWY", "Shape_Leng": 77.907912671899993 }, "geometry": { "type": "MultiLineString", "coordinates": [ [ [ -158.17849, 21.42663 ], [ -158.17838, 21.42594 ] ] ] } },
{ "type": "Feature", "properties": { "FID_kau_ce": 0, "SEGMENTID": 0.0, "ST_FULLNM": null, "ST_PRE": null, "ST_NAME": null, "ST_TYPE": null, "ST_SUF": null, "A1_FULLNM": null, "A1_ST_PRE": null, "A1_ST_NAME": null, "A1_ST_TYPE": null, "A1_ST_SUF": null, "A2_FULLNM": null, "A2_ST_PRE": null, "A2_ST_NAME": null, "A2_ST_TYPE": null, "A2_ST_SUF": null, "ROUTE_NUM": null, "ROUTE_TYPE": 0, "LF_ADDR": null, "LT_ADDR": null, "RF_ADDR": null, "RT_ADDR": null, "ONEWAY": 0, "FROM_ELEV": 0, "TO_ELEV": 0, "PAVED": null, "PRIVATE": null, "GEO_SOURCE": 0, "NAME": "FARRINGTON HWY", "Shape_Leng": 43.2239694027 }, "geometry": { "type": "MultiLineString", "coordinates": [ [ [ -158.17838, 21.42594 ], [ -158.17836, 21.42585 ] ], [ [ -158.17832, 21.42558 ], [ -158.17827, 21.42528 ] ] ] } },
{ "type": "Feature", "properties": { "FID_kau_ce": 0, "SEGMENTID": 0.0, "ST_FULLNM": null, "ST_PRE": null, "ST_NAME": null, "ST_TYPE": null, "ST_SUF": null, "A1_FULLNM": null, "A1_ST_PRE": null, "A1_ST_NAME": null, "A1_ST_TYPE": null, "A1_ST_SUF": null, "A2_FULLNM": null, "A2_ST_PRE": null, "A2_ST_NAME": null, "A2_ST_TYPE": null, "A2_ST_SUF": null, "ROUTE_NUM": null, "ROUTE_TYPE": 0, "LF_ADDR": null, "LT_ADDR": null, "RF_ADDR": null, "RT_ADDR": null, "ONEWAY": 0, "FROM_ELEV": 0, "TO_ELEV": 0, "PAVED": null, "PRIVATE": null, "GEO_SOURCE": 0, "NAME": "FARRINGTON HWY", "Shape_Leng": 72.804132101299999 }, "geometry": { "type": "MultiLineString", "coordinates": [ [ [ -158.17827, 21.42528 ], [ -158.17817, 21.42463 ] ] ] } },
{ "type": "Feature", "properties": { "FID_kau_ce": 0, "SEGMENTID": 0.0, "ST_FULLNM": null, "ST_PRE": null, "ST_NAME": null, "ST_TYPE": null, "ST_SUF": null, "A1_FULLNM": null, "A1_ST_PRE": null, "A1_ST_NAME": null, "A1_ST_TYPE": null, "A1_ST_SUF": null, "A2_FULLNM": null, "A2_ST_PRE": null, "A2_ST_NAME": null, "A2_ST_TYPE": null, "A2_ST_SUF": null, "ROUTE_NUM": null, "ROUTE_TYPE": 0, "LF_ADDR": null, "LT_ADDR": null, "RF_ADDR": null, "RT_ADDR": null, "ONEWAY": 0, "FROM_ELEV": 0, "TO_ELEV": 0, "PAVED": null, "PRIVATE": null, "GEO_SOURCE": 0, "NAME": "FARRINGTON HWY", "Shape_Leng": 3.65001106824 }, "geometry": { "type": "MultiLineString", "coordinates": [ [ [ -158.17817, 21.42463 ], [ -158.17817, 21.4246 ] ] ] } },
{ "type": "Feature", "properties": { "FID_kau_ce": 0, "SEGMENTID": 0.0, "ST_FULLNM": null, "ST_PRE": null, "ST_NAME": null, "ST_TYPE": null, "ST_SUF": null, "A1_FULLNM": null, "A1_ST_PRE": null, "A1_ST_NAME": null, "A1_ST_TYPE": null, "A1_ST_SUF": null, "A2_FULLNM": null, "A2_ST_PRE": null, "A2_ST_NAME": null, "A2_ST_TYPE": null, "A2_ST_SUF": null, "ROUTE_NUM": null, "ROUTE_TYPE": 0, "LF_ADDR": null, "LT_ADDR": null, "RF_ADDR": null, "RT_ADDR": null, "ONEWAY": 0, "FROM_ELEV": 0, "TO_ELEV": 0, "PAVED": null, "PRIVATE": null, "GEO_SOURCE": 0, "NAME": "KALANIANAOLE HWY", "Shape_Leng": 55.191395540400002 }, "geometry": { "type": "MultiLineString", "coordinates": [ [ [ -157.71444, 21.28247 ], [ -157.71442, 21.28246 ] ], [ [ -157.71424, 21.28239 ], [ -157.71377, 21.28222 ] ] ] } },
{ "type": "Feature", "properties": { "FID_kau_ce": 0, "SEGMENTID": 0.0, "ST_FULLNM": null, "ST_PRE": null, "ST_NAME": null, "ST_TYPE": null, "ST_SUF": null, "A1_FULLNM": null, "A1_ST_PRE": null, "A1_ST_NAME": null, "A1_ST_TYPE": null, "A1_ST_SUF": null, "A2_FULLNM": null, "A2_ST_PRE": null, "A2_ST_NAME": null, "A2_ST_TYPE": null, "A2_ST_SUF": null, "ROUTE_NUM": null, "ROUTE_TYPE": 0, "LF_ADDR": null, "LT_ADDR": null, "RF_ADDR": null, "RT_ADDR": null, "ONEWAY": 0, "FROM_ELEV": 0, "TO_ELEV": 0, "PAVED": null, "PRIVATE": null, "GEO_SOURCE": 0, "NAME": "KALANIANAOLE HWY", "Shape_Leng": 83.465893086299999 }, "geometry": { "type": "MultiLineString", "coordinates": [ [ [ -157.67466, 21.28545 ], [ -157.67397, 21.28582 ] ] ] } },
{ "type": "Feature", "properties": { "FID_kau_ce": 0, "SEGMENTID": 0.0, "ST_FULLNM": null, "ST_PRE": null, "ST_NAME": null, "ST_TYPE": null, "ST_SUF": null, "A1_FULLNM": null, "A1_ST_PRE": null, "A1_ST_NAME": null, "A1_ST_TYPE": null, "A1_ST_SUF": null, "A2_FULLNM": null, "A2_ST_PRE": null, "A2_ST_NAME": null, "A2_ST_TYPE": null, "A2_ST_SUF": null, "ROUTE_NUM": null, "ROUTE_TYPE": 0, "LF_ADDR": null, "LT_ADDR": null, "RF_ADDR": null, "RT_ADDR": null, "ONEWAY": 0, "FROM_ELEV": 0, "TO_ELEV": 0, "PAVED": null, "PRIVATE": null, "GEO_SOURCE": 0, "NAME": "ALA MOANA", "Shape_Leng": 7.9444983094700001 }, "geometry": { "type": "MultiLineString", "coordinates": [ [ [ -157.85783, 21.29499 ], [ -157.85776, 21.29496 ] ] ] } },
{ "type": "Feature", "properties": { "FID_kau_ce": 0, "SEGMENTID": 0.0, "ST_FULLNM": null, "ST_PRE": null, "ST_NAME": null, "ST_TYPE": null, "ST_SUF": null, "A1_FULLNM": null, "A1_ST_PRE": null, "A1_ST_NAME": null, "A1_ST_TYPE": null, "A1_ST_SUF": null, "A2_FULLNM": null, "A2_ST_PRE": null, "A2_ST_NAME": null, "A2_ST_TYPE": null, "A2_ST_SUF": null, "ROUTE_NUM": null, "ROUTE_TYPE": 0, "LF_ADDR": null, "LT_ADDR": null, "RF_ADDR": null, "RT_ADDR": null, "ONEWAY": 0, "FROM_ELEV": 0, "TO_ELEV": 0, "PAVED": null, "PRIVATE": null, "GEO_SOURCE": 0, "NAME": "ALA MOANA", "Shape_Leng": 76.4998505139 }, "geometry": { "type": "MultiLineString", "coordinates": [ [ [ -157.85776, 21.29496 ], [ -157.85714, 21.29462 ] ] ] } },
{ "type": "Feature", "properties": { "FID_kau_ce": 0, "SEGMENTID": 0.0, "ST_FULLNM": null, "ST_PRE": null, "ST_NAME": null, "ST_TYPE": null, "ST_SUF": null, "A1_FULLNM": null, "A1_ST_PRE": null, "A1_ST_NAME": null, "A1_ST_TYPE": null, "A1_ST_SUF": null, "A2_FULLNM": null, "A2_ST_PRE": null, "A2_ST_NAME": null, "A2_ST_TYPE": null, "A2_ST_SUF": null, "ROUTE_NUM": null, "ROUTE_TYPE": 0, "LF_ADDR": null, "LT_ADDR": null, "RF_ADDR": null, "RT_ADDR": null, "ONEWAY": 0, "FROM_ELEV": 0, "TO_ELEV": 0, "PAVED": null, "PRIVATE": null, "GEO_SOURCE": 0, "NAME": "KAPIOLANI BLVD", "Shape_Leng": 4.3742380601899997 }, "geometry": { "type": "MultiLineString", "coordinates": [ [ [ -157.83468, 21.29032 ], [ -157.83464, 21.2903 ] ] ] } },
{ "type": "Feature", "properties": { "FID_kau_ce": 0, "SEGMENTID": 0.0, "ST_FULLNM": null, "ST_PRE": null, "ST_NAME": null, "ST_TYPE": null, "ST_SUF": null, "A1_FULLNM": null, "A1_ST_PRE": null, "A1_ST_NAME": null, "A1_ST_TYPE": null, "A1_ST_SUF": null, "A2_FULLNM": null, "A2_ST_PRE": null, "A2_ST_NAME": null, "A2_ST_TYPE": null, "A2_ST_SUF": null, "ROUTE_NUM": null, "ROUTE_TYPE": 0, "LF_ADDR": null, "LT_ADDR": null, "RF_ADDR": null, "RT_ADDR": null, "ONEWAY": 0, "FROM_ELEV": 0, "TO_ELEV": 0, "PAVED": null, "PRIVATE": null, "GEO_SOURCE": 0, "NAME": "KAPIOLANI BLVD", "Shape_Leng": 5.2425308164300004 }, "geometry": { "type": "MultiLineString", "coordinates": [ [ [ -157.83464, 21.2903 ], [ -157.83459, 21.29029 ] ] ] } },
{ "type": "Feature", "properties": { "FID_kau_ce": 0, "SEGMENTID": 0.0, "ST_FULLNM": null, "ST_PRE": null, "ST_NAME": null, "ST_TYPE": null, "ST_SUF": null, "A1_FULLNM": null, "A1_ST_PRE": null, "A1_ST_NAME": null, "A1_ST_TYPE": null, "A1_ST_SUF": null, "A2_FULLNM": null, "A2_ST_PRE": null, "A2_ST_NAME": null, "A2_ST_TYPE": null, "A2_ST_SUF": null, "ROUTE_NUM": null, "ROUTE_TYPE": 0, "LF_ADDR": null, "LT_ADDR": null, "RF_ADDR": null, "RT_ADDR": null, "ONEWAY": 0, "FROM_ELEV": 0, "TO_ELEV": 0, "PAVED": null, "PRIVATE": null, "GEO_SOURCE": 0, "NAME": "KAM HWY", "Shape_Leng": 324.00130829699998 }, "geometry": { "type": "MultiLineString", "coordinates": [ [ [ -158.10303, 21.5982 ], [ -158.10308, 21.59621 ] ], [ [ -158.10305, 21.59563 ], [ -158.10305, 21.59562 ] ], [ [ -158.10308, 21.59547 ], [ -158.10324, 21.59461 ] ] ] } },
{ "type": "Feature", "properties": { "FID_kau_ce": 0, "SEGMENTID": 0.0, "ST_FULLNM": null, "ST_PRE": null, "ST_NAME": null, "ST_TYPE": null, "ST_SUF": null, "A1_FULLNM": null, "A1_ST_PRE": null, "A1_ST_NAME": null, "A1_ST_TYPE": null, "A1_ST_SUF": null, "A2_FULLNM": null, "A2_ST_PRE": null, "A2_ST_NAME": null, "A2_ST_TYPE": null, "A2_ST_SUF": null, "ROUTE_NUM": null, "ROUTE_TYPE": 0, "LF_ADDR": null, "LT_ADDR": null, "RF_ADDR": null, "RT_ADDR": null, "ONEWAY": 0, "FROM_ELEV": 0, "TO_ELEV": 0, "PAVED": null, "PRIVATE": null, "GEO_SOURCE": 0, "NAME": null, "Shape_Leng": 886.939000104 }, "geometry": { "type": "MultiLineString", "coordinates": [ [ [ -158.24262, 21.54986 ], [ -158.24039, 21.54759 ], [ -158.24015, 21.54605 ] ], [ [ -158.24284, 21.55008 ], [ -158.24273, 21.54998 ] ], [ [ -158.24353, 21.55078 ], [ -158.24307, 21.55031 ] ], [ [ -158.24442, 21.5515 ], [ -158.24386, 21.55108 ] ], [ [ -158.24495, 21.55186 ], [ -158.24488, 21.5518 ] ], [ [ -158.24523, 21.55214 ], [ -158.24519, 21.55209 ] ], [ [ -158.24673, 21.55364 ], [ -158.24543, 21.55239 ] ] ] } }
]
}
