{
"type": "FeatureCollection",
"name": "Flood_Hazard_AH",
"crs": { "type": "name", "properties": { "name": "urn:ogc:def:crs:OGC:1.3:CRS84" } },
"xy_coordinate_resolution": 1e-05,
"features": [
{ "type": "Feature", "properties": { "fld_zone": "AH", "static_bfe": 6.0 }, "geometry": { "type": "Polygon", "coordinates": [ [ [ -156.45986, 20.75343 ], [ -156.45985, 20.75339 ], [ -156.45985, 20.75335 ], [ -156.45985, 20.75333 ], [ -156.45984, 20.7533 ], [ -156.45983, 20.75328 ], [ -156.45981, 20.75325 ], [ -156.45978, 20.7532 ], [ -156.4597, 20.75308 ], [ -156.45968, 20.75304 ], [ -156.45966, 20.75301 ], [ -156.4596, 20.75286 ], [ -156.45959, 20.75281 ], [ -156.45957, 20.75276 ], [ -156.45956, 20.75271 ], [ -156.45955, 20.75267 ], [ -156.45955, 20.75262 ], [ -156.45955, 20.75258 ], [ -156.45955, 20.75256 ], [ -156.45956, 20.75254 ], [ -156.45957, 20.75249 ], [ -156.4596, 20.75244 ], [ -156.45965, 20.75233 ], [ -156.45967, 20.75228 ], [ -156.45969, 20.75223 ], [ -156.4597, 20.75219 ], [ -156.45971, 20.75212 ], [ -156.45971, 20.75204 ], [ -156.45971, 20.75195 ], [ -156.4597, 20.75184 ], [ -156.45969, 20.75176 ], [ -156.45967, 20.75167 ], [ -156.45965, 20.75157 ], [ -156.45961, 20.75147 ], [ -156.45958, 20.75138 ], [ -156.45954, 20.75128 ], [ -156.45935, 20.75088 ], [ -156.4593, 20.75078 ], [ -156.45927, 20.75071 ], [ -156.45925, 20.75066 ], [ -156.45922, 20.75061 ], [ -156.45909, 20.7504 ], [ -156.45904, 20.75031 ], [ -156.45898, 20.7502 ], [ -156.45886, 20.74994 ], [ -156.45881, 20.74983 ], [ -156.45875, 20.74971 ], [ -156.45851, 20.74929 ], [ -156.45842, 20.74911 ], [ -156.45837, 20.74901 ], [ -156.45834, 20.74894 ], [ -156.45834, 20.74894 ], [ -156.45834, 20.74963 ], [ -156.45834, 20.75144 ], [ -156.45834, 20.75501 ], [ -156.45847, 20.75496 ], [ -156.45848, 20.75496 ], [ -156.4585, 20.75496 ], [ -156.45852, 20.75496 ], [ -156.45857, 20.75496 ], [ -156.4586, 20.75497 ], [ -156.45861, 20.75497 ], [ -156.45863, 20.75498 ], [ -156.45864, 20.75499 ], [ -156.45866, 20.75501 ], [ -156.45867, 20.75502 ], [ -156.45869, 20.75506 ], [ -156.45871, 20.7551 ], [ -156.45873, 20.75514 ], [ -156.45875, 20.75518 ], [ -156.45884, 20.75529 ], [ -156.45887, 20.75533 ], [ -156.4589, 20.75536 ], [ -156.45897, 20.75543 ], [ -156.45899, 20.75545 ], [ -156.459, 20.75546 ], [ -156.45903, 20.75548 ], [ -156.45906, 20.7555 ], [ -156.45909, 20.75552 ], [ -156.45912, 20.75554 ], [ -156.45914, 20.75555 ], [ -156.45919, 20.75556 ], [ -156.45924, 20.75557 ], [ -156.45929, 20.75558 ], [ -156.45933, 20.75558 ], [ -156.45937, 20.75558 ], [ -156.4594, 20.75558 ], [ -156.45943, 20.75557 ], [ -156.45946, 20.75556 ], [ -156.45945, 20.75551 ], [ -156.45944, 20.75545 ], [ -156.45943, 20.7554 ], [ -156.45943, 20.75534 ], [ -156.45942, 20.75525 ], [ -156.45943, 20.75515 ], [ -156.45943, 20.75505 ], [ -156.45945, 20.75487 ], [ -156.45947, 20.75475 ], [ -156.45948, 20.75468 ], [ -156.45949, 20.75464 ], [ -156.45949, 20.75463 ], [ -156.45949, 20.75463 ], [ -156.45949, 20.7546 ], [ -156.45951, 20.75451 ], [ -156.45954, 20.75437 ], [ -156.45958, 20.75422 ], [ -156.45962, 20.75408 ], [ -156.45967, 20.75394 ], [ -156.45969, 20.7539 ], [ -156.45971, 20.75386 ], [ -156.45978, 20.75372 ], [ -156.45981, 20.75366 ], [ -156.45983, 20.75362 ], [ -156.45984, 20.75359 ], [ -156.45984, 20.75356 ], [ -156.45985, 20.75353 ], [ -156.45985, 20.75348 ], [ -156.45986, 20.75343 ] ] ] } },
{ "type": "Feature", "properties": { "fld_zone": "AH", "static_bfe": 7.0 }, "geometry": { "type": "Polygon", "coordinates": [ [ [ -156.45825, 20.7683 ], [ -156.4583, 20.76827 ], [ -156.45834, 20.76825 ], [ -156.45834, 20.76825 ], [ -156.45834, 20.76773 ], [ -156.4583, 20.76779 ], [ -156.45822, 20.76791 ], [ -156.45818, 20.76801 ], [ -156.45803, 20.76817 ], [ -156.45802, 20.7682 ], [ -156.45797, 20.76829 ], [ -156.45796, 20.76847 ], [ -156.45796, 20.76867 ], [ -156.458, 20.76888 ], [ -156.45812, 20.76905 ], [ -156.45805, 20.76918 ], [ -156.45795, 20.76964 ], [ -156.45796, 20.76973 ], [ -156.45797, 20.76983 ], [ -156.45798, 20.76983 ], [ -156.45805, 20.77009 ], [ -156.45812, 20.77053 ], [ -156.45812, 20.77084 ], [ -156.45834, 20.77084 ], [ -156.45834, 20.76844 ], [ -156.45833, 20.7684 ], [ -156.4583, 20.76836 ], [ -156.45825, 20.7683 ] ] ] } },
{ "type": "Feature", "properties": { "fld_zone": "AH", "static_bfe": 22.0 }, "geometry": { "type": "Polygon", "coordinates": [ [ [ -156.44413, 20.8903 ], [ -156.44413, 20.89029 ], [ -156.44416, 20.8902 ], [ -156.44418, 20.89008 ], [ -156.44423, 20.88994 ], [ -156.44426, 20.88982 ], [ -156.44425, 20.88974 ], [ -156.4442, 20.88968 ], [ -156.44415, 20.88961 ], [ -156.44407, 20.88954 ], [ -156.44399, 20.88951 ], [ -156.44389, 20.88946 ], [ -156.44387, 20.88939 ], [ -156.44389, 20.88927 ], [ -156.4439, 20.88919 ], [ -156.44386, 20.88919 ], [ -156.44381, 20.88922 ], [ -156.44375, 20.88933 ], [ -156.44372, 20.88941 ], [ -156.44368, 20.88947 ], [ -156.44363, 20.88954 ], [ -156.44355, 20.88961 ], [ -156.4435, 20.8897 ], [ -156.44344, 20.88977 ], [ -156.44336, 20.88985 ], [ -156.4433, 20.88995 ], [ -156.44321, 20.89006 ], [ -156.44314, 20.89012 ], [ -156.44307, 20.89019 ], [ -156.44301, 20.89031 ], [ -156.44295, 20.89038 ], [ -156.4429, 20.89036 ], [ -156.44288, 20.89033 ], [ -156.44287, 20.89027 ], [ -156.44291, 20.89021 ], [ -156.44294, 20.89015 ], [ -156.44299, 20.89006 ], [ -156.44305, 20.88997 ], [ -156.44312, 20.88988 ], [ -156.44318, 20.88979 ], [ -156.44323, 20.88972 ], [ -156.44326, 20.88965 ], [ -156.4433, 20.88956 ], [ -156.44333, 20.88946 ], [ -156.44335, 20.88931 ], [ -156.44338, 20.88915 ], [ -156.44335, 20.88907 ], [ -156.44329, 20.88896 ], [ -156.44324, 20.88887 ], [ -156.44317, 20.88878 ], [ -156.44309, 20.88874 ], [ -156.44301, 20.88872 ], [ -156.44298, 20.88866 ], [ -156.44301, 20.88861 ], [ -156.44303, 20.88855 ], [ -156.44301, 20.88851 ], [ -156.44296, 20.88848 ], [ -156.44282, 20.88847 ], [ -156.44265, 20.88844 ], [ -156.4425, 20.8884 ], [ -156.44232, 20.88837 ], [ -156.4422, 20.88839 ], [ -156.44205, 20.88842 ], [ -156.44192, 20.88849 ], [ -156.44181, 20.88858 ], [ -156.44172, 20.8887 ], [ -156.44164, 20.88879 ], [ -156.44157, 20.88887 ], [ -156.44153, 20.88896 ], [ -156.44147, 20.88909 ], [ -156.44139, 20.88919 ], [ -156.44133, 20.88926 ], [ -156.44132, 20.88933 ], [ -156.44139, 20.88942 ], [ -156.44147, 20.88948 ], [ -156.44147, 20.88955 ], [ -156.44145, 20.88957 ], [ -156.44141, 20.88957 ], [ -156.44138, 20.88954 ], [ -156.4413, 20.88949 ], [ -156.44125, 20.88948 ], [ -156.4412, 20.88953 ], [ -156.44114, 20.88961 ], [ -156.44108, 20.88973 ], [ -156.44102, 20.88979 ], [ -156.44099, 20.88986 ], [ -156.4409, 20.88995 ], [ -156.44079, 20.89007 ], [ -156.44072, 20.89017 ], [ -156.44062, 20.89027 ], [ -156.44046, 20.89049 ], [ -156.44036, 20.89064 ], [ -156.44029, 20.89072 ], [ -156.44026, 20.8908 ], [ -156.44029, 20.89085 ], [ -156.44037, 20.89092 ], [ -156.44048, 20.89097 ], [ -156.4406, 20.89103 ], [ -156.44069, 20.89109 ], [ -156.44079, 20.89118 ], [ -156.44091, 20.89126 ], [ -156.44104, 20.89136 ], [ -156.44114, 20.89143 ], [ -156.44121, 20.89151 ], [ -156.44135, 20.8916 ], [ -156.44144, 20.89169 ], [ -156.44144, 20.89174 ], [ -156.4414, 20.89179 ], [ -156.44133, 20.89182 ], [ -156.44127, 20.89181 ], [ -156.44117, 20.89176 ], [ -156.44103, 20.89164 ], [ -156.44084, 20.89153 ], [ -156.44059, 20.89137 ], [ -156.44037, 20.89123 ], [ -156.44014, 20.89111 ], [ -156.43992, 20.89097 ], [ -156.43982, 20.89092 ], [ -156.43975, 20.89092 ], [ -156.43966, 20.89093 ], [ -156.4396, 20.89097 ], [ -156.43956, 20.89104 ], [ -156.43956, 20.89115 ], [ -156.43959, 20.8912 ], [ -156.4397, 20.89125 ], [ -156.43976, 20.89129 ], [ -156.43983, 20.8913 ], [ -156.43994, 20.89132 ], [ -156.44006, 20.89138 ], [ -156.44013, 20.89146 ], [ -156.44017, 20.89152 ], [ -156.44019, 20.89161 ], [ -156.44024, 20.89166 ], [ -156.44024, 20.89174 ], [ -156.44027, 20.89189 ], [ -156.44028, 20.89201 ], [ -156.44033, 20.89206 ], [ -156.4404, 20.89212 ], [ -156.44044, 20.8922 ], [ -156.44051, 20.89229 ], [ -156.44062, 20.89239 ], [ -156.44079, 20.89256 ], [ -156.4408, 20.89263 ], [ -156.44085, 20.8927 ], [ -156.44089, 20.89277 ], [ -156.44157, 20.89261 ], [ -156.44208, 20.89242 ], [ -156.44217, 20.89234 ], [ -156.44223, 20.89226 ], [ -156.44243, 20.89208 ], [ -156.4427, 20.89182 ], [ -156.44298, 20.89156 ], [ -156.44325, 20.89129 ], [ -156.4435, 20.89105 ], [ -156.44364, 20.8909 ], [ -156.44413, 20.8903 ] ] ] } },
{ "type": "Feature", "properties": { "fld_zone": "AH", "static_bfe": 7.0 }, "geometry": { "type": "Polygon", "coordinates": [ [ [ -156.45872, 20.77466 ], [ -156.45873, 20.77469 ], [ -156.45918, 20.77519 ], [ -156.45938, 20.77543 ], [ -156.45962, 20.77584 ], [ -156.45974, 20.77615 ], [ -156.45986, 20.77643 ], [ -156.45991, 20.77654 ], [ -156.45995, 20.77663 ], [ -156.46008, 20.77683 ], [ -156.46023, 20.77707 ], [ -156.46028, 20.77719 ], [ -156.46034, 20.77736 ], [ -156.46044, 20.77763 ], [ -156.46053, 20.77784 ], [ -156.46065, 20.77808 ], [ -156.46082, 20.77829 ], [ -156.46089, 20.77825 ], [ -156.46064, 20.77734 ], [ -156.46057, 20.77684 ], [ -156.46053, 20.77651 ], [ -156.46049, 20.77613 ], [ -156.46043, 20.77588 ], [ -156.4604, 20.77565 ], [ -156.46033, 20.77495 ], [ -156.46026, 20.77445 ], [ -156.46017, 20.77403 ], [ -156.45995, 20.7731 ], [ -156.45963, 20.7719 ], [ -156.45961, 20.77183 ], [ -156.45957, 20.77168 ], [ -156.45953, 20.77152 ], [ -156.4592, 20.77034 ], [ -156.45914, 20.7701 ], [ -156.45891, 20.76927 ], [ -156.45888, 20.76918 ], [ -156.45849, 20.76784 ], [ -156.45841, 20.76756 ], [ -156.45838, 20.76767 ], [ -156.45836, 20.7677 ], [ -156.45834, 20.76773 ], [ -156.45834, 20.76825 ], [ -156.45834, 20.76825 ], [ -156.45853, 20.76826 ], [ -156.45857, 20.76832 ], [ -156.45862, 20.76847 ], [ -156.45864, 20.76852 ], [ -156.45864, 20.76859 ], [ -156.45861, 20.76864 ], [ -156.45857, 20.76866 ], [ -156.45852, 20.76867 ], [ -156.45848, 20.76867 ], [ -156.45844, 20.76865 ], [ -156.45839, 20.76859 ], [ -156.45836, 20.76852 ], [ -156.45834, 20.76844 ], [ -156.45834, 20.76844 ], [ -156.45834, 20.77084 ], [ -156.45812, 20.77084 ], [ -156.45812, 20.77136 ], [ -156.4581, 20.77185 ], [ -156.45817, 20.77222 ], [ -156.45834, 20.77292 ], [ -156.45845, 20.77311 ], [ -156.45844, 20.77311 ], [ -156.45847, 20.77319 ], [ -156.45847, 20.77329 ], [ -156.45841, 20.7733 ], [ -156.45845, 20.77364 ], [ -156.45855, 20.77403 ], [ -156.45865, 20.77448 ], [ -156.45872, 20.77466 ] ], [ [ -156.45947, 20.77293 ], [ -156.45944, 20.77303 ], [ -156.45935, 20.77304 ], [ -156.45924, 20.77299 ], [ -156.4592, 20.77301 ], [ -156.45912, 20.77307 ], [ -156.45904, 20.77313 ], [ -156.45895, 20.77311 ], [ -156.4589, 20.77301 ], [ -156.45889, 20.77287 ], [ -156.45903, 20.77282 ], [ -156.45911, 20.77276 ], [ -156.45911, 20.77274 ], [ -156.45912, 20.77268 ], [ -156.45917, 20.77261 ], [ -156.45936, 20.77278 ], [ -156.45947, 20.77293 ] ] ] } },
{ "type": "Feature", "properties": { "fld_zone": "AH", "static_bfe": 6.0 }, "geometry": { "type": "Polygon", "coordinates": [ [ [ -156.45281, 20.74497 ], [ -156.45282, 20.74491 ], [ -156.45283, 20.74485 ], [ -156.45283, 20.74481 ], [ -156.45286, 20.74476 ], [ -156.4529, 20.74473 ], [ -156.4529, 20.74472 ], [ -156.45288, 20.74472 ], [ -156.45271, 20.74474 ], [ -156.45253, 20.74475 ], [ -156.45247, 20.74476 ], [ -156.45232, 20.74477 ], [ -156.45228, 20.74477 ], [ -156.45229, 20.74479 ], [ -156.4523, 20.74484 ], [ -156.4523, 20.74491 ], [ -156.45229, 20.74499 ], [ -156.45229, 20.74505 ], [ -156.45227, 20.74512 ], [ -156.45224, 20.74521 ], [ -156.45222, 20.74525 ], [ -156.45218, 20.74535 ], [ -156.45209, 20.74539 ], [ -156.45204, 20.74543 ], [ -156.45199, 20.74548 ], [ -156.45197, 20.74554 ], [ -156.45196, 20.74563 ], [ -156.45198, 20.7457 ], [ -156.45198, 20.7457 ], [ -156.45205, 20.7458 ], [ -156.45205, 20.74594 ], [ -156.4519, 20.74595 ], [ -156.45177, 20.74598 ], [ -156.4517, 20.74618 ], [ -156.45176, 20.74637 ], [ -156.45201, 20.74664 ], [ -156.45214, 20.74667 ], [ -156.45223, 20.74669 ], [ -156.45235, 20.74689 ], [ -156.45231, 20.74727 ], [ -156.45227, 20.74778 ], [ -156.45216, 20.74801 ], [ -156.45215, 20.74844 ], [ -156.45207, 20.74866 ], [ -156.45202, 20.74883 ], [ -156.45189, 20.749 ], [ -156.45185, 20.74917 ], [ -156.45192, 20.74937 ], [ -156.45203, 20.74964 ], [ -156.45221, 20.74974 ], [ -156.45233, 20.74982 ], [ -156.45235, 20.75012 ], [ -156.45254, 20.75032 ], [ -156.45288, 20.75054 ], [ -156.45302, 20.75069 ], [ -156.45323, 20.75082 ], [ -156.45334, 20.75099 ], [ -156.45352, 20.75149 ], [ -156.45361, 20.75198 ], [ -156.45361, 20.75204 ], [ -156.4536, 20.75213 ], [ -156.45346, 20.75234 ], [ -156.45334, 20.75239 ], [ -156.45318, 20.75239 ], [ -156.45312, 20.75244 ], [ -156.45302, 20.75259 ], [ -156.4529, 20.75257 ], [ -156.45278, 20.75259 ], [ -156.45271, 20.75276 ], [ -156.45271, 20.75292 ], [ -156.45275, 20.75308 ], [ -156.45294, 20.75354 ], [ -156.45324, 20.75393 ], [ -156.45327, 20.75397 ], [ -156.45329, 20.75409 ], [ -156.45365, 20.75445 ], [ -156.45393, 20.75475 ], [ -156.45424, 20.75523 ], [ -156.45427, 20.75523 ], [ -156.4546, 20.75524 ], [ -156.45483, 20.75528 ], [ -156.45484, 20.75528 ], [ -156.45518, 20.75526 ], [ -156.45545, 20.75525 ], [ -156.45558, 20.75533 ], [ -156.45571, 20.75548 ], [ -156.45581, 20.75555 ], [ -156.45587, 20.75556 ], [ -156.4559, 20.75544 ], [ -156.45598, 20.7554 ], [ -156.45615, 20.75548 ], [ -156.45626, 20.75561 ], [ -156.45635, 20.75591 ], [ -156.45644, 20.75589 ], [ -156.45663, 20.75588 ], [ -156.45667, 20.75584 ], [ -156.45671, 20.75581 ], [ -156.45683, 20.75559 ], [ -156.45688, 20.7555 ], [ -156.45708, 20.75522 ], [ -156.45737, 20.75513 ], [ -156.45784, 20.75508 ], [ -156.45825, 20.75504 ], [ -156.45828, 20.75503 ], [ -156.45834, 20.75501 ], [ -156.45834, 20.75501 ], [ -156.45834, 20.75144 ], [ -156.45834, 20.74963 ], [ -156.45834, 20.74894 ], [ -156.45833, 20.74892 ], [ -156.45829, 20.74883 ], [ -156.45825, 20.74875 ], [ -156.45822, 20.74866 ], [ -156.45815, 20.74846 ], [ -156.45811, 20.74836 ], [ -156.45808, 20.74829 ], [ -156.45805, 20.74822 ], [ -156.45791, 20.74799 ], [ -156.45787, 20.74791 ], [ -156.45783, 20.74783 ], [ -156.4578, 20.74776 ], [ -156.45778, 20.74768 ], [ -156.45775, 20.74759 ], [ -156.45772, 20.7475 ], [ -156.45768, 20.74734 ], [ -156.45765, 20.74722 ], [ -156.45762, 20.74709 ], [ -156.45756, 20.74678 ], [ -156.45754, 20.74666 ], [ -156.45747, 20.74638 ], [ -156.45745, 20.7463 ], [ -156.45744, 20.74625 ], [ -156.45744, 20.74623 ], [ -156.45743, 20.74614 ], [ -156.45742, 20.74607 ], [ -156.45742, 20.74599 ], [ -156.45743, 20.74592 ], [ -156.45743, 20.74588 ], [ -156.45743, 20.74581 ], [ -156.45744, 20.74575 ], [ -156.45745, 20.74571 ], [ -156.45746, 20.74568 ], [ -156.45747, 20.74566 ], [ -156.45749, 20.74563 ], [ -156.45751, 20.7456 ], [ -156.45754, 20.74557 ], [ -156.45758, 20.74554 ], [ -156.45758, 20.74553 ], [ -156.45753, 20.74554 ], [ -156.45746, 20.74556 ], [ -156.45741, 20.74557 ], [ -156.45732, 20.74559 ], [ -156.45725, 20.74559 ], [ -156.45715, 20.7456 ], [ -156.45704, 20.7456 ], [ -156.45695, 20.74557 ], [ -156.45684, 20.7455 ], [ -156.45657, 20.74551 ], [ -156.45644, 20.74547 ], [ -156.45647, 20.74531 ], [ -156.45645, 20.74524 ], [ -156.45628, 20.74522 ], [ -156.45622, 20.74502 ], [ -156.45603, 20.74495 ], [ -156.45596, 20.74492 ], [ -156.45523, 20.74505 ], [ -156.45495, 20.74513 ], [ -156.45477, 20.74515 ], [ -156.45468, 20.74514 ], [ -156.45457, 20.74512 ], [ -156.45439, 20.74503 ], [ -156.45416, 20.74477 ], [ -156.45389, 20.7448 ], [ -156.45376, 20.74483 ], [ -156.45374, 20.74487 ], [ -156.4538, 20.74493 ], [ -156.45401, 20.74502 ], [ -156.45414, 20.74505 ], [ -156.45409, 20.74511 ], [ -156.4537, 20.74514 ], [ -156.45335, 20.74519 ], [ -156.45294, 20.74522 ], [ -156.45284, 20.74519 ], [ -156.45284, 20.74519 ], [ -156.45283, 20.74516 ], [ -156.45282, 20.74514 ], [ -156.45282, 20.74513 ], [ -156.45282, 20.74513 ], [ -156.45281, 20.74497 ] ], [ [ -156.45406, 20.74546 ], [ -156.45417, 20.74546 ], [ -156.45426, 20.74554 ], [ -156.45433, 20.74575 ], [ -156.45442, 20.74597 ], [ -156.45452, 20.74611 ], [ -156.45456, 20.74625 ], [ -156.45454, 20.7465 ], [ -156.45456, 20.74664 ], [ -156.45463, 20.74683 ], [ -156.45454, 20.74698 ], [ -156.45458, 20.74715 ], [ -156.45465, 20.74729 ], [ -156.45465, 20.74745 ], [ -156.45456, 20.74753 ], [ -156.45447, 20.74753 ], [ -156.45432, 20.74739 ], [ -156.45435, 20.74722 ], [ -156.45431, 20.74707 ], [ -156.45432, 20.74698 ], [ -156.45436, 20.74692 ], [ -156.45429, 20.74679 ], [ -156.45424, 20.7466 ], [ -156.45417, 20.74651 ], [ -156.45404, 20.74631 ], [ -156.45395, 20.74613 ], [ -156.45395, 20.74586 ], [ -156.45391, 20.74567 ], [ -156.45396, 20.74551 ], [ -156.45406, 20.74546 ] ], [ [ -156.45581, 20.7535 ], [ -156.45583, 20.75355 ], [ -156.45581, 20.75361 ], [ -156.45578, 20.75361 ], [ -156.45573, 20.75355 ], [ -156.45568, 20.75352 ], [ -156.45563, 20.75358 ], [ -156.45563, 20.75364 ], [ -156.4556, 20.75375 ], [ -156.45553, 20.7538 ], [ -156.45549, 20.75377 ], [ -156.45542, 20.75363 ], [ -156.45536, 20.75362 ], [ -156.45532, 20.75363 ], [ -156.45526, 20.75367 ], [ -156.45522, 20.75374 ], [ -156.45516, 20.75374 ], [ -156.45509, 20.75372 ], [ -156.455, 20.75362 ], [ -156.4549, 20.75356 ], [ -156.4548, 20.75346 ], [ -156.45476, 20.75334 ], [ -156.45478, 20.75314 ], [ -156.4549, 20.75308 ], [ -156.45501, 20.75302 ], [ -156.45505, 20.75287 ], [ -156.45517, 20.75282 ], [ -156.45539, 20.75278 ], [ -156.45554, 20.75284 ], [ -156.45564, 20.75285 ], [ -156.45575, 20.75282 ], [ -156.45595, 20.75277 ], [ -156.45608, 20.75277 ], [ -156.45613, 20.75282 ], [ -156.45611, 20.7529 ], [ -156.45605, 20.75293 ], [ -156.45594, 20.75301 ], [ -156.45584, 20.75309 ], [ -156.45583, 20.75316 ], [ -156.45582, 20.75323 ], [ -156.45581, 20.75336 ], [ -156.45581, 20.7535 ] ], [ [ -156.45494, 20.75058 ], [ -156.45499, 20.75087 ], [ -156.45504, 20.75107 ], [ -156.45517, 20.75117 ], [ -156.45516, 20.75129 ], [ -156.45517, 20.75138 ], [ -156.4551, 20.75147 ], [ -156.45509, 20.7516 ], [ -156.45511, 20.75168 ], [ -156.45523, 20.75172 ], [ -156.45533, 20.75164 ], [ -156.45542, 20.75163 ], [ -156.45548, 20.75166 ], [ -156.45551, 20.75179 ], [ -156.45556, 20.75188 ], [ -156.45566, 20.7519 ], [ -156.45573, 20.75188 ], [ -156.4558, 20.75174 ], [ -156.45589, 20.75164 ], [ -156.45593, 20.7517 ], [ -156.45597, 20.75182 ], [ -156.45599, 20.75201 ], [ -156.45599, 20.75208 ], [ -156.45593, 20.75217 ], [ -156.45585, 20.75224 ], [ -156.45575, 20.75241 ], [ -156.45575, 20.75249 ], [ -156.45564, 20.75255 ], [ -156.4556, 20.75254 ], [ -156.45551, 20.75244 ], [ -156.45534, 20.75228 ], [ -156.45528, 20.75222 ], [ -156.45521, 20.7522 ], [ -156.45515, 20.75227 ], [ -156.45513, 20.75241 ], [ -156.4551, 20.75246 ], [ -156.45497, 20.75236 ], [ -156.4549, 20.75224 ], [ -156.45492, 20.75212 ], [ -156.45492, 20.75203 ], [ -156.45483, 20.7519 ], [ -156.45474, 20.75171 ], [ -156.45476, 20.75162 ], [ -156.45484, 20.7515 ], [ -156.45479, 20.75134 ], [ -156.45469, 20.7513 ], [ -156.45447, 20.75129 ], [ -156.45433, 20.75125 ], [ -156.45431, 20.75118 ], [ -156.45437, 20.75108 ], [ -156.45441, 20.75099 ], [ -156.45442, 20.75081 ], [ -156.45448, 20.75068 ], [ -156.45453, 20.75036 ], [ -156.45459, 20.75018 ], [ -156.45463, 20.7501 ], [ -156.45473, 20.75009 ], [ -156.45477, 20.75003 ], [ -156.45483, 20.75 ], [ -156.45489, 20.75 ], [ -156.45497, 20.75017 ], [ -156.45506, 20.75031 ], [ -156.4551, 20.75039 ], [ -156.455, 20.75051 ], [ -156.45494, 20.75058 ] ], [ [ -156.45338, 20.74696 ], [ -156.45335, 20.74689 ], [ -156.45336, 20.74682 ], [ -156.45342, 20.74666 ], [ -156.45342, 20.74656 ], [ -156.45346, 20.74655 ], [ -156.45352, 20.7466 ], [ -156.4536, 20.74655 ], [ -156.45372, 20.74651 ], [ -156.45379, 20.74666 ], [ -156.45384, 20.74681 ], [ -156.45395, 20.74694 ], [ -156.45399, 20.7471 ], [ -156.45399, 20.74723 ], [ -156.45393, 20.74741 ], [ -156.45404, 20.74753 ], [ -156.45419, 20.74766 ], [ -156.45428, 20.74776 ], [ -156.45432, 20.748 ], [ -156.45432, 20.74813 ], [ -156.45423, 20.74827 ], [ -156.45423, 20.74843 ], [ -156.45426, 20.74865 ], [ -156.45425, 20.74874 ], [ -156.45419, 20.74872 ], [ -156.45418, 20.74861 ], [ -156.45413, 20.74852 ], [ -156.45404, 20.74845 ], [ -156.45403, 20.74835 ], [ -156.45406, 20.7482 ], [ -156.45403, 20.74809 ], [ -156.45396, 20.74804 ], [ -156.45388, 20.7481 ], [ -156.45385, 20.74829 ], [ -156.45374, 20.74839 ], [ -156.45368, 20.74853 ], [ -156.45364, 20.74869 ], [ -156.45364, 20.74882 ], [ -156.45355, 20.74888 ], [ -156.45343, 20.74891 ], [ -156.45322, 20.74899 ], [ -156.4531, 20.74907 ], [ -156.45307, 20.74918 ], [ -156.45304, 20.74927 ], [ -156.45296, 20.74933 ], [ -156.45287, 20.74931 ], [ -156.45272, 20.7492 ], [ -156.45259, 20.74909 ], [ -156.45256, 20.74888 ], [ -156.45257, 20.74871 ], [ -156.45239, 20.74864 ], [ -156.45229, 20.74856 ], [ -156.45228, 20.74834 ], [ -156.45235, 20.74817 ], [ -156.4525, 20.74803 ], [ -156.45264, 20.74799 ], [ -156.45277, 20.74803 ], [ -156.45286, 20.74816 ], [ -156.45293, 20.74824 ], [ -156.453, 20.74827 ], [ -156.45312, 20.74823 ], [ -156.4532, 20.74819 ], [ -156.45318, 20.74811 ], [ -156.45305, 20.748 ], [ -156.45301, 20.74793 ], [ -156.45281, 20.74793 ], [ -156.45263, 20.7479 ], [ -156.45242, 20.74784 ], [ -156.45237, 20.74768 ], [ -156.45245, 20.74733 ], [ -156.45255, 20.74712 ], [ -156.45264, 20.74698 ], [ -156.45278, 20.74691 ], [ -156.45295, 20.74691 ], [ -156.45305, 20.74697 ], [ -156.45314, 20.74693 ], [ -156.45319, 20.74689 ], [ -156.45326, 20.74695 ], [ -156.45333, 20.747 ], [ -156.45338, 20.74696 ] ], [ [ -156.45339, 20.75017 ], [ -156.45335, 20.75021 ], [ -156.45321, 20.75023 ], [ -156.45309, 20.75022 ], [ -156.45296, 20.75013 ], [ -156.45296, 20.75002 ], [ -156.45308, 20.74998 ], [ -156.45323, 20.74998 ], [ -156.45333, 20.75002 ], [ -156.45337, 20.75009 ], [ -156.45339, 20.75017 ] ] ] } },
{ "type": "Feature", "properties": { "fld_zone": "AH", "static_bfe": 7.0 }, "geometry": { "type": "MultiPolygon", "coordinates": [ [ [ [ -156.45578, 20.73461 ], [ -156.45573, 20.73456 ], [ -156.45569, 20.73456 ], [ -156.45564, 20.73456 ], [ -156.45557, 20.73459 ], [ -156.45556, 20.73472 ], [ -156.45563, 20.73487 ], [ -156.45558, 20.73512 ], [ -156.45558, 20.73533 ], [ -156.45558, 20.7354 ], [ -156.45552, 20.73549 ], [ -156.45555, 20.73574 ], [ -156.45557, 20.73583 ], [ -156.45557, 20.73592 ], [ -156.45562, 20.73592 ], [ -156.45558, 20.73607 ], [ -156.45562, 20.73626 ], [ -156.45572, 20.73639 ], [ -156.45579, 20.7366 ], [ -156.45584, 20.73669 ], [ -156.4558, 20.73692 ], [ -156.45589, 20.73701 ], [ -156.45595, 20.73709 ], [ -156.45583, 20.73724 ], [ -156.45579, 20.73745 ], [ -156.45576, 20.73784 ], [ -156.45581, 20.73799 ], [ -156.45582, 20.73819 ], [ -156.4559, 20.73843 ], [ -156.4559, 20.73874 ], [ -156.4559, 20.73916 ], [ -156.45595, 20.7395 ], [ -156.45611, 20.73954 ], [ -156.45632, 20.73945 ], [ -156.45648, 20.73943 ], [ -156.45647, 20.73947 ], [ -156.45647, 20.73951 ], [ -156.45647, 20.73955 ], [ -156.45647, 20.73959 ], [ -156.45648, 20.73963 ], [ -156.45648, 20.73967 ], [ -156.45651, 20.73982 ], [ -156.45648, 20.73978 ], [ -156.45646, 20.73975 ], [ -156.45644, 20.73972 ], [ -156.45641, 20.73971 ], [ -156.45637, 20.7397 ], [ -156.45634, 20.73971 ], [ -156.45631, 20.73971 ], [ -156.45627, 20.73972 ], [ -156.45624, 20.73974 ], [ -156.45623, 20.73976 ], [ -156.45624, 20.73995 ], [ -156.45622, 20.7402 ], [ -156.45618, 20.74034 ], [ -156.4561, 20.74051 ], [ -156.45616, 20.74081 ], [ -156.45616, 20.74108 ], [ -156.45627, 20.74113 ], [ -156.45639, 20.74119 ], [ -156.45643, 20.74123 ], [ -156.45639, 20.74132 ], [ -156.45635, 20.74146 ], [ -156.45632, 20.74161 ], [ -156.45622, 20.74182 ], [ -156.45619, 20.74203 ], [ -156.45626, 20.74233 ], [ -156.45633, 20.74265 ], [ -156.45635, 20.74312 ], [ -156.45644, 20.74348 ], [ -156.4565, 20.74398 ], [ -156.45647, 20.74415 ], [ -156.45637, 20.7442 ], [ -156.4563, 20.74418 ], [ -156.45614, 20.74393 ], [ -156.45609, 20.74377 ], [ -156.45607, 20.74369 ], [ -156.45605, 20.74368 ], [ -156.45602, 20.74369 ], [ -156.45599, 20.74376 ], [ -156.4559, 20.74398 ], [ -156.45588, 20.74419 ], [ -156.45602, 20.74455 ], [ -156.45612, 20.74467 ], [ -156.45631, 20.74466 ], [ -156.45633, 20.74495 ], [ -156.45617, 20.7448 ], [ -156.45603, 20.74476 ], [ -156.45595, 20.7448 ], [ -156.45596, 20.74492 ], [ -156.45523, 20.74505 ], [ -156.45495, 20.74513 ], [ -156.45477, 20.74515 ], [ -156.45468, 20.74514 ], [ -156.45457, 20.74512 ], [ -156.45439, 20.74503 ], [ -156.45416, 20.74477 ], [ -156.4543, 20.74468 ], [ -156.45437, 20.74459 ], [ -156.45439, 20.74458 ], [ -156.45459, 20.74456 ], [ -156.45452, 20.74376 ], [ -156.45437, 20.74231 ], [ -156.45418, 20.7406 ], [ -156.45414, 20.7401 ], [ -156.45408, 20.74006 ], [ -156.45401, 20.74004 ], [ -156.45393, 20.74 ], [ -156.45385, 20.73998 ], [ -156.45373, 20.73995 ], [ -156.45367, 20.73991 ], [ -156.45361, 20.7399 ], [ -156.45356, 20.73992 ], [ -156.4535, 20.73992 ], [ -156.45343, 20.73992 ], [ -156.45335, 20.73991 ], [ -156.4533, 20.73991 ], [ -156.45325, 20.73989 ], [ -156.45324, 20.7399 ], [ -156.45323, 20.73993 ], [ -156.45322, 20.73995 ], [ -156.45315, 20.73997 ], [ -156.45314, 20.73996 ], [ -156.45315, 20.73995 ], [ -156.45316, 20.73991 ], [ -156.45318, 20.73986 ], [ -156.45319, 20.7398 ], [ -156.4532, 20.73977 ], [ -156.45323, 20.7396 ], [ -156.45329, 20.73942 ], [ -156.45344, 20.7393 ], [ -156.45365, 20.73913 ], [ -156.45383, 20.73897 ], [ -156.45385, 20.7388 ], [ -156.45384, 20.73866 ], [ -156.45393, 20.73852 ], [ -156.45399, 20.73842 ], [ -156.45393, 20.73835 ], [ -156.45372, 20.73827 ], [ -156.45372, 20.73823 ], [ -156.45377, 20.73813 ], [ -156.45389, 20.73801 ], [ -156.45389, 20.738 ], [ -156.4539, 20.73799 ], [ -156.45396, 20.73792 ], [ -156.45395, 20.73782 ], [ -156.45383, 20.73747 ], [ -156.4538, 20.73736 ], [ -156.45378, 20.73732 ], [ -156.45378, 20.73731 ], [ -156.45377, 20.73731 ], [ -156.45377, 20.7373 ], [ -156.45377, 20.73729 ], [ -156.45377, 20.73728 ], [ -156.45377, 20.73727 ], [ -156.45375, 20.73721 ], [ -156.45377, 20.73704 ], [ -156.45375, 20.73689 ], [ -156.45371, 20.73668 ], [ -156.45372, 20.73667 ], [ -156.45374, 20.73667 ], [ -156.45375, 20.73666 ], [ -156.45376, 20.73665 ], [ -156.45377, 20.73663 ], [ -156.45379, 20.73663 ], [ -156.4538, 20.73663 ], [ -156.45382, 20.73663 ], [ -156.45383, 20.73662 ], [ -156.45384, 20.73663 ], [ -156.45384, 20.73664 ], [ -156.45384, 20.73666 ], [ -156.45384, 20.73668 ], [ -156.45385, 20.73669 ], [ -156.45386, 20.7367 ], [ -156.45387, 20.73672 ], [ -156.45389, 20.73672 ], [ -156.45391, 20.73672 ], [ -156.45392, 20.73672 ], [ -156.45393, 20.73672 ], [ -156.45394, 20.73672 ], [ -156.45395, 20.73672 ], [ -156.45396, 20.73672 ], [ -156.45397, 20.73672 ], [ -156.45397, 20.73671 ], [ -156.45396, 20.73671 ], [ -156.45395, 20.7367 ], [ -156.45394, 20.7367 ], [ -156.45393, 20.7367 ], [ -156.45393, 20.73669 ], [ -156.45393, 20.73668 ], [ -156.45393, 20.73667 ], [ -156.45392, 20.73667 ], [ -156.45392, 20.73666 ], [ -156.45391, 20.73666 ], [ -156.45391, 20.73665 ], [ -156.45392, 20.73665 ], [ -156.45393, 20.73664 ], [ -156.45394, 20.73664 ], [ -156.45394, 20.73663 ], [ -156.45395, 20.73663 ], [ -156.45395, 20.73662 ], [ -156.45396, 20.73662 ], [ -156.45396, 20.73663 ], [ -156.45397, 20.73663 ], [ -156.45397, 20.73664 ], [ -156.45397, 20.73665 ], [ -156.45398, 20.73665 ], [ -156.45398, 20.73666 ], [ -156.45399, 20.73667 ], [ -156.454, 20.73667 ], [ -156.45401, 20.73667 ], [ -156.45402, 20.73667 ], [ -156.45403, 20.73667 ], [ -156.45403, 20.73666 ], [ -156.45404, 20.73666 ], [ -156.45405, 20.73666 ], [ -156.45406, 20.73666 ], [ -156.45407, 20.73665 ], [ -156.45408, 20.73664 ], [ -156.45409, 20.73664 ], [ -156.4541, 20.73663 ], [ -156.4541, 20.73662 ], [ -156.45411, 20.73662 ], [ -156.4541, 20.73661 ], [ -156.4541, 20.7366 ], [ -156.45409, 20.73659 ], [ -156.45408, 20.73658 ], [ -156.45407, 20.73657 ], [ -156.45406, 20.73657 ], [ -156.45406, 20.73656 ], [ -156.45406, 20.73655 ], [ -156.45406, 20.73654 ], [ -156.45406, 20.73653 ], [ -156.45406, 20.73652 ], [ -156.45406, 20.73651 ], [ -156.45406, 20.7365 ], [ -156.45407, 20.7365 ], [ -156.45408, 20.73649 ], [ -156.45409, 20.7365 ], [ -156.45409, 20.73651 ], [ -156.4541, 20.73651 ], [ -156.4541, 20.73652 ], [ -156.45411, 20.73652 ], [ -156.45412, 20.73652 ], [ -156.45413, 20.73651 ], [ -156.45413, 20.7365 ], [ -156.45412, 20.73649 ], [ -156.45412, 20.73648 ], [ -156.45412, 20.73647 ], [ -156.45413, 20.73647 ], [ -156.45414, 20.73647 ], [ -156.45415, 20.73647 ], [ -156.45416, 20.73647 ], [ -156.45417, 20.73647 ], [ -156.45418, 20.73646 ], [ -156.45419, 20.73645 ], [ -156.4542, 20.73644 ], [ -156.4542, 20.73643 ], [ -156.45421, 20.73642 ], [ -156.45422, 20.73641 ], [ -156.45422, 20.7364 ], [ -156.45421, 20.73639 ], [ -156.4542, 20.73639 ], [ -156.45419, 20.73639 ], [ -156.45418, 20.73639 ], [ -156.45417, 20.73639 ], [ -156.45417, 20.73638 ], [ -156.45417, 20.73637 ], [ -156.45416, 20.73637 ], [ -156.45416, 20.73636 ], [ -156.45416, 20.73635 ], [ -156.45416, 20.73634 ], [ -156.45416, 20.73633 ], [ -156.45417, 20.73633 ], [ -156.45417, 20.73632 ], [ -156.45416, 20.73632 ], [ -156.45415, 20.73632 ], [ -156.45414, 20.73633 ], [ -156.45413, 20.73633 ], [ -156.45413, 20.73632 ], [ -156.45412, 20.73632 ], [ -156.45411, 20.73632 ], [ -156.4541, 20.73632 ], [ -156.4541, 20.73631 ], [ -156.45409, 20.73631 ], [ -156.45409, 20.7363 ], [ -156.4541, 20.7363 ], [ -156.4541, 20.73629 ], [ -156.45411, 20.73629 ], [ -156.45412, 20.73629 ], [ -156.45413, 20.73629 ], [ -156.45413, 20.73628 ], [ -156.45413, 20.73627 ], [ -156.45414, 20.73626 ], [ -156.45414, 20.73625 ], [ -156.45414, 20.73624 ], [ -156.45413, 20.73624 ], [ -156.45413, 20.73623 ], [ -156.45412, 20.73623 ], [ -156.45412, 20.73622 ], [ -156.45411, 20.73622 ], [ -156.4541, 20.73622 ], [ -156.4541, 20.73623 ], [ -156.45409, 20.73623 ], [ -156.45408, 20.73623 ], [ -156.45407, 20.73623 ], [ -156.45406, 20.73623 ], [ -156.45406, 20.73624 ], [ -156.45405, 20.73624 ], [ -156.45404, 20.73625 ], [ -156.45403, 20.73625 ], [ -156.45402, 20.73624 ], [ -156.45401, 20.73625 ], [ -156.454, 20.73625 ], [ -156.454, 20.73624 ], [ -156.45399, 20.73624 ], [ -156.45398, 20.73623 ], [ -156.45397, 20.73623 ], [ -156.45396, 20.73623 ], [ -156.45395, 20.73623 ], [ -156.45395, 20.73622 ], [ -156.45394, 20.73621 ], [ -156.45394, 20.7362 ], [ -156.45394, 20.73619 ], [ -156.45393, 20.73619 ], [ -156.45392, 20.73619 ], [ -156.45391, 20.73619 ], [ -156.4539, 20.73619 ], [ -156.45389, 20.73618 ], [ -156.45388, 20.73618 ], [ -156.45387, 20.73618 ], [ -156.45387, 20.73617 ], [ -156.45386, 20.73617 ], [ -156.45385, 20.73616 ], [ -156.45385, 20.73615 ], [ -156.45386, 20.73615 ], [ -156.45387, 20.73615 ], [ -156.45387, 20.73614 ], [ -156.45388, 20.73614 ], [ -156.45389, 20.73614 ], [ -156.4539, 20.73614 ], [ -156.45391, 20.73614 ], [ -156.45391, 20.73615 ], [ -156.45392, 20.73615 ], [ -156.45393, 20.73615 ], [ -156.45394, 20.73615 ], [ -156.45395, 20.73616 ], [ -156.45396, 20.73616 ], [ -156.45397, 20.73617 ], [ -156.45398, 20.73617 ], [ -156.45399, 20.73618 ], [ -156.454, 20.73618 ], [ -156.45401, 20.73618 ], [ -156.45402, 20.73618 ], [ -156.45403, 20.73617 ], [ -156.45404, 20.73617 ], [ -156.45405, 20.73616 ], [ -156.45406, 20.73616 ], [ -156.45407, 20.73616 ], [ -156.45408, 20.73616 ], [ -156.45409, 20.73616 ], [ -156.45409, 20.73615 ], [ -156.45409, 20.73614 ], [ -156.4541, 20.73614 ], [ -156.4541, 20.73613 ], [ -156.4541, 20.73612 ], [ -156.45411, 20.73612 ], [ -156.45411, 20.73611 ], [ -156.4541, 20.7361 ], [ -156.4541, 20.73609 ], [ -156.45411, 20.73609 ], [ -156.45412, 20.73609 ], [ -156.45413, 20.7361 ], [ -156.45414, 20.7361 ], [ -156.45414, 20.73609 ], [ -156.45415, 20.73609 ], [ -156.45415, 20.73608 ], [ -156.45416, 20.73608 ], [ -156.45417, 20.73609 ], [ -156.45417, 20.73608 ], [ -156.45417, 20.73607 ], [ -156.45416, 20.73607 ], [ -156.45416, 20.73606 ], [ -156.45416, 20.73605 ], [ -156.45415, 20.73604 ], [ -156.45415, 20.73603 ], [ -156.45415, 20.73602 ], [ -156.45416, 20.73601 ], [ -156.45416, 20.736 ], [ -156.45417, 20.736 ], [ -156.45417, 20.73599 ], [ -156.45417, 20.73598 ], [ -156.45417, 20.73597 ], [ -156.45417, 20.73596 ], [ -156.45417, 20.73595 ], [ -156.45417, 20.73594 ], [ -156.45418, 20.73594 ], [ -156.45418, 20.73593 ], [ -156.45417, 20.73592 ], [ -156.45417, 20.73591 ], [ -156.45416, 20.7359 ], [ -156.45416, 20.73589 ], [ -156.45415, 20.73589 ], [ -156.45415, 20.73588 ], [ -156.45415, 20.73587 ], [ -156.45416, 20.73587 ], [ -156.45417, 20.73586 ], [ -156.45416, 20.73585 ], [ -156.45416, 20.73584 ], [ -156.45415, 20.73584 ], [ -156.45415, 20.73583 ], [ -156.45415, 20.73582 ], [ -156.45414, 20.73582 ], [ -156.45413, 20.73581 ], [ -156.45412, 20.7358 ], [ -156.45411, 20.7358 ], [ -156.45411, 20.73579 ], [ -156.45412, 20.73579 ], [ -156.45413, 20.73579 ], [ -156.45414, 20.73579 ], [ -156.45415, 20.7358 ], [ -156.45416, 20.7358 ], [ -156.45416, 20.73581 ], [ -156.45416, 20.73582 ], [ -156.45417, 20.73583 ], [ -156.45417, 20.73584 ], [ -156.45418, 20.73584 ], [ -156.45419, 20.73584 ], [ -156.4542, 20.73584 ], [ -156.45421, 20.73583 ], [ -156.45422, 20.73584 ], [ -156.45423, 20.73585 ], [ -156.45424, 20.73586 ], [ -156.45425, 20.73586 ], [ -156.45426, 20.73586 ], [ -156.45427, 20.73586 ], [ -156.45428, 20.73587 ], [ -156.45429, 20.73587 ], [ -156.4543, 20.73587 ], [ -156.4543, 20.73586 ], [ -156.45431, 20.73585 ], [ -156.45432, 20.73585 ], [ -156.45433, 20.73585 ], [ -156.45434, 20.73585 ], [ -156.45434, 20.73586 ], [ -156.45433, 20.73586 ], [ -156.45433, 20.73587 ], [ -156.45433, 20.73588 ], [ -156.45433, 20.73589 ], [ -156.45434, 20.73589 ], [ -156.45434, 20.7359 ], [ -156.45435, 20.7359 ], [ -156.45435, 20.73591 ], [ -156.45436, 20.73591 ], [ -156.45437, 20.73591 ], [ -156.45438, 20.73591 ], [ -156.45439, 20.73591 ], [ -156.45439, 20.7359 ], [ -156.4544, 20.7359 ], [ -156.4544, 20.73589 ], [ -156.45441, 20.73589 ], [ -156.45441, 20.73588 ], [ -156.45442, 20.73588 ], [ -156.45443, 20.73588 ], [ -156.45444, 20.73588 ], [ -156.45445, 20.73588 ], [ -156.45446, 20.73588 ], [ -156.45447, 20.73588 ], [ -156.45448, 20.73588 ], [ -156.45449, 20.73588 ], [ -156.45449, 20.73587 ], [ -156.45449, 20.73586 ], [ -156.4545, 20.73586 ], [ -156.45451, 20.73586 ], [ -156.4545, 20.73585 ], [ -156.45449, 20.73585 ], [ -156.45448, 20.73585 ], [ -156.45447, 20.73585 ], [ -156.45446, 20.73585 ], [ -156.45445, 20.73585 ], [ -156.45444, 20.73585 ], [ -156.45444, 20.73584 ], [ -156.45443, 20.73584 ], [ -156.45442, 20.73583 ], [ -156.45442, 20.73582 ], [ -156.45442, 20.73581 ], [ -156.45443, 20.7358 ], [ -156.45444, 20.7358 ], [ -156.45444, 20.73579 ], [ -156.45444, 20.73578 ], [ -156.45443, 20.73578 ], [ -156.45442, 20.73578 ], [ -156.45441, 20.73579 ], [ -156.4544, 20.73579 ], [ -156.4544, 20.7358 ], [ -156.45439, 20.7358 ], [ -156.45439, 20.73581 ], [ -156.45438, 20.73581 ], [ -156.45437, 20.73581 ], [ -156.45436, 20.73581 ], [ -156.45435, 20.73581 ], [ -156.45435, 20.73582 ], [ -156.45435, 20.73583 ], [ -156.45434, 20.73583 ], [ -156.45434, 20.73582 ], [ -156.45434, 20.7358 ], [ -156.45434, 20.73579 ], [ -156.45433, 20.73578 ], [ -156.45432, 20.73578 ], [ -156.45433, 20.73577 ], [ -156.45433, 20.73576 ], [ -156.45434, 20.73576 ], [ -156.45434, 20.73575 ], [ -156.45435, 20.73576 ], [ -156.45436, 20.73576 ], [ -156.45437, 20.73577 ], [ -156.45438, 20.73577 ], [ -156.45439, 20.73577 ], [ -156.4544, 20.73577 ], [ -156.45441, 20.73577 ], [ -156.45441, 20.73576 ], [ -156.45442, 20.73576 ], [ -156.45442, 20.73577 ], [ -156.45443, 20.73577 ], [ -156.45444, 20.73577 ], [ -156.45444, 20.73576 ], [ -156.45443, 20.73576 ], [ -156.45443, 20.73575 ], [ -156.45442, 20.73575 ], [ -156.45442, 20.73574 ], [ -156.45442, 20.73573 ], [ -156.45442, 20.73572 ], [ -156.45442, 20.73571 ], [ -156.45443, 20.73571 ], [ -156.45443, 20.7357 ], [ -156.45442, 20.7357 ], [ -156.45442, 20.73569 ], [ -156.45442, 20.73568 ], [ -156.45443, 20.73568 ], [ -156.45443, 20.73567 ], [ -156.45443, 20.73566 ], [ -156.45442, 20.73565 ], [ -156.45441, 20.73565 ], [ -156.4544, 20.73565 ], [ -156.45439, 20.73564 ], [ -156.45438, 20.73564 ], [ -156.45437, 20.73564 ], [ -156.45436, 20.73564 ], [ -156.45435, 20.73563 ], [ -156.45435, 20.73562 ], [ -156.45436, 20.73562 ], [ -156.45437, 20.73562 ], [ -156.45438, 20.73562 ], [ -156.45439, 20.73562 ], [ -156.4544, 20.73562 ], [ -156.45441, 20.73562 ], [ -156.45442, 20.73562 ], [ -156.45443, 20.73563 ], [ -156.45444, 20.73563 ], [ -156.45444, 20.73564 ], [ -156.45445, 20.73564 ], [ -156.45445, 20.73563 ], [ -156.45446, 20.73563 ], [ -156.45447, 20.73563 ], [ -156.45447, 20.73562 ], [ -156.45448, 20.73562 ], [ -156.45449, 20.73562 ], [ -156.4545, 20.73562 ], [ -156.45451, 20.73562 ], [ -156.45452, 20.73562 ], [ -156.45452, 20.73563 ], [ -156.45453, 20.73563 ], [ -156.45453, 20.73564 ], [ -156.45454, 20.73564 ], [ -156.45455, 20.73564 ], [ -156.45456, 20.73563 ], [ -156.45457, 20.73563 ], [ -156.45457, 20.73562 ], [ -156.45458, 20.73562 ], [ -156.45459, 20.73562 ], [ -156.4546, 20.73562 ], [ -156.4546, 20.73561 ], [ -156.45461, 20.73561 ], [ -156.45461, 20.7356 ], [ -156.45461, 20.73559 ], [ -156.45462, 20.73559 ], [ -156.45463, 20.73559 ], [ -156.45463, 20.73558 ], [ -156.45463, 20.73557 ], [ -156.45464, 20.73557 ], [ -156.45464, 20.73556 ], [ -156.45465, 20.73556 ], [ -156.45466, 20.73556 ], [ -156.45466, 20.73557 ], [ -156.45466, 20.73558 ], [ -156.45466, 20.73559 ], [ -156.45467, 20.73559 ], [ -156.45467, 20.7356 ], [ -156.45467, 20.73561 ], [ -156.45467, 20.73562 ], [ -156.45467, 20.73563 ], [ -156.45467, 20.73564 ], [ -156.45467, 20.73565 ], [ -156.45468, 20.73566 ], [ -156.45469, 20.73567 ], [ -156.4547, 20.73568 ], [ -156.45471, 20.73568 ], [ -156.45472, 20.73568 ], [ -156.45473, 20.73568 ], [ -156.45473, 20.73569 ], [ -156.45474, 20.73569 ], [ -156.45475, 20.73569 ], [ -156.45476, 20.73569 ], [ -156.45476, 20.7357 ], [ -156.45477, 20.7357 ], [ -156.45477, 20.73571 ], [ -156.45478, 20.73571 ], [ -156.45479, 20.73571 ], [ -156.4548, 20.73571 ], [ -156.45481, 20.73571 ], [ -156.45482, 20.73571 ], [ -156.45483, 20.73571 ], [ -156.45484, 20.73571 ], [ -156.45484, 20.73572 ], [ -156.45485, 20.73572 ], [ -156.45486, 20.73572 ], [ -156.45486, 20.73573 ], [ -156.45487, 20.73573 ], [ -156.45488, 20.73574 ], [ -156.45489, 20.73574 ], [ -156.4549, 20.73574 ], [ -156.45491, 20.73574 ], [ -156.45492, 20.73574 ], [ -156.45493, 20.73575 ], [ -156.45494, 20.73575 ], [ -156.45495, 20.73575 ], [ -156.45496, 20.73575 ], [ -156.45497, 20.73575 ], [ -156.45498, 20.73575 ], [ -156.45499, 20.73575 ], [ -156.455, 20.73575 ], [ -156.45501, 20.73574 ], [ -156.45502, 20.73574 ], [ -156.45503, 20.73575 ], [ -156.45504, 20.73574 ], [ -156.45505, 20.73574 ], [ -156.45506, 20.73574 ], [ -156.45507, 20.73574 ], [ -156.45508, 20.73574 ], [ -156.45509, 20.73574 ], [ -156.4551, 20.73574 ], [ -156.45511, 20.73574 ], [ -156.45511, 20.73575 ], [ -156.45512, 20.73575 ], [ -156.45513, 20.73575 ], [ -156.45513, 20.73574 ], [ -156.45514, 20.73574 ], [ -156.45515, 20.73574 ], [ -156.45516, 20.73573 ], [ -156.45517, 20.73573 ], [ -156.45517, 20.73572 ], [ -156.45518, 20.73572 ], [ -156.45519, 20.73572 ], [ -156.4552, 20.73572 ], [ -156.45521, 20.73571 ], [ -156.45522, 20.73571 ], [ -156.45522, 20.73569 ], [ -156.45528, 20.73568 ], [ -156.4553, 20.73567 ], [ -156.45533, 20.73567 ], [ -156.45537, 20.73566 ], [ -156.45538, 20.73565 ], [ -156.4554, 20.73565 ], [ -156.4554, 20.73563 ], [ -156.45541, 20.7356 ], [ -156.45539, 20.73554 ], [ -156.45538, 20.73551 ], [ -156.45538, 20.73549 ], [ -156.45539, 20.73546 ], [ -156.4554, 20.73543 ], [ -156.45536, 20.7353 ], [ -156.45534, 20.73519 ], [ -156.45534, 20.73515 ], [ -156.45533, 20.73509 ], [ -156.45531, 20.73502 ], [ -156.45528, 20.73496 ], [ -156.45528, 20.73494 ], [ -156.45525, 20.73492 ], [ -156.45521, 20.73491 ], [ -156.45519, 20.73491 ], [ -156.45517, 20.7349 ], [ -156.45514, 20.7349 ], [ -156.45512, 20.7349 ], [ -156.45507, 20.73491 ], [ -156.45495, 20.73494 ], [ -156.45489, 20.73499 ], [ -156.45485, 20.73501 ], [ -156.45482, 20.73501 ], [ -156.45477, 20.73502 ], [ -156.45474, 20.73502 ], [ -156.4547, 20.73501 ], [ -156.45467, 20.73502 ], [ -156.45463, 20.73504 ], [ -156.45461, 20.73506 ], [ -156.45456, 20.73505 ], [ -156.45452, 20.73502 ], [ -156.45445, 20.73502 ], [ -156.45439, 20.73501 ], [ -156.4543, 20.73502 ], [ -156.45422, 20.73502 ], [ -156.45418, 20.73503 ], [ -156.45416, 20.73503 ], [ -156.45414, 20.73503 ], [ -156.45412, 20.73503 ], [ -156.45407, 20.73503 ], [ -156.45403, 20.73503 ], [ -156.45399, 20.73503 ], [ -156.45394, 20.73505 ], [ -156.45392, 20.73505 ], [ -156.45385, 20.73506 ], [ -156.45373, 20.73507 ], [ -156.45364, 20.73509 ], [ -156.45356, 20.7351 ], [ -156.45344, 20.73511 ], [ -156.45332, 20.73508 ], [ -156.45315, 20.73487 ], [ -156.45303, 20.73467 ], [ -156.45297, 20.73451 ], [ -156.45296, 20.73451 ], [ -156.45277, 20.73448 ], [ -156.45261, 20.7344 ], [ -156.45247, 20.73429 ], [ -156.45239, 20.73412 ], [ -156.45235, 20.73393 ], [ -156.45235, 20.73392 ], [ -156.45241, 20.7339 ], [ -156.45241, 20.73389 ], [ -156.4524, 20.73388 ], [ -156.45245, 20.73385 ], [ -156.45249, 20.73376 ], [ -156.4525, 20.73378 ], [ -156.45252, 20.7338 ], [ -156.45254, 20.73383 ], [ -156.45257, 20.73385 ], [ -156.45259, 20.73388 ], [ -156.45263, 20.7339 ], [ -156.45266, 20.73392 ], [ -156.45274, 20.73397 ], [ -156.45279, 20.73399 ], [ -156.45284, 20.73401 ], [ -156.45289, 20.73402 ], [ -156.453, 20.73406 ], [ -156.45306, 20.73407 ], [ -156.45312, 20.7341 ], [ -156.45325, 20.73416 ], [ -156.45331, 20.73418 ], [ -156.45337, 20.7342 ], [ -156.45342, 20.73421 ], [ -156.45348, 20.73422 ], [ -156.45353, 20.73423 ], [ -156.45359, 20.73423 ], [ -156.45365, 20.73423 ], [ -156.45369, 20.73422 ], [ -156.45368, 20.73432 ], [ -156.45368, 20.73435 ], [ -156.45368, 20.73437 ], [ -156.45368, 20.7344 ], [ -156.45369, 20.73443 ], [ -156.45368, 20.73445 ], [ -156.45368, 20.73447 ], [ -156.45369, 20.73452 ], [ -156.4537, 20.73455 ], [ -156.4537, 20.73457 ], [ -156.4537, 20.73458 ], [ -156.4537, 20.73462 ], [ -156.45371, 20.73466 ], [ -156.45372, 20.73469 ], [ -156.45373, 20.73473 ], [ -156.45372, 20.73475 ], [ -156.45372, 20.73476 ], [ -156.45372, 20.73478 ], [ -156.45373, 20.73481 ], [ -156.45373, 20.73483 ], [ -156.45373, 20.73486 ], [ -156.45374, 20.73488 ], [ -156.45375, 20.73489 ], [ -156.45379, 20.7349 ], [ -156.45381, 20.73488 ], [ -156.45384, 20.73489 ], [ -156.45387, 20.73489 ], [ -156.45392, 20.7349 ], [ -156.45396, 20.73489 ], [ -156.45399, 20.73488 ], [ -156.45403, 20.73486 ], [ -156.45406, 20.73485 ], [ -156.45411, 20.73487 ], [ -156.45415, 20.73487 ], [ -156.45424, 20.73487 ], [ -156.4543, 20.73483 ], [ -156.45433, 20.7348 ], [ -156.45436, 20.73479 ], [ -156.45442, 20.7348 ], [ -156.45448, 20.73479 ], [ -156.45462, 20.73479 ], [ -156.45476, 20.73476 ], [ -156.4548, 20.73475 ], [ -156.45484, 20.7347 ], [ -156.45489, 20.73465 ], [ -156.45491, 20.73462 ], [ -156.45493, 20.73462 ], [ -156.45502, 20.73461 ], [ -156.45503, 20.73461 ], [ -156.45504, 20.73461 ], [ -156.45505, 20.73461 ], [ -156.4551, 20.73459 ], [ -156.45514, 20.73452 ], [ -156.45515, 20.73439 ], [ -156.45516, 20.73433 ], [ -156.45536, 20.73431 ], [ -156.45536, 20.73433 ], [ -156.45559, 20.73426 ], [ -156.45563, 20.73425 ], [ -156.45566, 20.73422 ], [ -156.45566, 20.73412 ], [ -156.45569, 20.73426 ], [ -156.4557, 20.7343 ], [ -156.45572, 20.73433 ], [ -156.45573, 20.73435 ], [ -156.45574, 20.73437 ], [ -156.4558, 20.73445 ], [ -156.45582, 20.73448 ], [ -156.45583, 20.73451 ], [ -156.45584, 20.73454 ], [ -156.45584, 20.73456 ], [ -156.45584, 20.73458 ], [ -156.45583, 20.73461 ], [ -156.4558, 20.73468 ], [ -156.45578, 20.73461 ] ], [ [ -156.45423, 20.7364 ], [ -156.45424, 20.73641 ], [ -156.45425, 20.73641 ], [ -156.45426, 20.7364 ], [ -156.45426, 20.73639 ], [ -156.45425, 20.73639 ], [ -156.45424, 20.73639 ], [ -156.45423, 20.73639 ], [ -156.45423, 20.7364 ] ], [ [ -156.45471, 20.73993 ], [ -156.45463, 20.73996 ], [ -156.45457, 20.74002 ], [ -156.45457, 20.74009 ], [ -156.45459, 20.74018 ], [ -156.45468, 20.74022 ], [ -156.45478, 20.74021 ], [ -156.45483, 20.74016 ], [ -156.45484, 20.74004 ], [ -156.45477, 20.73996 ], [ -156.45471, 20.73993 ] ], [ [ -156.45393, 20.73952 ], [ -156.45391, 20.73938 ], [ -156.45388, 20.73931 ], [ -156.45381, 20.7393 ], [ -156.45378, 20.7393 ], [ -156.45374, 20.73932 ], [ -156.45367, 20.73937 ], [ -156.45364, 20.73942 ], [ -156.45364, 20.73948 ], [ -156.45365, 20.73957 ], [ -156.45368, 20.73964 ], [ -156.45373, 20.73966 ], [ -156.45382, 20.73966 ], [ -156.45388, 20.73964 ], [ -156.45393, 20.73959 ], [ -156.45393, 20.73952 ] ], [ [ -156.45463, 20.73676 ], [ -156.45463, 20.73677 ], [ -156.45464, 20.73678 ], [ -156.45463, 20.73679 ], [ -156.45463, 20.7368 ], [ -156.45462, 20.7368 ], [ -156.45461, 20.7368 ], [ -156.4546, 20.7368 ], [ -156.45459, 20.73679 ], [ -156.45458, 20.73679 ], [ -156.45458, 20.73678 ], [ -156.45457, 20.73678 ], [ -156.45457, 20.73677 ], [ -156.45456, 20.73677 ], [ -156.45455, 20.73676 ], [ -156.45454, 20.73676 ], [ -156.45453, 20.73676 ], [ -156.45452, 20.73676 ], [ -156.45451, 20.73676 ], [ -156.45451, 20.73677 ], [ -156.4545, 20.73677 ], [ -156.45449, 20.73677 ], [ -156.45449, 20.73676 ], [ -156.45448, 20.73676 ], [ -156.45447, 20.73676 ], [ -156.45446, 20.73676 ], [ -156.45445, 20.73676 ], [ -156.45444, 20.73676 ], [ -156.45444, 20.73677 ], [ -156.45444, 20.73678 ], [ -156.45444, 20.73679 ], [ -156.45444, 20.7368 ], [ -156.45444, 20.73681 ], [ -156.45443, 20.73682 ], [ -156.45442, 20.73682 ], [ -156.45442, 20.73681 ], [ -156.45441, 20.73681 ], [ -156.4544, 20.73681 ], [ -156.45439, 20.73681 ], [ -156.45437, 20.73681 ], [ -156.45437, 20.73682 ], [ -156.45436, 20.73682 ], [ -156.45436, 20.73683 ], [ -156.45435, 20.73683 ], [ -156.45434, 20.73683 ], [ -156.45433, 20.73684 ], [ -156.45433, 20.73685 ], [ -156.45433, 20.73686 ], [ -156.45434, 20.73687 ], [ -156.45435, 20.73687 ], [ -156.45436, 20.73687 ], [ -156.45437, 20.73686 ], [ -156.45438, 20.73686 ], [ -156.45439, 20.73686 ], [ -156.4544, 20.73687 ], [ -156.45441, 20.73686 ], [ -156.45442, 20.73686 ], [ -156.45443, 20.73685 ], [ -156.45443, 20.73684 ], [ -156.45444, 20.73684 ], [ -156.45445, 20.73685 ], [ -156.45446, 20.73685 ], [ -156.45446, 20.73686 ], [ -156.45447, 20.73686 ], [ -156.45447, 20.73687 ], [ -156.45448, 20.73688 ], [ -156.45449, 20.73688 ], [ -156.45449, 20.73689 ], [ -156.4545, 20.73689 ], [ -156.45451, 20.73689 ], [ -156.45451, 20.7369 ], [ -156.45452, 20.7369 ], [ -156.45453, 20.7369 ], [ -156.45454, 20.7369 ], [ -156.45455, 20.73691 ], [ -156.45456, 20.73691 ], [ -156.45457, 20.73691 ], [ -156.45457, 20.7369 ], [ -156.45458, 20.7369 ], [ -156.45459, 20.7369 ], [ -156.45459, 20.73689 ], [ -156.4546, 20.73689 ], [ -156.45461, 20.73689 ], [ -156.45462, 20.73688 ], [ -156.45463, 20.73688 ], [ -156.45463, 20.73687 ], [ -156.45464, 20.73687 ], [ -156.45465, 20.73687 ], [ -156.45466, 20.73688 ], [ -156.45467, 20.73689 ], [ -156.45467, 20.7369 ], [ -156.45468, 20.7369 ], [ -156.45468, 20.73691 ], [ -156.45467, 20.73691 ], [ -156.45466, 20.73691 ], [ -156.45465, 20.73692 ], [ -156.45464, 20.73692 ], [ -156.45464, 20.73693 ], [ -156.45464, 20.73694 ], [ -156.45465, 20.73695 ], [ -156.45466, 20.73695 ], [ -156.45466, 20.73696 ], [ -156.45466, 20.73697 ], [ -156.45465, 20.73697 ], [ -156.45465, 20.73698 ], [ -156.45465, 20.73699 ], [ -156.45466, 20.73699 ], [ -156.45466, 20.737 ], [ -156.45466, 20.73701 ], [ -156.45466, 20.73702 ], [ -156.45466, 20.73703 ], [ -156.45467, 20.73704 ], [ -156.45468, 20.73704 ], [ -156.45469, 20.73704 ], [ -156.45469, 20.73705 ], [ -156.45469, 20.73706 ], [ -156.4547, 20.73706 ], [ -156.45471, 20.73707 ], [ -156.45471, 20.73708 ], [ -156.45472, 20.73708 ], [ -156.45472, 20.73709 ], [ -156.45472, 20.7371 ], [ -156.45472, 20.73711 ], [ -156.45471, 20.73711 ], [ -156.45471, 20.73712 ], [ -156.4547, 20.73712 ], [ -156.4547, 20.73713 ], [ -156.4547, 20.73714 ], [ -156.45469, 20.73714 ], [ -156.45468, 20.73713 ], [ -156.45467, 20.73713 ], [ -156.45467, 20.73714 ], [ -156.45466, 20.73715 ], [ -156.45466, 20.73716 ], [ -156.45465, 20.73716 ], [ -156.45464, 20.73716 ], [ -156.45464, 20.73715 ], [ -156.45464, 20.73714 ], [ -156.45464, 20.73713 ], [ -156.45464, 20.73712 ], [ -156.45465, 20.73711 ], [ -156.45464, 20.7371 ], [ -156.45463, 20.73709 ], [ -156.45462, 20.73709 ], [ -156.45461, 20.73709 ], [ -156.4546, 20.7371 ], [ -156.45459, 20.7371 ], [ -156.45458, 20.7371 ], [ -156.45457, 20.7371 ], [ -156.45456, 20.73711 ], [ -156.45455, 20.73711 ], [ -156.45453, 20.73711 ], [ -156.45452, 20.73712 ], [ -156.45451, 20.73713 ], [ -156.4545, 20.73713 ], [ -156.4545, 20.73714 ], [ -156.45449, 20.73714 ], [ -156.45449, 20.73715 ], [ -156.45448, 20.73716 ], [ -156.45448, 20.73717 ], [ -156.45448, 20.73718 ], [ -156.45449, 20.73719 ], [ -156.4545, 20.7372 ], [ -156.45451, 20.7372 ], [ -156.45452, 20.7372 ], [ -156.45452, 20.73721 ], [ -156.45452, 20.73722 ], [ -156.45451, 20.73723 ], [ -156.4545, 20.73723 ], [ -156.45449, 20.73723 ], [ -156.45449, 20.73724 ], [ -156.45449, 20.73725 ], [ -156.4545, 20.73726 ], [ -156.45451, 20.73726 ], [ -156.45452, 20.73726 ], [ -156.45451, 20.73727 ], [ -156.45451, 20.73728 ], [ -156.4545, 20.73728 ], [ -156.45449, 20.73728 ], [ -156.45448, 20.73728 ], [ -156.45447, 20.73728 ], [ -156.45447, 20.73727 ], [ -156.45447, 20.73726 ], [ -156.45446, 20.73726 ], [ -156.45445, 20.73726 ], [ -156.45444, 20.73726 ], [ -156.45443, 20.73726 ], [ -156.45443, 20.73727 ], [ -156.45442, 20.73727 ], [ -156.45441, 20.73727 ], [ -156.45441, 20.73728 ], [ -156.4544, 20.73728 ], [ -156.45439, 20.73728 ], [ -156.45438, 20.73728 ], [ -156.45437, 20.73728 ], [ -156.45436, 20.73728 ], [ -156.45436, 20.73729 ], [ -156.45435, 20.73729 ], [ -156.45434, 20.73729 ], [ -156.45432, 20.73737 ], [ -156.45425, 20.73763 ], [ -156.45434, 20.73782 ], [ -156.45446, 20.73797 ], [ -156.45448, 20.73814 ], [ -156.4545, 20.73849 ], [ -156.4546, 20.73873 ], [ -156.45475, 20.73899 ], [ -156.45486, 20.73891 ], [ -156.45493, 20.73879 ], [ -156.45499, 20.73854 ], [ -156.45502, 20.7384 ], [ -156.45502, 20.73825 ], [ -156.45508, 20.73811 ], [ -156.45505, 20.73804 ], [ -156.45506, 20.73794 ], [ -156.45504, 20.73782 ], [ -156.45511, 20.7377 ], [ -156.45518, 20.73753 ], [ -156.45516, 20.73738 ], [ -156.45518, 20.73723 ], [ -156.45527, 20.73705 ], [ -156.45536, 20.73694 ], [ -156.45541, 20.73686 ], [ -156.45534, 20.73674 ], [ -156.45531, 20.73654 ], [ -156.45525, 20.7364 ], [ -156.45516, 20.73626 ], [ -156.45514, 20.73617 ], [ -156.45522, 20.73601 ], [ -156.45523, 20.73593 ], [ -156.45522, 20.73593 ], [ -156.45521, 20.73593 ], [ -156.45519, 20.73593 ], [ -156.45518, 20.73592 ], [ -156.45517, 20.73592 ], [ -156.45516, 20.73592 ], [ -156.45515, 20.73592 ], [ -156.45515, 20.73591 ], [ -156.45514, 20.73591 ], [ -156.45513, 20.73591 ], [ -156.45512, 20.73591 ], [ -156.45511, 20.73591 ], [ -156.4551, 20.73591 ], [ -156.45509, 20.73591 ], [ -156.45508, 20.73591 ], [ -156.45507, 20.73591 ], [ -156.45506, 20.7359 ], [ -156.45506, 20.73589 ], [ -156.45505, 20.73589 ], [ -156.45505, 20.73588 ], [ -156.45504, 20.73588 ], [ -156.45503, 20.73588 ], [ -156.45503, 20.73589 ], [ -156.45502, 20.73589 ], [ -156.45501, 20.73589 ], [ -156.455, 20.73589 ], [ -156.45499, 20.73589 ], [ -156.45498, 20.73589 ], [ -156.45497, 20.73589 ], [ -156.45496, 20.73589 ], [ -156.45496, 20.73588 ], [ -156.45495, 20.73588 ], [ -156.45494, 20.73588 ], [ -156.45493, 20.73588 ], [ -156.45492, 20.73588 ], [ -156.45491, 20.73588 ], [ -156.4549, 20.73588 ], [ -156.45489, 20.73587 ], [ -156.45488, 20.73587 ], [ -156.45487, 20.73587 ], [ -156.45486, 20.73587 ], [ -156.45486, 20.73586 ], [ -156.45485, 20.73586 ], [ -156.45484, 20.73586 ], [ -156.45484, 20.73585 ], [ -156.45483, 20.73586 ], [ -156.45482, 20.73586 ], [ -156.45481, 20.73586 ], [ -156.45481, 20.73585 ], [ -156.4548, 20.73585 ], [ -156.4548, 20.73584 ], [ -156.45479, 20.73585 ], [ -156.45478, 20.73585 ], [ -156.45477, 20.73585 ], [ -156.45477, 20.73586 ], [ -156.45476, 20.73587 ], [ -156.45476, 20.73588 ], [ -156.45476, 20.73589 ], [ -156.45476, 20.7359 ], [ -156.45477, 20.73591 ], [ -156.45478, 20.73591 ], [ -156.45479, 20.73591 ], [ -156.45479, 20.73592 ], [ -156.4548, 20.73592 ], [ -156.45481, 20.73593 ], [ -156.45481, 20.73594 ], [ -156.45481, 20.73595 ], [ -156.45482, 20.73595 ], [ -156.45482, 20.73596 ], [ -156.45482, 20.73597 ], [ -156.45482, 20.73598 ], [ -156.45482, 20.73599 ], [ -156.45482, 20.736 ], [ -156.45483, 20.736 ], [ -156.45483, 20.73601 ], [ -156.45483, 20.73602 ], [ -156.45483, 20.73603 ], [ -156.45484, 20.73603 ], [ -156.45484, 20.73604 ], [ -156.45484, 20.73605 ], [ -156.45483, 20.73606 ], [ -156.45482, 20.73606 ], [ -156.45482, 20.73607 ], [ -156.45481, 20.73607 ], [ -156.45481, 20.73608 ], [ -156.4548, 20.73608 ], [ -156.4548, 20.73609 ], [ -156.4548, 20.7361 ], [ -156.4548, 20.73611 ], [ -156.4548, 20.73612 ], [ -156.4548, 20.73613 ], [ -156.45479, 20.73613 ], [ -156.45479, 20.73614 ], [ -156.45478, 20.73614 ], [ -156.45478, 20.73615 ], [ -156.45477, 20.73615 ], [ -156.45477, 20.73616 ], [ -156.45476, 20.73616 ], [ -156.45476, 20.73617 ], [ -156.45475, 20.73618 ], [ -156.45474, 20.73619 ], [ -156.45475, 20.7362 ], [ -156.45475, 20.73621 ], [ -156.45476, 20.73621 ], [ -156.45477, 20.73621 ], [ -156.45478, 20.73621 ], [ -156.45479, 20.73621 ], [ -156.4548, 20.73622 ], [ -156.45481, 20.73622 ], [ -156.45482, 20.73622 ], [ -156.45483, 20.73623 ], [ -156.45484, 20.73624 ], [ -156.45484, 20.73625 ], [ -156.45484, 20.73626 ], [ -156.45484, 20.73627 ], [ -156.45484, 20.73628 ], [ -156.45483, 20.73629 ], [ -156.45483, 20.7363 ], [ -156.45482, 20.7363 ], [ -156.45482, 20.73631 ], [ -156.45482, 20.73632 ], [ -156.45483, 20.73632 ], [ -156.45483, 20.73633 ], [ -156.45484, 20.73633 ], [ -156.45484, 20.73634 ], [ -156.45485, 20.73634 ], [ -156.45486, 20.73634 ], [ -156.45487, 20.73634 ], [ -156.45488, 20.73635 ], [ -156.45489, 20.73635 ], [ -156.4549, 20.73636 ], [ -156.45491, 20.73636 ], [ -156.45491, 20.73637 ], [ -156.4549, 20.73637 ], [ -156.4549, 20.73638 ], [ -156.4549, 20.73639 ], [ -156.4549, 20.7364 ], [ -156.4549, 20.73641 ], [ -156.4549, 20.73642 ], [ -156.4549, 20.73643 ], [ -156.45491, 20.73643 ], [ -156.45491, 20.73644 ], [ -156.45492, 20.73644 ], [ -156.45492, 20.73645 ], [ -156.45492, 20.73646 ], [ -156.45492, 20.73647 ], [ -156.45492, 20.73648 ], [ -156.45492, 20.73649 ], [ -156.45492, 20.7365 ], [ -156.45492, 20.73651 ], [ -156.45492, 20.73652 ], [ -156.45491, 20.73653 ], [ -156.45491, 20.73654 ], [ -156.45491, 20.73655 ], [ -156.45491, 20.73656 ], [ -156.4549, 20.73656 ], [ -156.4549, 20.73657 ], [ -156.4549, 20.73658 ], [ -156.4549, 20.73659 ], [ -156.45489, 20.73659 ], [ -156.45489, 20.7366 ], [ -156.45489, 20.73661 ], [ -156.45488, 20.73661 ], [ -156.45488, 20.73662 ], [ -156.45487, 20.73663 ], [ -156.45486, 20.73664 ], [ -156.45486, 20.73665 ], [ -156.45485, 20.73665 ], [ -156.45484, 20.73666 ], [ -156.45483, 20.73666 ], [ -156.45483, 20.73667 ], [ -156.45482, 20.73667 ], [ -156.45482, 20.73668 ], [ -156.45481, 20.73668 ], [ -156.4548, 20.73669 ], [ -156.45479, 20.73669 ], [ -156.45478, 20.73669 ], [ -156.45477, 20.7367 ], [ -156.45476, 20.73671 ], [ -156.45475, 20.73672 ], [ -156.45475, 20.73673 ], [ -156.45475, 20.73674 ], [ -156.45475, 20.73675 ], [ -156.45474, 20.73676 ], [ -156.45473, 20.73676 ], [ -156.45472, 20.73676 ], [ -156.45471, 20.73676 ], [ -156.4547, 20.73676 ], [ -156.45469, 20.73676 ], [ -156.45468, 20.73676 ], [ -156.45467, 20.73675 ], [ -156.45466, 20.73675 ], [ -156.45465, 20.73674 ], [ -156.45464, 20.73675 ], [ -156.45463, 20.73675 ], [ -156.45463, 20.73676 ] ], [ [ -156.45441, 20.73726 ], [ -156.4544, 20.73725 ], [ -156.45439, 20.73726 ], [ -156.45439, 20.73727 ], [ -156.4544, 20.73727 ], [ -156.45441, 20.73727 ], [ -156.45441, 20.73726 ] ], [ [ -156.4553, 20.73911 ], [ -156.45521, 20.73907 ], [ -156.45514, 20.73911 ], [ -156.45511, 20.73915 ], [ -156.45511, 20.73922 ], [ -156.45511, 20.73931 ], [ -156.45516, 20.73936 ], [ -156.45525, 20.73938 ], [ -156.45534, 20.73932 ], [ -156.45534, 20.7392 ], [ -156.4553, 20.73911 ] ] ], [ [ [ -156.45466, 20.73556 ], [ -156.45466, 20.73555 ], [ -156.45467, 20.73555 ], [ -156.45467, 20.73556 ], [ -156.45466, 20.73556 ] ] ], [ [ [ -156.45441, 20.73581 ], [ -156.45441, 20.73582 ], [ -156.4544, 20.73582 ], [ -156.4544, 20.73581 ], [ -156.45441, 20.73581 ] ] ] ] } },
{ "type": "Feature", "properties": { "fld_zone": "AH", "static_bfe": 7.0 }, "geometry": { "type": "Polygon", "coordinates": [ [ [ -157.84863, 21.48461 ], [ -157.84865, 21.48453 ], [ -157.84869, 21.48441 ], [ -157.84873, 21.48433 ], [ -157.84878, 21.48427 ], [ -157.84883, 21.48419 ], [ -157.84886, 21.48413 ], [ -157.84887, 21.48405 ], [ -157.84886, 21.48399 ], [ -157.84883, 21.48395 ], [ -157.84875, 21.48386 ], [ -157.84866, 21.48381 ], [ -157.84861, 21.48378 ], [ -157.84849, 21.48369 ], [ -157.84846, 21.48367 ], [ -157.84825, 21.48362 ], [ -157.84816, 21.48354 ], [ -157.84811, 21.48349 ], [ -157.84808, 21.48347 ], [ -157.84798, 21.48343 ], [ -157.84789, 21.4834 ], [ -157.84777, 21.48339 ], [ -157.84768, 21.48343 ], [ -157.8476, 21.48349 ], [ -157.84751, 21.48356 ], [ -157.84741, 21.48362 ], [ -157.84736, 21.48366 ], [ -157.84732, 21.4837 ], [ -157.84724, 21.48378 ], [ -157.84719, 21.48384 ], [ -157.84713, 21.48393 ], [ -157.84708, 21.48398 ], [ -157.84703, 21.48402 ], [ -157.84697, 21.48404 ], [ -157.84687, 21.48407 ], [ -157.8468, 21.4841 ], [ -157.84673, 21.48417 ], [ -157.84669, 21.48423 ], [ -157.84665, 21.48431 ], [ -157.84662, 21.48439 ], [ -157.8466, 21.4845 ], [ -157.84659, 21.48454 ], [ -157.84657, 21.4847 ], [ -157.8472, 21.4851 ], [ -157.84762, 21.48539 ], [ -157.84782, 21.4856 ], [ -157.84789, 21.48567 ], [ -157.84797, 21.48567 ], [ -157.84812, 21.48573 ], [ -157.84822, 21.48577 ], [ -157.84863, 21.48642 ], [ -157.84912, 21.48726 ], [ -157.84928, 21.48788 ], [ -157.84923, 21.48799 ], [ -157.84942, 21.48806 ], [ -157.84943, 21.48806 ], [ -157.84951, 21.4881 ], [ -157.84958, 21.48817 ], [ -157.84971, 21.48823 ], [ -157.84979, 21.4883 ], [ -157.84991, 21.48842 ], [ -157.85005, 21.48857 ], [ -157.85011, 21.48868 ], [ -157.85017, 21.48879 ], [ -157.85022, 21.48887 ], [ -157.85024, 21.48904 ], [ -157.8503, 21.4893 ], [ -157.85034, 21.48948 ], [ -157.85038, 21.48964 ], [ -157.85044, 21.48993 ], [ -157.85062, 21.48991 ], [ -157.85073, 21.48991 ], [ -157.85088, 21.48992 ], [ -157.85106, 21.48994 ], [ -157.85121, 21.48994 ], [ -157.85133, 21.48993 ], [ -157.85148, 21.48991 ], [ -157.85158, 21.4899 ], [ -157.85159, 21.4899 ], [ -157.85176, 21.4898 ], [ -157.85187, 21.48972 ], [ -157.85196, 21.48967 ], [ -157.85205, 21.4896 ], [ -157.85215, 21.48954 ], [ -157.85224, 21.48948 ], [ -157.85234, 21.48942 ], [ -157.85242, 21.48936 ], [ -157.85249, 21.48927 ], [ -157.85255, 21.48908 ], [ -157.85258, 21.48898 ], [ -157.85256, 21.4889 ], [ -157.85252, 21.48881 ], [ -157.85251, 21.48874 ], [ -157.85251, 21.48866 ], [ -157.85258, 21.48849 ], [ -157.8526, 21.48839 ], [ -157.85262, 21.4883 ], [ -157.85263, 21.48822 ], [ -157.85256, 21.48815 ], [ -157.85245, 21.48806 ], [ -157.85239, 21.48801 ], [ -157.85228, 21.48796 ], [ -157.85219, 21.48793 ], [ -157.85212, 21.48792 ], [ -157.8521, 21.48785 ], [ -157.85209, 21.48777 ], [ -157.85215, 21.48766 ], [ -157.85222, 21.48754 ], [ -157.85227, 21.48743 ], [ -157.85234, 21.48724 ], [ -157.85241, 21.48708 ], [ -157.85246, 21.48698 ], [ -157.8525, 21.48691 ], [ -157.85254, 21.48684 ], [ -157.85257, 21.48675 ], [ -157.85259, 21.48667 ], [ -157.8526, 21.48659 ], [ -157.8526, 21.48647 ], [ -157.85259, 21.48641 ], [ -157.85254, 21.48632 ], [ -157.85249, 21.48622 ], [ -157.85244, 21.48615 ], [ -157.85235, 21.48608 ], [ -157.85225, 21.48603 ], [ -157.85216, 21.48598 ], [ -157.85208, 21.48594 ], [ -157.85195, 21.48587 ], [ -157.85185, 21.48578 ], [ -157.85176, 21.48569 ], [ -157.85165, 21.48557 ], [ -157.85156, 21.48546 ], [ -157.85147, 21.48533 ], [ -157.85139, 21.48524 ], [ -157.85132, 21.48515 ], [ -157.85125, 21.48506 ], [ -157.85118, 21.48499 ], [ -157.85112, 21.4849 ], [ -157.85104, 21.48484 ], [ -157.85102, 21.48482 ], [ -157.85082, 21.48467 ], [ -157.85075, 21.48464 ], [ -157.85063, 21.48466 ], [ -157.85053, 21.48469 ], [ -157.85043, 21.48472 ], [ -157.85035, 21.48472 ], [ -157.85026, 21.48472 ], [ -157.85018, 21.4847 ], [ -157.85012, 21.48468 ], [ -157.85006, 21.48462 ], [ -157.84997, 21.48456 ], [ -157.84989, 21.48448 ], [ -157.84983, 21.48442 ], [ -157.84975, 21.48435 ], [ -157.84968, 21.48431 ], [ -157.8496, 21.48427 ], [ -157.84949, 21.48426 ], [ -157.84943, 21.48425 ], [ -157.8493, 21.48428 ], [ -157.8492, 21.48431 ], [ -157.8491, 21.48434 ], [ -157.84904, 21.48437 ], [ -157.84895, 21.48444 ], [ -157.84889, 21.4845 ], [ -157.84882, 21.48457 ], [ -157.84873, 21.48467 ], [ -157.84871, 21.48468 ], [ -157.84868, 21.48469 ], [ -157.84863, 21.48466 ], [ -157.84863, 21.48461 ] ] ] } },
{ "type": "Feature", "properties": { "fld_zone": "AH", "static_bfe": 6.0 }, "geometry": { "type": "Polygon", "coordinates": [ [ [ -157.75544, 21.40595 ], [ -157.75612, 21.40632 ], [ -157.75619, 21.40624 ], [ -157.75619, 21.40624 ], [ -157.7562, 21.40623 ], [ -157.7562, 21.4062 ], [ -157.75623, 21.40617 ], [ -157.75626, 21.40609 ], [ -157.75627, 21.40594 ], [ -157.75625, 21.40581 ], [ -157.75622, 21.40562 ], [ -157.75611, 21.40493 ], [ -157.75604, 21.40445 ], [ -157.75596, 21.40401 ], [ -157.75595, 21.4039 ], [ -157.75578, 21.403 ], [ -157.75556, 21.40227 ], [ -157.75531, 21.40173 ], [ -157.75506, 21.40129 ], [ -157.75478, 21.4009 ], [ -157.75434, 21.40037 ], [ -157.75353, 21.3994 ], [ -157.75272, 21.39845 ], [ -157.75194, 21.39753 ], [ -157.75115, 21.39657 ], [ -157.75099, 21.39638 ], [ -157.75076, 21.3961 ], [ -157.75049, 21.39578 ], [ -157.75038, 21.39565 ], [ -157.75017, 21.3954 ], [ -157.75002, 21.39521 ], [ -157.7499, 21.39508 ], [ -157.74983, 21.39499 ], [ -157.74983, 21.39498 ], [ -157.74982, 21.39498 ], [ -157.74982, 21.39498 ], [ -157.74981, 21.39496 ], [ -157.7498, 21.39495 ], [ -157.7498, 21.39494 ], [ -157.7498, 21.39494 ], [ -157.74977, 21.39491 ], [ -157.74974, 21.39487 ], [ -157.74973, 21.39486 ], [ -157.74973, 21.39486 ], [ -157.74967, 21.39479 ], [ -157.74966, 21.39478 ], [ -157.74965, 21.39477 ], [ -157.74965, 21.39476 ], [ -157.74964, 21.39475 ], [ -157.74963, 21.39474 ], [ -157.74963, 21.39474 ], [ -157.74962, 21.39472 ], [ -157.74961, 21.39472 ], [ -157.7496, 21.39471 ], [ -157.7496, 21.3947 ], [ -157.74959, 21.39469 ], [ -157.74957, 21.39467 ], [ -157.74956, 21.39466 ], [ -157.74953, 21.39462 ], [ -157.74952, 21.39462 ], [ -157.74952, 21.39461 ], [ -157.74952, 21.39461 ], [ -157.7495, 21.39458 ], [ -157.74934, 21.39441 ], [ -157.74933, 21.39439 ], [ -157.74933, 21.39439 ], [ -157.74927, 21.39433 ], [ -157.74927, 21.39432 ], [ -157.74926, 21.39431 ], [ -157.74925, 21.3943 ], [ -157.74924, 21.39429 ], [ -157.74923, 21.39427 ], [ -157.74923, 21.39427 ], [ -157.74922, 21.39425 ], [ -157.74922, 21.39425 ], [ -157.74922, 21.39425 ], [ -157.74919, 21.39422 ], [ -157.74919, 21.39422 ], [ -157.74917, 21.3942 ], [ -157.74907, 21.39404 ], [ -157.74902, 21.39392 ], [ -157.74899, 21.39382 ], [ -157.74899, 21.39379 ], [ -157.74899, 21.39378 ], [ -157.74899, 21.39368 ], [ -157.74902, 21.39347 ], [ -157.74906, 21.39322 ], [ -157.74906, 21.39321 ], [ -157.74906, 21.3932 ], [ -157.74906, 21.39319 ], [ -157.74906, 21.39318 ], [ -157.74907, 21.39314 ], [ -157.74908, 21.39307 ], [ -157.74908, 21.39305 ], [ -157.74908, 21.39304 ], [ -157.74908, 21.39304 ], [ -157.74909, 21.39303 ], [ -157.74909, 21.39303 ], [ -157.74909, 21.39302 ], [ -157.74911, 21.39288 ], [ -157.74911, 21.39287 ], [ -157.74911, 21.39287 ], [ -157.74911, 21.39286 ], [ -157.74911, 21.39284 ], [ -157.74912, 21.3928 ], [ -157.74912, 21.39279 ], [ -157.74912, 21.39278 ], [ -157.74912, 21.39277 ], [ -157.74913, 21.39277 ], [ -157.74913, 21.39276 ], [ -157.74913, 21.39274 ], [ -157.74913, 21.39274 ], [ -157.74913, 21.39272 ], [ -157.74913, 21.39272 ], [ -157.74914, 21.39269 ], [ -157.74914, 21.39267 ], [ -157.74914, 21.39265 ], [ -157.74914, 21.39264 ], [ -157.74914, 21.39263 ], [ -157.74914, 21.39262 ], [ -157.74914, 21.39261 ], [ -157.74914, 21.3926 ], [ -157.74915, 21.39258 ], [ -157.74915, 21.39257 ], [ -157.74915, 21.39255 ], [ -157.74915, 21.39254 ], [ -157.74916, 21.39251 ], [ -157.74916, 21.3925 ], [ -157.74916, 21.39249 ], [ -157.74916, 21.39246 ], [ -157.74917, 21.39245 ], [ -157.74917, 21.39243 ], [ -157.74917, 21.39241 ], [ -157.74917, 21.39241 ], [ -157.74918, 21.39239 ], [ -157.74918, 21.39237 ], [ -157.74918, 21.39234 ], [ -157.74918, 21.39234 ], [ -157.74918, 21.39233 ], [ -157.74919, 21.39232 ], [ -157.74919, 21.39228 ], [ -157.74919, 21.39226 ], [ -157.7492, 21.39222 ], [ -157.7492, 21.39221 ], [ -157.7492, 21.3922 ], [ -157.74921, 21.39219 ], [ -157.74921, 21.39218 ], [ -157.74921, 21.39214 ], [ -157.74921, 21.39213 ], [ -157.74922, 21.39211 ], [ -157.74922, 21.39209 ], [ -157.74923, 21.39206 ], [ -157.74923, 21.39206 ], [ -157.74923, 21.39204 ], [ -157.74923, 21.39202 ], [ -157.74923, 21.39202 ], [ -157.74923, 21.39201 ], [ -157.74923, 21.39192 ], [ -157.7492, 21.39181 ], [ -157.7492, 21.39179 ], [ -157.7492, 21.39179 ], [ -157.7492, 21.39179 ], [ -157.7492, 21.39179 ], [ -157.74916, 21.39173 ], [ -157.74916, 21.39173 ], [ -157.74915, 21.39172 ], [ -157.74915, 21.39171 ], [ -157.74913, 21.39168 ], [ -157.74912, 21.39167 ], [ -157.74911, 21.39166 ], [ -157.74908, 21.39163 ], [ -157.74908, 21.39163 ], [ -157.74906, 21.39162 ], [ -157.74906, 21.39161 ], [ -157.74906, 21.39161 ], [ -157.74906, 21.39161 ], [ -157.74904, 21.3916 ], [ -157.74902, 21.39158 ], [ -157.749, 21.39155 ], [ -157.74899, 21.39154 ], [ -157.74893, 21.39149 ], [ -157.74893, 21.39149 ], [ -157.74892, 21.39148 ], [ -157.74891, 21.39148 ], [ -157.7489, 21.39147 ], [ -157.74889, 21.39146 ], [ -157.74888, 21.39145 ], [ -157.74886, 21.39143 ], [ -157.74886, 21.39143 ], [ -157.74883, 21.39141 ], [ -157.74882, 21.3914 ], [ -157.74881, 21.39139 ], [ -157.74879, 21.39138 ], [ -157.74877, 21.39136 ], [ -157.74876, 21.39135 ], [ -157.74875, 21.39134 ], [ -157.74872, 21.39132 ], [ -157.74872, 21.39131 ], [ -157.74868, 21.39129 ], [ -157.74868, 21.39128 ], [ -157.74849, 21.39111 ], [ -157.74847, 21.39109 ], [ -157.74847, 21.39108 ], [ -157.74846, 21.39108 ], [ -157.74846, 21.39107 ], [ -157.74843, 21.39105 ], [ -157.74841, 21.39103 ], [ -157.7484, 21.39103 ], [ -157.74839, 21.39102 ], [ -157.74838, 21.39101 ], [ -157.74835, 21.39098 ], [ -157.74835, 21.39098 ], [ -157.74834, 21.39097 ], [ -157.74833, 21.39096 ], [ -157.74832, 21.39096 ], [ -157.7483, 21.39094 ], [ -157.74825, 21.3909 ], [ -157.74824, 21.39089 ], [ -157.7482, 21.39085 ], [ -157.7482, 21.39085 ], [ -157.74819, 21.39084 ], [ -157.74816, 21.39082 ], [ -157.74815, 21.39081 ], [ -157.74815, 21.39081 ], [ -157.74813, 21.3908 ], [ -157.74812, 21.39079 ], [ -157.7481, 21.39077 ], [ -157.74808, 21.39075 ], [ -157.74806, 21.39074 ], [ -157.74806, 21.39074 ], [ -157.74803, 21.39072 ], [ -157.74803, 21.39071 ], [ -157.74803, 21.39071 ], [ -157.74803, 21.39071 ], [ -157.74801, 21.3907 ], [ -157.74801, 21.3907 ], [ -157.74801, 21.3907 ], [ -157.74801, 21.39069 ], [ -157.748, 21.39069 ], [ -157.74799, 21.39068 ], [ -157.74799, 21.39068 ], [ -157.74798, 21.39068 ], [ -157.74797, 21.39068 ], [ -157.74797, 21.39068 ], [ -157.74796, 21.39067 ], [ -157.74796, 21.39067 ], [ -157.74796, 21.39068 ], [ -157.74796, 21.39068 ], [ -157.74796, 21.39068 ], [ -157.74796, 21.39068 ], [ -157.74796, 21.3907 ], [ -157.74796, 21.3907 ], [ -157.74795, 21.3907 ], [ -157.74795, 21.39071 ], [ -157.74795, 21.39073 ], [ -157.74795, 21.39073 ], [ -157.74796, 21.39074 ], [ -157.74795, 21.39076 ], [ -157.74793, 21.39078 ], [ -157.74792, 21.3908 ], [ -157.74786, 21.39085 ], [ -157.74781, 21.39091 ], [ -157.7478, 21.39092 ], [ -157.74771, 21.39111 ], [ -157.74767, 21.39123 ], [ -157.74766, 21.39124 ], [ -157.74764, 21.3913 ], [ -157.74764, 21.3913 ], [ -157.74763, 21.39131 ], [ -157.74763, 21.39132 ], [ -157.7476, 21.3914 ], [ -157.74759, 21.39141 ], [ -157.74759, 21.39142 ], [ -157.74759, 21.39142 ], [ -157.74759, 21.39142 ], [ -157.74759, 21.39143 ], [ -157.74759, 21.39143 ], [ -157.74758, 21.39143 ], [ -157.74757, 21.39148 ], [ -157.74757, 21.39148 ], [ -157.74756, 21.39148 ], [ -157.74756, 21.39149 ], [ -157.74755, 21.39149 ], [ -157.74755, 21.3915 ], [ -157.74755, 21.3915 ], [ -157.74754, 21.39151 ], [ -157.74754, 21.39151 ], [ -157.74754, 21.39151 ], [ -157.74754, 21.39152 ], [ -157.74754, 21.39152 ], [ -157.74753, 21.39153 ], [ -157.74753, 21.39153 ], [ -157.74753, 21.39153 ], [ -157.74753, 21.39153 ], [ -157.74753, 21.39154 ], [ -157.74753, 21.39154 ], [ -157.74752, 21.39155 ], [ -157.74752, 21.39156 ], [ -157.74752, 21.39156 ], [ -157.74752, 21.39157 ], [ -157.74752, 21.39157 ], [ -157.74751, 21.39157 ], [ -157.74751, 21.39157 ], [ -157.74751, 21.39158 ], [ -157.74751, 21.39158 ], [ -157.74751, 21.3916 ], [ -157.74751, 21.3916 ], [ -157.7475, 21.39161 ], [ -157.74749, 21.39162 ], [ -157.74749, 21.39162 ], [ -157.74749, 21.39163 ], [ -157.74748, 21.39164 ], [ -157.74748, 21.39164 ], [ -157.74748, 21.39164 ], [ -157.74747, 21.39165 ], [ -157.74747, 21.39166 ], [ -157.74746, 21.39166 ], [ -157.74746, 21.39167 ], [ -157.74746, 21.39167 ], [ -157.74746, 21.39167 ], [ -157.74745, 21.39168 ], [ -157.74745, 21.39168 ], [ -157.74745, 21.39169 ], [ -157.74745, 21.39169 ], [ -157.74745, 21.3917 ], [ -157.74745, 21.39171 ], [ -157.74744, 21.39172 ], [ -157.74744, 21.39172 ], [ -157.74743, 21.39172 ], [ -157.74743, 21.39172 ], [ -157.74743, 21.39173 ], [ -157.74743, 21.39173 ], [ -157.74742, 21.39173 ], [ -157.74742, 21.39173 ], [ -157.74742, 21.39174 ], [ -157.74742, 21.39175 ], [ -157.74741, 21.39175 ], [ -157.74741, 21.39175 ], [ -157.74741, 21.39176 ], [ -157.74741, 21.39176 ], [ -157.7474, 21.39176 ], [ -157.7474, 21.39176 ], [ -157.7474, 21.39176 ], [ -157.7474, 21.39177 ], [ -157.7474, 21.39177 ], [ -157.7474, 21.39178 ], [ -157.74739, 21.39178 ], [ -157.74739, 21.39179 ], [ -157.74739, 21.39179 ], [ -157.74739, 21.39179 ], [ -157.74738, 21.3918 ], [ -157.74738, 21.3918 ], [ -157.74738, 21.39181 ], [ -157.74738, 21.39181 ], [ -157.74737, 21.39182 ], [ -157.74737, 21.39182 ], [ -157.74736, 21.39183 ], [ -157.74736, 21.39183 ], [ -157.74736, 21.39184 ], [ -157.74735, 21.39185 ], [ -157.74735, 21.39186 ], [ -157.74735, 21.39186 ], [ -157.74734, 21.39186 ], [ -157.74734, 21.39187 ], [ -157.74734, 21.39187 ], [ -157.74734, 21.39187 ], [ -157.74734, 21.39188 ], [ -157.74733, 21.39188 ], [ -157.74733, 21.39189 ], [ -157.74733, 21.3919 ], [ -157.74733, 21.3919 ], [ -157.74732, 21.39191 ], [ -157.74732, 21.39191 ], [ -157.74732, 21.39191 ], [ -157.74731, 21.39192 ], [ -157.74731, 21.39192 ], [ -157.74731, 21.39193 ], [ -157.74731, 21.39193 ], [ -157.74731, 21.39193 ], [ -157.74731, 21.39193 ], [ -157.74731, 21.39193 ], [ -157.7473, 21.39193 ], [ -157.7473, 21.39193 ], [ -157.7473, 21.39193 ], [ -157.7473, 21.39194 ], [ -157.74729, 21.39195 ], [ -157.74728, 21.39195 ], [ -157.74728, 21.39196 ], [ -157.74728, 21.39197 ], [ -157.74729, 21.39197 ], [ -157.74728, 21.39198 ], [ -157.74728, 21.39199 ], [ -157.74728, 21.39199 ], [ -157.74727, 21.392 ], [ -157.74726, 21.392 ], [ -157.74725, 21.392 ], [ -157.74725, 21.392 ], [ -157.74725, 21.392 ], [ -157.74724, 21.39201 ], [ -157.74723, 21.39203 ], [ -157.74723, 21.39203 ], [ -157.74723, 21.39203 ], [ -157.74723, 21.39203 ], [ -157.74723, 21.39203 ], [ -157.74722, 21.39204 ], [ -157.74721, 21.39205 ], [ -157.74721, 21.39205 ], [ -157.7472, 21.39206 ], [ -157.7472, 21.39206 ], [ -157.7472, 21.39206 ], [ -157.7472, 21.39206 ], [ -157.74719, 21.39207 ], [ -157.74719, 21.39207 ], [ -157.74718, 21.39208 ], [ -157.74718, 21.39208 ], [ -157.74718, 21.39208 ], [ -157.74718, 21.39208 ], [ -157.74718, 21.39209 ], [ -157.74718, 21.39209 ], [ -157.74717, 21.3921 ], [ -157.74717, 21.3921 ], [ -157.74717, 21.3921 ], [ -157.74717, 21.39211 ], [ -157.74717, 21.39211 ], [ -157.74717, 21.39212 ], [ -157.74716, 21.39213 ], [ -157.74716, 21.39214 ], [ -157.74716, 21.39214 ], [ -157.74716, 21.39215 ], [ -157.74716, 21.39215 ], [ -157.74716, 21.39216 ], [ -157.74715, 21.39217 ], [ -157.74715, 21.39217 ], [ -157.74715, 21.39217 ], [ -157.74715, 21.39217 ], [ -157.74715, 21.39217 ], [ -157.74715, 21.39217 ], [ -157.74716, 21.39219 ], [ -157.74716, 21.39219 ], [ -157.74717, 21.39221 ], [ -157.74716, 21.39221 ], [ -157.74716, 21.39221 ], [ -157.74716, 21.39222 ], [ -157.74716, 21.39223 ], [ -157.74716, 21.39223 ], [ -157.74716, 21.39226 ], [ -157.74719, 21.39233 ], [ -157.74724, 21.39238 ], [ -157.74736, 21.39245 ], [ -157.74731, 21.39266 ], [ -157.74629, 21.39389 ], [ -157.74642, 21.394 ], [ -157.74667, 21.39405 ], [ -157.74671, 21.39417 ], [ -157.74663, 21.39426 ], [ -157.74648, 21.39436 ], [ -157.74641, 21.39454 ], [ -157.74643, 21.39469 ], [ -157.74667, 21.39485 ], [ -157.74677, 21.39497 ], [ -157.74684, 21.39517 ], [ -157.74706, 21.39533 ], [ -157.74733, 21.39537 ], [ -157.74748, 21.39551 ], [ -157.74758, 21.39569 ], [ -157.74772, 21.39583 ], [ -157.74792, 21.39607 ], [ -157.74817, 21.3963 ], [ -157.74834, 21.39649 ], [ -157.74847, 21.39673 ], [ -157.74857, 21.39697 ], [ -157.74875, 21.39689 ], [ -157.74901, 21.39686 ], [ -157.7492, 21.39688 ], [ -157.74933, 21.397 ], [ -157.74944, 21.39714 ], [ -157.74958, 21.3973 ], [ -157.74969, 21.39758 ], [ -157.74982, 21.3977 ], [ -157.74991, 21.39793 ], [ -157.75003, 21.39815 ], [ -157.75009, 21.39831 ], [ -157.75005, 21.39842 ], [ -157.74992, 21.39849 ], [ -157.74994, 21.39859 ], [ -157.75, 21.39869 ], [ -157.75008, 21.39885 ], [ -157.75013, 21.39899 ], [ -157.75012, 21.39911 ], [ -157.75007, 21.39929 ], [ -157.75015, 21.39947 ], [ -157.75029, 21.39959 ], [ -157.75041, 21.39969 ], [ -157.75061, 21.39976 ], [ -157.75069, 21.39984 ], [ -157.75085, 21.40005 ], [ -157.75093, 21.40013 ], [ -157.75101, 21.40022 ], [ -157.75107, 21.40037 ], [ -157.75111, 21.4006 ], [ -157.75111, 21.40074 ], [ -157.7512, 21.4009 ], [ -157.7513, 21.40105 ], [ -157.75132, 21.40112 ], [ -157.75132, 21.40121 ], [ -157.7513, 21.40129 ], [ -157.75127, 21.40137 ], [ -157.75111, 21.40144 ], [ -157.751, 21.40146 ], [ -157.75099, 21.40157 ], [ -157.75113, 21.40161 ], [ -157.7512, 21.4016 ], [ -157.7513, 21.40155 ], [ -157.75145, 21.40147 ], [ -157.75167, 21.40151 ], [ -157.75179, 21.40156 ], [ -157.75188, 21.40165 ], [ -157.75192, 21.40175 ], [ -157.75191, 21.40189 ], [ -157.75164, 21.40196 ], [ -157.75145, 21.40201 ], [ -157.75129, 21.40217 ], [ -157.75136, 21.40227 ], [ -157.75146, 21.40233 ], [ -157.75155, 21.40243 ], [ -157.7517, 21.40253 ], [ -157.7518, 21.40265 ], [ -157.75189, 21.40281 ], [ -157.75195, 21.40294 ], [ -157.752, 21.40308 ], [ -157.75212, 21.40318 ], [ -157.75221, 21.40314 ], [ -157.75236, 21.40304 ], [ -157.7525, 21.40295 ], [ -157.75259, 21.40296 ], [ -157.75271, 21.40305 ], [ -157.75302, 21.40325 ], [ -157.75316, 21.40341 ], [ -157.75338, 21.40355 ], [ -157.75344, 21.40356 ], [ -157.75344, 21.40366 ], [ -157.75344, 21.40376 ], [ -157.75335, 21.40393 ], [ -157.75337, 21.40408 ], [ -157.75346, 21.40417 ], [ -157.75358, 21.40434 ], [ -157.75385, 21.40457 ], [ -157.75387, 21.40457 ], [ -157.75405, 21.40457 ], [ -157.75423, 21.4046 ], [ -157.75433, 21.40474 ], [ -157.75439, 21.40484 ], [ -157.75451, 21.40518 ], [ -157.75453, 21.40524 ], [ -157.75465, 21.40545 ], [ -157.75466, 21.40547 ], [ -157.75467, 21.40548 ], [ -157.75478, 21.40556 ], [ -157.75486, 21.40552 ], [ -157.75507, 21.40544 ], [ -157.75528, 21.4054 ], [ -157.75543, 21.40556 ], [ -157.7555, 21.40569 ], [ -157.75544, 21.40595 ] ] ] } },
{ "type": "Feature", "properties": { "fld_zone": "AH", "static_bfe": 8.0 }, "geometry": { "type": "Polygon", "coordinates": [ [ [ -159.69944, 21.96711 ], [ -159.69956, 21.96724 ], [ -159.69966, 21.9675 ], [ -159.69984, 21.96804 ], [ -159.69999, 21.96845 ], [ -159.7002, 21.96902 ], [ -159.70047, 21.96971 ], [ -159.70063, 21.97006 ], [ -159.70071, 21.97021 ], [ -159.70085, 21.97006 ], [ -159.70094, 21.96997 ], [ -159.70105, 21.96981 ], [ -159.70115, 21.96969 ], [ -159.70129, 21.96949 ], [ -159.7014, 21.9693 ], [ -159.70162, 21.96897 ], [ -159.70192, 21.96859 ], [ -159.70218, 21.96826 ], [ -159.70253, 21.96786 ], [ -159.70283, 21.96757 ], [ -159.70306, 21.9673 ], [ -159.7036, 21.96667 ], [ -159.70419, 21.96601 ], [ -159.70455, 21.96556 ], [ -159.7048, 21.96527 ], [ -159.70509, 21.96501 ], [ -159.70543, 21.96473 ], [ -159.70475, 21.96476 ], [ -159.70446, 21.96478 ], [ -159.70426, 21.96484 ], [ -159.7041, 21.96496 ], [ -159.70374, 21.96524 ], [ -159.70357, 21.96536 ], [ -159.70343, 21.96537 ], [ -159.70334, 21.96534 ], [ -159.7032, 21.96525 ], [ -159.70318, 21.96514 ], [ -159.70319, 21.96507 ], [ -159.70325, 21.96496 ], [ -159.70344, 21.9647 ], [ -159.7035, 21.96456 ], [ -159.70359, 21.96441 ], [ -159.70363, 21.96428 ], [ -159.70363, 21.96416 ], [ -159.7036, 21.96404 ], [ -159.70354, 21.96391 ], [ -159.70351, 21.9638 ], [ -159.70351, 21.96367 ], [ -159.70355, 21.96346 ], [ -159.70365, 21.96308 ], [ -159.70368, 21.96294 ], [ -159.70367, 21.96283 ], [ -159.70361, 21.96278 ], [ -159.70354, 21.96276 ], [ -159.70345, 21.96275 ], [ -159.70334, 21.96271 ], [ -159.7032, 21.96255 ], [ -159.70307, 21.96231 ], [ -159.70297, 21.96223 ], [ -159.70276, 21.96217 ], [ -159.70257, 21.96218 ], [ -159.70237, 21.96223 ], [ -159.70209, 21.96228 ], [ -159.70187, 21.9623 ], [ -159.70171, 21.9623 ], [ -159.70153, 21.96228 ], [ -159.70137, 21.96229 ], [ -159.70119, 21.96233 ], [ -159.701, 21.96238 ], [ -159.70086, 21.96241 ], [ -159.70081, 21.9624 ], [ -159.70077, 21.96235 ], [ -159.70076, 21.96226 ], [ -159.70078, 21.96214 ], [ -159.7008, 21.96206 ], [ -159.70079, 21.96202 ], [ -159.70076, 21.962 ], [ -159.70067, 21.96205 ], [ -159.70042, 21.96218 ], [ -159.70019, 21.96223 ], [ -159.70001, 21.96225 ], [ -159.69974, 21.96225 ], [ -159.69911, 21.96227 ], [ -159.69877, 21.96226 ], [ -159.69858, 21.96224 ], [ -159.69838, 21.9622 ], [ -159.69822, 21.96219 ], [ -159.6981, 21.96219 ], [ -159.69795, 21.9622 ], [ -159.69759, 21.96225 ], [ -159.69734, 21.96229 ], [ -159.69726, 21.96229 ], [ -159.6971, 21.96226 ], [ -159.69692, 21.96219 ], [ -159.69631, 21.96195 ], [ -159.69592, 21.96183 ], [ -159.6957, 21.96176 ], [ -159.69545, 21.96171 ], [ -159.69525, 21.9617 ], [ -159.695, 21.96172 ], [ -159.69466, 21.96176 ], [ -159.69428, 21.96178 ], [ -159.69388, 21.96178 ], [ -159.69356, 21.96176 ], [ -159.69333, 21.9617 ], [ -159.69317, 21.96159 ], [ -159.69275, 21.96139 ], [ -159.69247, 21.96132 ], [ -159.69227, 21.9613 ], [ -159.69203, 21.96129 ], [ -159.69186, 21.96123 ], [ -159.69176, 21.96117 ], [ -159.69168, 21.96103 ], [ -159.69163, 21.96091 ], [ -159.69154, 21.96085 ], [ -159.69142, 21.96088 ], [ -159.69124, 21.96101 ], [ -159.69114, 21.96108 ], [ -159.69104, 21.96108 ], [ -159.69079, 21.96105 ], [ -159.69054, 21.96106 ], [ -159.69015, 21.96107 ], [ -159.68993, 21.96108 ], [ -159.68959, 21.96106 ], [ -159.68937, 21.96103 ], [ -159.68888, 21.96096 ], [ -159.68871, 21.96093 ], [ -159.68854, 21.96094 ], [ -159.68823, 21.96098 ], [ -159.68789, 21.96101 ], [ -159.68768, 21.96101 ], [ -159.6875, 21.96098 ], [ -159.68749, 21.96098 ], [ -159.68749, 21.96098 ], [ -159.68749, 21.96876 ], [ -159.68749, 21.96892 ], [ -159.68749, 21.96892 ], [ -159.68754, 21.9689 ], [ -159.68773, 21.96885 ], [ -159.68807, 21.9687 ], [ -159.68828, 21.96862 ], [ -159.6887, 21.96851 ], [ -159.689, 21.96845 ], [ -159.68962, 21.96834 ], [ -159.6898, 21.96829 ], [ -159.68997, 21.96819 ], [ -159.69016, 21.96804 ], [ -159.69031, 21.9679 ], [ -159.69055, 21.96775 ], [ -159.69094, 21.96757 ], [ -159.69124, 21.96748 ], [ -159.69141, 21.96743 ], [ -159.69169, 21.96739 ], [ -159.69205, 21.96737 ], [ -159.69251, 21.96736 ], [ -159.69281, 21.96739 ], [ -159.69315, 21.96744 ], [ -159.6935, 21.96752 ], [ -159.69384, 21.96758 ], [ -159.69408, 21.96759 ], [ -159.69438, 21.96755 ], [ -159.69481, 21.96745 ], [ -159.69543, 21.96726 ], [ -159.69576, 21.96713 ], [ -159.69582, 21.96707 ], [ -159.69592, 21.96697 ], [ -159.69601, 21.96692 ], [ -159.69609, 21.9669 ], [ -159.69629, 21.96696 ], [ -159.6967, 21.96709 ], [ -159.69697, 21.96721 ], [ -159.69725, 21.9674 ], [ -159.69738, 21.96757 ], [ -159.69752, 21.96779 ], [ -159.69755, 21.96787 ], [ -159.69763, 21.96791 ], [ -159.69785, 21.96789 ], [ -159.69819, 21.9678 ], [ -159.69832, 21.96773 ], [ -159.69843, 21.96762 ], [ -159.69861, 21.96742 ], [ -159.6989, 21.96712 ], [ -159.69907, 21.96705 ], [ -159.69929, 21.96704 ], [ -159.69944, 21.96711 ] ] ] } },
{ "type": "Feature", "properties": { "fld_zone": "AH", "static_bfe": 12.0 }, "geometry": { "type": "Polygon", "coordinates": [ [ [ -159.72617, 21.9807 ], [ -159.72617, 21.98089 ], [ -159.72614, 21.98099 ], [ -159.72608, 21.98112 ], [ -159.72587, 21.98144 ], [ -159.72582, 21.98156 ], [ -159.7258, 21.98173 ], [ -159.72584, 21.98192 ], [ -159.72588, 21.98206 ], [ -159.72598, 21.98216 ], [ -159.72611, 21.98223 ], [ -159.72635, 21.98228 ], [ -159.72655, 21.98229 ], [ -159.72674, 21.98226 ], [ -159.72709, 21.98211 ], [ -159.72733, 21.982 ], [ -159.72759, 21.98189 ], [ -159.72776, 21.98186 ], [ -159.72797, 21.98191 ], [ -159.72822, 21.98198 ], [ -159.72835, 21.98206 ], [ -159.72892, 21.98268 ], [ -159.72934, 21.98316 ], [ -159.72953, 21.98331 ], [ -159.72964, 21.98338 ], [ -159.72981, 21.98343 ], [ -159.72997, 21.98345 ], [ -159.73017, 21.98342 ], [ -159.73034, 21.98335 ], [ -159.73058, 21.98323 ], [ -159.73078, 21.9831 ], [ -159.731, 21.983 ], [ -159.73109, 21.98298 ], [ -159.73124, 21.98301 ], [ -159.73141, 21.98311 ], [ -159.7316, 21.98333 ], [ -159.73172, 21.98347 ], [ -159.73192, 21.98367 ], [ -159.73207, 21.98386 ], [ -159.73226, 21.98407 ], [ -159.73239, 21.98414 ], [ -159.73254, 21.9842 ], [ -159.73299, 21.9843 ], [ -159.73346, 21.9844 ], [ -159.7345, 21.98375 ], [ -159.7348, 21.98351 ], [ -159.73532, 21.98318 ], [ -159.73575, 21.98292 ], [ -159.73772, 21.98178 ], [ -159.73872, 21.98121 ], [ -159.73977, 21.98058 ], [ -159.73915, 21.97992 ], [ -159.73668, 21.97727 ], [ -159.73574, 21.97625 ], [ -159.73549, 21.97645 ], [ -159.73531, 21.97661 ], [ -159.7351, 21.97674 ], [ -159.73486, 21.97684 ], [ -159.73465, 21.9769 ], [ -159.73451, 21.97692 ], [ -159.73431, 21.97691 ], [ -159.73405, 21.97691 ], [ -159.73343, 21.97699 ], [ -159.73306, 21.97706 ], [ -159.73259, 21.97716 ], [ -159.73237, 21.97722 ], [ -159.73206, 21.97729 ], [ -159.73161, 21.9774 ], [ -159.73142, 21.97742 ], [ -159.73125, 21.97742 ], [ -159.73095, 21.97731 ], [ -159.73057, 21.97713 ], [ -159.73003, 21.97688 ], [ -159.72981, 21.97678 ], [ -159.72945, 21.97666 ], [ -159.7291, 21.97658 ], [ -159.72867, 21.9765 ], [ -159.72812, 21.97644 ], [ -159.72761, 21.97642 ], [ -159.72739, 21.97639 ], [ -159.72714, 21.97634 ], [ -159.72693, 21.97631 ], [ -159.72666, 21.97632 ], [ -159.72622, 21.97631 ], [ -159.7259, 21.9763 ], [ -159.7255, 21.97626 ], [ -159.72503, 21.97625 ], [ -159.72457, 21.97623 ], [ -159.72388, 21.97624 ], [ -159.72344, 21.97622 ], [ -159.7232, 21.97619 ], [ -159.72299, 21.97614 ], [ -159.72265, 21.97602 ], [ -159.72233, 21.97587 ], [ -159.72203, 21.97571 ], [ -159.72178, 21.97552 ], [ -159.72161, 21.97532 ], [ -159.7215, 21.97513 ], [ -159.72145, 21.97496 ], [ -159.72138, 21.97474 ], [ -159.72135, 21.9745 ], [ -159.72134, 21.97423 ], [ -159.72135, 21.97412 ], [ -159.72132, 21.97401 ], [ -159.72127, 21.97375 ], [ -159.72126, 21.97347 ], [ -159.72124, 21.97319 ], [ -159.72122, 21.97295 ], [ -159.72115, 21.97279 ], [ -159.72106, 21.97271 ], [ -159.72098, 21.97268 ], [ -159.72075, 21.97264 ], [ -159.7206, 21.97256 ], [ -159.72051, 21.97248 ], [ -159.72049, 21.97236 ], [ -159.7205, 21.97231 ], [ -159.72054, 21.97217 ], [ -159.72065, 21.97205 ], [ -159.72076, 21.97195 ], [ -159.72113, 21.97172 ], [ -159.72183, 21.97138 ], [ -159.72201, 21.97128 ], [ -159.72203, 21.97127 ], [ -159.72202, 21.97123 ], [ -159.72165, 21.971 ], [ -159.72085, 21.97048 ], [ -159.7202, 21.97004 ], [ -159.71994, 21.96997 ], [ -159.71955, 21.96985 ], [ -159.71928, 21.96972 ], [ -159.71898, 21.96959 ], [ -159.71876, 21.96952 ], [ -159.71876, 21.96954 ], [ -159.71872, 21.96957 ], [ -159.71847, 21.96968 ], [ -159.71829, 21.96973 ], [ -159.71823, 21.96988 ], [ -159.71815, 21.97004 ], [ -159.71803, 21.97018 ], [ -159.7179, 21.97027 ], [ -159.71779, 21.97032 ], [ -159.71762, 21.97034 ], [ -159.71651, 21.97035 ], [ -159.71503, 21.97035 ], [ -159.71434, 21.97035 ], [ -159.714, 21.97044 ], [ -159.7135, 21.97062 ], [ -159.71244, 21.97103 ], [ -159.71152, 21.9714 ], [ -159.71111, 21.97159 ], [ -159.71105, 21.97164 ], [ -159.71097, 21.9717 ], [ -159.71036, 21.97245 ], [ -159.70977, 21.97315 ], [ -159.70943, 21.97361 ], [ -159.70928, 21.97387 ], [ -159.70923, 21.97401 ], [ -159.70921, 21.97413 ], [ -159.70935, 21.97408 ], [ -159.70952, 21.97406 ], [ -159.70957, 21.97408 ], [ -159.70962, 21.97418 ], [ -159.70961, 21.97428 ], [ -159.70955, 21.97447 ], [ -159.70954, 21.97459 ], [ -159.70959, 21.9747 ], [ -159.70972, 21.97483 ], [ -159.70994, 21.97495 ], [ -159.71014, 21.97505 ], [ -159.71052, 21.97518 ], [ -159.71098, 21.97533 ], [ -159.71116, 21.97538 ], [ -159.71137, 21.97542 ], [ -159.71152, 21.97549 ], [ -159.71187, 21.97565 ], [ -159.71217, 21.97577 ], [ -159.71238, 21.97581 ], [ -159.71265, 21.97578 ], [ -159.7128, 21.97577 ], [ -159.71304, 21.9758 ], [ -159.71329, 21.97586 ], [ -159.71348, 21.97593 ], [ -159.71365, 21.97601 ], [ -159.71384, 21.97604 ], [ -159.71402, 21.97605 ], [ -159.71425, 21.97602 ], [ -159.7144, 21.97603 ], [ -159.71448, 21.9761 ], [ -159.71452, 21.97624 ], [ -159.71464, 21.97662 ], [ -159.71467, 21.97677 ], [ -159.71473, 21.97688 ], [ -159.71483, 21.97705 ], [ -159.71501, 21.97726 ], [ -159.71513, 21.97737 ], [ -159.71523, 21.97741 ], [ -159.71542, 21.9774 ], [ -159.71564, 21.97736 ], [ -159.71575, 21.97736 ], [ -159.71581, 21.97739 ], [ -159.71583, 21.9775 ], [ -159.71581, 21.97766 ], [ -159.71576, 21.97792 ], [ -159.71577, 21.97808 ], [ -159.71581, 21.97825 ], [ -159.71589, 21.97844 ], [ -159.71606, 21.97876 ], [ -159.71619, 21.97891 ], [ -159.71632, 21.97905 ], [ -159.71657, 21.97927 ], [ -159.71692, 21.97956 ], [ -159.71708, 21.97972 ], [ -159.71722, 21.97975 ], [ -159.71767, 21.97973 ], [ -159.71795, 21.97967 ], [ -159.71819, 21.97955 ], [ -159.71835, 21.97943 ], [ -159.71857, 21.9793 ], [ -159.71881, 21.97922 ], [ -159.71896, 21.97919 ], [ -159.7191, 21.9792 ], [ -159.71919, 21.97916 ], [ -159.71931, 21.97895 ], [ -159.71939, 21.97879 ], [ -159.71938, 21.97867 ], [ -159.71936, 21.97853 ], [ -159.71934, 21.97837 ], [ -159.71932, 21.9783 ], [ -159.71935, 21.97823 ], [ -159.71947, 21.97819 ], [ -159.71962, 21.97823 ], [ -159.71987, 21.97834 ], [ -159.72018, 21.97851 ], [ -159.72037, 21.97862 ], [ -159.72054, 21.97867 ], [ -159.72076, 21.97869 ], [ -159.72088, 21.9787 ], [ -159.7211, 21.97875 ], [ -159.72185, 21.97896 ], [ -159.72209, 21.979 ], [ -159.72224, 21.97906 ], [ -159.72249, 21.97922 ], [ -159.72276, 21.97942 ], [ -159.72314, 21.97971 ], [ -159.72341, 21.97982 ], [ -159.7237, 21.97994 ], [ -159.724, 21.98004 ], [ -159.7244, 21.98012 ], [ -159.72466, 21.98018 ], [ -159.72493, 21.98023 ], [ -159.72533, 21.98029 ], [ -159.72571, 21.98036 ], [ -159.72592, 21.98043 ], [ -159.72607, 21.98051 ], [ -159.72616, 21.98061 ], [ -159.72617, 21.9807 ] ] ] } },
{ "type": "Feature", "properties": { "fld_zone": "AH", "static_bfe": 8.0 }, "geometry": { "type": "Polygon", "coordinates": [ [ [ -159.67528, 21.95977 ], [ -159.67511, 21.95981 ], [ -159.67495, 21.96 ], [ -159.67481, 21.96022 ], [ -159.67474, 21.96047 ], [ -159.67471, 21.96064 ], [ -159.67471, 21.96082 ], [ -159.67476, 21.96106 ], [ -159.67481, 21.96119 ], [ -159.67487, 21.96134 ], [ -159.67492, 21.96144 ], [ -159.67503, 21.96151 ], [ -159.67514, 21.96157 ], [ -159.67535, 21.9616 ], [ -159.6755, 21.96166 ], [ -159.67562, 21.96174 ], [ -159.67566, 21.96185 ], [ -159.67568, 21.96198 ], [ -159.67565, 21.96216 ], [ -159.67564, 21.96232 ], [ -159.67568, 21.96249 ], [ -159.6758, 21.96272 ], [ -159.67598, 21.96296 ], [ -159.67621, 21.9632 ], [ -159.67661, 21.96352 ], [ -159.67685, 21.9637 ], [ -159.67704, 21.96385 ], [ -159.67731, 21.96411 ], [ -159.67757, 21.96426 ], [ -159.67788, 21.96446 ], [ -159.67815, 21.96459 ], [ -159.67836, 21.96465 ], [ -159.67852, 21.96476 ], [ -159.67857, 21.96487 ], [ -159.67863, 21.96518 ], [ -159.67867, 21.96535 ], [ -159.67879, 21.96547 ], [ -159.67893, 21.96556 ], [ -159.67924, 21.96573 ], [ -159.67951, 21.96586 ], [ -159.67988, 21.96601 ], [ -159.68047, 21.96626 ], [ -159.68075, 21.96635 ], [ -159.68091, 21.96634 ], [ -159.68111, 21.96627 ], [ -159.68133, 21.96619 ], [ -159.68156, 21.96613 ], [ -159.68173, 21.96612 ], [ -159.68191, 21.96615 ], [ -159.68226, 21.96622 ], [ -159.68284, 21.96635 ], [ -159.68323, 21.96639 ], [ -159.68351, 21.96639 ], [ -159.68371, 21.96636 ], [ -159.68387, 21.96636 ], [ -159.6841, 21.96636 ], [ -159.68423, 21.96642 ], [ -159.68431, 21.96649 ], [ -159.68443, 21.96662 ], [ -159.68456, 21.96682 ], [ -159.68465, 21.967 ], [ -159.68467, 21.96711 ], [ -159.68472, 21.96728 ], [ -159.68479, 21.96739 ], [ -159.68496, 21.96759 ], [ -159.68517, 21.96778 ], [ -159.68535, 21.96792 ], [ -159.68551, 21.96803 ], [ -159.68566, 21.96814 ], [ -159.68575, 21.96827 ], [ -159.68599, 21.96858 ], [ -159.68614, 21.96876 ], [ -159.68621, 21.96883 ], [ -159.68639, 21.96898 ], [ -159.68665, 21.96907 ], [ -159.68684, 21.9691 ], [ -159.687, 21.96909 ], [ -159.6871, 21.96907 ], [ -159.68734, 21.96897 ], [ -159.68749, 21.96892 ], [ -159.68749, 21.96876 ], [ -159.68749, 21.96098 ], [ -159.68728, 21.96092 ], [ -159.68702, 21.9609 ], [ -159.6866, 21.96084 ], [ -159.68639, 21.96081 ], [ -159.68593, 21.96074 ], [ -159.6858, 21.96073 ], [ -159.68569, 21.96073 ], [ -159.68545, 21.96081 ], [ -159.68517, 21.96083 ], [ -159.68497, 21.96081 ], [ -159.68471, 21.96072 ], [ -159.68449, 21.96064 ], [ -159.68432, 21.96061 ], [ -159.6842, 21.96062 ], [ -159.68377, 21.96075 ], [ -159.68341, 21.96085 ], [ -159.68324, 21.96087 ], [ -159.68265, 21.96088 ], [ -159.68145, 21.96091 ], [ -159.68063, 21.9609 ], [ -159.67995, 21.96087 ], [ -159.67981, 21.96088 ], [ -159.67966, 21.96092 ], [ -159.67951, 21.96095 ], [ -159.67932, 21.96095 ], [ -159.67906, 21.96096 ], [ -159.67881, 21.96098 ], [ -159.67864, 21.96098 ], [ -159.67821, 21.96091 ], [ -159.67792, 21.96087 ], [ -159.6776, 21.9608 ], [ -159.67745, 21.96078 ], [ -159.67719, 21.96075 ], [ -159.67692, 21.96067 ], [ -159.67665, 21.96056 ], [ -159.67641, 21.96037 ], [ -159.67618, 21.9602 ], [ -159.67585, 21.96003 ], [ -159.67558, 21.95987 ], [ -159.67541, 21.95979 ], [ -159.67528, 21.95977 ] ] ] } }
]
}
