{
"type": "FeatureCollection",
"name": "Solar_Insolation_300-350",
"crs": { "type": "name", "properties": { "name": "urn:ogc:def:crs:OGC:1.3:CRS84" } },
"xy_coordinate_resolution": 1e-05,
"features": [
{ "type": "Feature", "properties": { "objectid": 6, "solar_cal": "300-350", "st_areasha": 158491361.44870356, "st_perimet": 132604.61875074735 }, "geometry": { "type": "MultiPolygon", "coordinates": [ [ [ [ -155.42604, 19.35196 ], [ -155.42045, 19.3476 ], [ -155.41888, 19.34108 ], [ -155.42673, 19.33153 ], [ -155.43768, 19.3155 ], [ -155.44448, 19.29922 ], [ -155.45183, 19.28464 ], [ -155.45584, 19.27393 ], [ -155.45692, 19.25913 ], [ -155.46104, 19.23362 ], [ -155.46454, 19.21738 ], [ -155.47787, 19.19709 ], [ -155.49144, 19.18002 ], [ -155.49827, 19.1739 ], [ -155.51473, 19.15829 ], [ -155.52876, 19.14392 ], [ -155.54142, 19.13017 ], [ -155.5603, 19.11352 ], [ -155.58177, 19.10037 ], [ -155.59672, 19.09151 ], [ -155.6135, 19.08434 ], [ -155.62517, 19.08408 ], [ -155.63649, 19.08866 ], [ -155.64065, 19.09745 ], [ -155.64235, 19.11192 ], [ -155.64166, 19.13025 ], [ -155.63834, 19.14317 ], [ -155.62419, 19.17113 ], [ -155.61774, 19.18048 ], [ -155.60949, 19.19025 ], [ -155.59908, 19.20508 ], [ -155.58777, 19.2173 ], [ -155.56563, 19.23691 ], [ -155.55039, 19.24908 ], [ -155.53507, 19.26316 ], [ -155.52387, 19.27558 ], [ -155.50875, 19.28926 ], [ -155.497, 19.30078 ], [ -155.48338, 19.31523 ], [ -155.46457, 19.33146 ], [ -155.44722, 19.34597 ], [ -155.432, 19.35279 ], [ -155.42604, 19.35196 ] ], [ [ -155.4833, 19.2933 ], [ -155.49478, 19.28551 ], [ -155.50536, 19.27441 ], [ -155.52043, 19.25722 ], [ -155.53324, 19.24608 ], [ -155.54501, 19.23648 ], [ -155.55544, 19.2297 ], [ -155.57176, 19.21168 ], [ -155.58785, 19.19255 ], [ -155.59776, 19.17974 ], [ -155.60502, 19.16716 ], [ -155.6099, 19.15241 ], [ -155.61399, 19.14118 ], [ -155.61596, 19.13029 ], [ -155.61275, 19.12108 ], [ -155.60748, 19.11652 ], [ -155.59734, 19.11293 ], [ -155.58636, 19.11711 ], [ -155.56973, 19.12769 ], [ -155.55695, 19.14003 ], [ -155.54333, 19.15309 ], [ -155.5332, 19.1655 ], [ -155.52695, 19.17453 ], [ -155.51783, 19.19125 ], [ -155.50992, 19.21107 ], [ -155.50571, 19.22189 ], [ -155.49875, 19.24139 ], [ -155.49015, 19.2575 ], [ -155.47974, 19.27363 ], [ -155.47301, 19.28679 ], [ -155.47307, 19.29907 ], [ -155.4833, 19.2933 ] ] ] ] } },
{ "type": "Feature", "properties": { "objectid": 19, "solar_cal": "300-350", "st_areasha": 735048140.89834762, "st_perimet": 198441.21593539786 }, "geometry": { "type": "MultiPolygon", "coordinates": [ [ [ [ -155.2395, 19.94583 ], [ -155.22664, 19.94043 ], [ -155.21698, 19.9345 ], [ -155.20021, 19.92321 ], [ -155.18278, 19.90921 ], [ -155.16801, 19.89468 ], [ -155.159, 19.87928 ], [ -155.14688, 19.85266 ], [ -155.13735, 19.82892 ], [ -155.12669, 19.80841 ], [ -155.12238, 19.79468 ], [ -155.12237, 19.77376 ], [ -155.12592, 19.75663 ], [ -155.12811, 19.74193 ], [ -155.12801, 19.72292 ], [ -155.12686, 19.70554 ], [ -155.12277, 19.69119 ], [ -155.11508, 19.67951 ], [ -155.10182, 19.66406 ], [ -155.08127, 19.64345 ], [ -155.0661, 19.61846 ], [ -155.05202, 19.59527 ], [ -155.04427, 19.5872 ], [ -155.02797, 19.57499 ], [ -155.01437, 19.56618 ], [ -154.99905, 19.55577 ], [ -154.98704, 19.54663 ], [ -154.97326, 19.53068 ], [ -154.96545, 19.51547 ], [ -154.9655, 19.49878 ], [ -154.96859, 19.4887 ], [ -154.97806, 19.47935 ], [ -154.99797, 19.47101 ], [ -155.02405, 19.46331 ], [ -155.06052, 19.45329 ], [ -155.09544, 19.4465 ], [ -155.11561, 19.44358 ], [ -155.16152, 19.44109 ], [ -155.17623, 19.44425 ], [ -155.19387, 19.45261 ], [ -155.2054, 19.46535 ], [ -155.20703, 19.47761 ], [ -155.20781, 19.48977 ], [ -155.20532, 19.50458 ], [ -155.20279, 19.51607 ], [ -155.19969, 19.53341 ], [ -155.19765, 19.55073 ], [ -155.19729, 19.56612 ], [ -155.19934, 19.58691 ], [ -155.20633, 19.61228 ], [ -155.21101, 19.63023 ], [ -155.21791, 19.65641 ], [ -155.23443, 19.67665 ], [ -155.25369, 19.69314 ], [ -155.26521, 19.70408 ], [ -155.27384, 19.72229 ], [ -155.27479, 19.73967 ], [ -155.27242, 19.75569 ], [ -155.26795, 19.77505 ], [ -155.26198, 19.80257 ], [ -155.26074, 19.81536 ], [ -155.25809, 19.82625 ], [ -155.2593, 19.83841 ], [ -155.26354, 19.85466 ], [ -155.26865, 19.8727 ], [ -155.27145, 19.8943 ], [ -155.2722, 19.913 ], [ -155.26871, 19.93426 ], [ -155.259, 19.94351 ], [ -155.24933, 19.94713 ], [ -155.2395, 19.94583 ] ], [ [ -155.23481, 19.90797 ], [ -155.23742, 19.90291 ], [ -155.23882, 19.89464 ], [ -155.23548, 19.88151 ], [ -155.22773, 19.8661 ], [ -155.22233, 19.85047 ], [ -155.22136, 19.83992 ], [ -155.21896, 19.82567 ], [ -155.2179, 19.81622 ], [ -155.2184, 19.77498 ], [ -155.22187, 19.76207 ], [ -155.22526, 19.75017 ], [ -155.2228, 19.74044 ], [ -155.21455, 19.72705 ], [ -155.20222, 19.71934 ], [ -155.18652, 19.71608 ], [ -155.16912, 19.7223 ], [ -155.15875, 19.73849 ], [ -155.15303, 19.75072 ], [ -155.14946, 19.76564 ], [ -155.14766, 19.77703 ], [ -155.14972, 19.79028 ], [ -155.15747, 19.80699 ], [ -155.16521, 19.8225 ], [ -155.17062, 19.83994 ], [ -155.17885, 19.86138 ], [ -155.18722, 19.87598 ], [ -155.20146, 19.89132 ], [ -155.21268, 19.90266 ], [ -155.2184, 19.90854 ], [ -155.23025, 19.90992 ], [ -155.23481, 19.90797 ] ] ] ] } },
{ "type": "Feature", "properties": { "objectid": 24, "solar_cal": "300-350", "st_areasha": 272617823.74078703, "st_perimet": 129959.42456947408 }, "geometry": { "type": "MultiPolygon", "coordinates": [ [ [ [ -155.76989, 20.20007 ], [ -155.76121, 20.19858 ], [ -155.74748, 20.19554 ], [ -155.73762, 20.19346 ], [ -155.72467, 20.19242 ], [ -155.71429, 20.19175 ], [ -155.7092, 20.19181 ], [ -155.70919, 20.1918 ], [ -155.70893, 20.19158 ], [ -155.70885, 20.19151 ], [ -155.70877, 20.19146 ], [ -155.70869, 20.19141 ], [ -155.70858, 20.19137 ], [ -155.70843, 20.19127 ], [ -155.70818, 20.19115 ], [ -155.70792, 20.191 ], [ -155.7078, 20.19093 ], [ -155.70768, 20.19084 ], [ -155.70758, 20.19076 ], [ -155.70751, 20.19065 ], [ -155.70738, 20.19049 ], [ -155.70727, 20.19046 ], [ -155.70712, 20.1904 ], [ -155.70698, 20.19039 ], [ -155.70684, 20.19035 ], [ -155.70668, 20.19029 ], [ -155.70656, 20.19025 ], [ -155.70639, 20.1902 ], [ -155.70622, 20.19012 ], [ -155.70603, 20.19006 ], [ -155.70592, 20.19001 ], [ -155.70581, 20.18998 ], [ -155.70549, 20.18995 ], [ -155.70537, 20.18992 ], [ -155.70537, 20.18994 ], [ -155.70525, 20.18991 ], [ -155.70498, 20.18984 ], [ -155.70481, 20.18984 ], [ -155.70466, 20.18982 ], [ -155.70457, 20.18982 ], [ -155.70449, 20.18984 ], [ -155.70438, 20.18985 ], [ -155.70423, 20.18981 ], [ -155.70407, 20.18978 ], [ -155.70388, 20.18973 ], [ -155.70349, 20.18967 ], [ -155.70339, 20.18963 ], [ -155.70326, 20.18959 ], [ -155.70314, 20.18954 ], [ -155.70302, 20.1895 ], [ -155.70277, 20.18938 ], [ -155.70258, 20.18928 ], [ -155.70234, 20.18914 ], [ -155.70203, 20.18889 ], [ -155.70186, 20.18877 ], [ -155.70178, 20.18863 ], [ -155.70165, 20.1885 ], [ -155.70139, 20.18822 ], [ -155.70117, 20.18792 ], [ -155.70103, 20.18772 ], [ -155.70091, 20.18745 ], [ -155.70084, 20.18743 ], [ -155.70081, 20.18739 ], [ -155.70074, 20.18733 ], [ -155.70063, 20.18725 ], [ -155.70053, 20.18714 ], [ -155.7003, 20.18696 ], [ -155.70014, 20.18684 ], [ -155.70003, 20.18666 ], [ -155.69989, 20.18655 ], [ -155.6997, 20.18641 ], [ -155.69965, 20.18636 ], [ -155.69948, 20.18624 ], [ -155.69936, 20.18619 ], [ -155.69926, 20.18613 ], [ -155.69901, 20.18597 ], [ -155.69871, 20.18582 ], [ -155.69863, 20.18579 ], [ -155.69854, 20.1858 ], [ -155.69851, 20.1858 ], [ -155.69845, 20.18581 ], [ -155.69841, 20.18582 ], [ -155.69833, 20.18581 ], [ -155.69819, 20.18578 ], [ -155.69798, 20.18575 ], [ -155.6978, 20.18566 ], [ -155.6976, 20.18562 ], [ -155.69744, 20.18556 ], [ -155.69723, 20.18553 ], [ -155.69708, 20.1855 ], [ -155.69693, 20.18549 ], [ -155.69686, 20.1855 ], [ -155.69668, 20.1855 ], [ -155.69655, 20.18548 ], [ -155.69643, 20.18545 ], [ -155.69621, 20.18542 ], [ -155.69609, 20.18538 ], [ -155.69595, 20.18531 ], [ -155.69588, 20.18524 ], [ -155.69583, 20.18515 ], [ -155.69571, 20.18501 ], [ -155.69565, 20.18493 ], [ -155.69552, 20.18475 ], [ -155.69534, 20.18456 ], [ -155.69515, 20.18436 ], [ -155.69481, 20.18407 ], [ -155.69433, 20.18364 ], [ -155.69418, 20.18346 ], [ -155.69402, 20.18333 ], [ -155.69366, 20.18299 ], [ -155.69331, 20.18265 ], [ -155.69326, 20.18258 ], [ -155.69306, 20.18241 ], [ -155.69293, 20.18227 ], [ -155.69256, 20.18183 ], [ -155.69243, 20.18169 ], [ -155.69218, 20.18149 ], [ -155.69198, 20.18134 ], [ -155.69174, 20.18115 ], [ -155.69142, 20.1809 ], [ -155.69128, 20.18073 ], [ -155.69112, 20.18058 ], [ -155.69107, 20.18051 ], [ -155.691, 20.18048 ], [ -155.69084, 20.18037 ], [ -155.69068, 20.1803 ], [ -155.69056, 20.18024 ], [ -155.69047, 20.18018 ], [ -155.69024, 20.18001 ], [ -155.68964, 20.17957 ], [ -155.68947, 20.17944 ], [ -155.68937, 20.17934 ], [ -155.68923, 20.1792 ], [ -155.68913, 20.17906 ], [ -155.68908, 20.17896 ], [ -155.68895, 20.1786 ], [ -155.68891, 20.17846 ], [ -155.68885, 20.17838 ], [ -155.68867, 20.17822 ], [ -155.68852, 20.17818 ], [ -155.68836, 20.17812 ], [ -155.68823, 20.17806 ], [ -155.6881, 20.17802 ], [ -155.68803, 20.17797 ], [ -155.68792, 20.17794 ], [ -155.68765, 20.17787 ], [ -155.6875, 20.17784 ], [ -155.68733, 20.17783 ], [ -155.68716, 20.17782 ], [ -155.6869, 20.17784 ], [ -155.68683, 20.17785 ], [ -155.6868, 20.17787 ], [ -155.68677, 20.17791 ], [ -155.68673, 20.17797 ], [ -155.68667, 20.17803 ], [ -155.68658, 20.17811 ], [ -155.68647, 20.17823 ], [ -155.68637, 20.17834 ], [ -155.68624, 20.17845 ], [ -155.68602, 20.17873 ], [ -155.68588, 20.17887 ], [ -155.68578, 20.17895 ], [ -155.68571, 20.179 ], [ -155.68566, 20.17903 ], [ -155.68559, 20.17908 ], [ -155.6855, 20.17912 ], [ -155.68538, 20.17916 ], [ -155.68525, 20.17919 ], [ -155.68512, 20.1792 ], [ -155.68499, 20.17922 ], [ -155.68484, 20.17923 ], [ -155.68468, 20.17921 ], [ -155.68455, 20.17922 ], [ -155.6844, 20.1792 ], [ -155.68428, 20.17917 ], [ -155.68419, 20.17916 ], [ -155.68406, 20.17912 ], [ -155.68384, 20.17908 ], [ -155.68368, 20.17902 ], [ -155.68351, 20.17896 ], [ -155.68335, 20.17895 ], [ -155.68324, 20.17893 ], [ -155.68313, 20.17891 ], [ -155.68304, 20.1789 ], [ -155.68282, 20.17884 ], [ -155.68268, 20.17883 ], [ -155.6825, 20.1788 ], [ -155.68229, 20.17876 ], [ -155.68202, 20.17871 ], [ -155.68157, 20.1786 ], [ -155.6813, 20.17858 ], [ -155.68115, 20.17854 ], [ -155.68096, 20.17847 ], [ -155.68088, 20.17844 ], [ -155.6808, 20.17839 ], [ -155.68065, 20.17831 ], [ -155.68045, 20.17821 ], [ -155.68032, 20.17813 ], [ -155.68014, 20.17801 ], [ -155.67984, 20.1778 ], [ -155.67944, 20.17754 ], [ -155.67928, 20.17742 ], [ -155.6791, 20.17732 ], [ -155.67889, 20.17721 ], [ -155.67881, 20.17714 ], [ -155.6787, 20.17705 ], [ -155.67863, 20.17699 ], [ -155.67847, 20.17688 ], [ -155.67827, 20.17672 ], [ -155.678, 20.17649 ], [ -155.67779, 20.17634 ], [ -155.67759, 20.17621 ], [ -155.6775, 20.17615 ], [ -155.67738, 20.17609 ], [ -155.67726, 20.17602 ], [ -155.67713, 20.17592 ], [ -155.67689, 20.17572 ], [ -155.67643, 20.1754 ], [ -155.67632, 20.17535 ], [ -155.67615, 20.17527 ], [ -155.67603, 20.17519 ], [ -155.67577, 20.17507 ], [ -155.67546, 20.17493 ], [ -155.67525, 20.17486 ], [ -155.6749, 20.17474 ], [ -155.67474, 20.1747 ], [ -155.67466, 20.17466 ], [ -155.67454, 20.17464 ], [ -155.67428, 20.17455 ], [ -155.67408, 20.17449 ], [ -155.67391, 20.1744 ], [ -155.67367, 20.17433 ], [ -155.67334, 20.17419 ], [ -155.67307, 20.17409 ], [ -155.67298, 20.1741 ], [ -155.67283, 20.17415 ], [ -155.67229, 20.17424 ], [ -155.67214, 20.17424 ], [ -155.67193, 20.17425 ], [ -155.67168, 20.17424 ], [ -155.6715, 20.17424 ], [ -155.67129, 20.1742 ], [ -155.67113, 20.17418 ], [ -155.67095, 20.17411 ], [ -155.6706, 20.174 ], [ -155.67036, 20.17389 ], [ -155.67022, 20.17381 ], [ -155.67005, 20.17368 ], [ -155.6698, 20.17349 ], [ -155.6697, 20.17338 ], [ -155.66966, 20.17328 ], [ -155.66962, 20.17321 ], [ -155.66961, 20.17324 ], [ -155.66952, 20.17327 ], [ -155.66942, 20.17328 ], [ -155.66936, 20.17325 ], [ -155.66928, 20.17324 ], [ -155.66922, 20.17321 ], [ -155.66909, 20.1731 ], [ -155.66885, 20.17298 ], [ -155.66839, 20.17268 ], [ -155.66802, 20.17246 ], [ -155.66783, 20.17236 ], [ -155.66771, 20.17231 ], [ -155.66765, 20.1723 ], [ -155.66753, 20.17227 ], [ -155.66741, 20.17225 ], [ -155.66729, 20.17222 ], [ -155.66719, 20.17217 ], [ -155.66711, 20.17216 ], [ -155.66702, 20.17214 ], [ -155.66686, 20.17208 ], [ -155.66671, 20.17204 ], [ -155.66655, 20.17201 ], [ -155.66637, 20.17195 ], [ -155.66625, 20.17191 ], [ -155.66618, 20.17186 ], [ -155.66607, 20.17179 ], [ -155.66599, 20.17174 ], [ -155.66575, 20.17166 ], [ -155.66563, 20.17157 ], [ -155.66533, 20.17139 ], [ -155.66516, 20.17123 ], [ -155.66507, 20.17123 ], [ -155.66499, 20.17119 ], [ -155.66488, 20.1711 ], [ -155.66479, 20.17105 ], [ -155.66469, 20.171 ], [ -155.6645, 20.17091 ], [ -155.66433, 20.17085 ], [ -155.66419, 20.17078 ], [ -155.66402, 20.17071 ], [ -155.66381, 20.1706 ], [ -155.66367, 20.17052 ], [ -155.66351, 20.17043 ], [ -155.6633, 20.17029 ], [ -155.66299, 20.17007 ], [ -155.66264, 20.16983 ], [ -155.66238, 20.16965 ], [ -155.66185, 20.16927 ], [ -155.66146, 20.16895 ], [ -155.6612, 20.16879 ], [ -155.66099, 20.16868 ], [ -155.66087, 20.16863 ], [ -155.6608, 20.16861 ], [ -155.66072, 20.1686 ], [ -155.66058, 20.16861 ], [ -155.66047, 20.16859 ], [ -155.66035, 20.16856 ], [ -155.66026, 20.16853 ], [ -155.66013, 20.16848 ], [ -155.65995, 20.1684 ], [ -155.65974, 20.16829 ], [ -155.65963, 20.16821 ], [ -155.65952, 20.16815 ], [ -155.65943, 20.16807 ], [ -155.65936, 20.16799 ], [ -155.65923, 20.16783 ], [ -155.65899, 20.16753 ], [ -155.65876, 20.16719 ], [ -155.65868, 20.16715 ], [ -155.6585, 20.16701 ], [ -155.65835, 20.16689 ], [ -155.65819, 20.1667 ], [ -155.65802, 20.16647 ], [ -155.65792, 20.16634 ], [ -155.65787, 20.1663 ], [ -155.65775, 20.16627 ], [ -155.65753, 20.16621 ], [ -155.65734, 20.16618 ], [ -155.65713, 20.1661 ], [ -155.6569, 20.16599 ], [ -155.65665, 20.16583 ], [ -155.65632, 20.16561 ], [ -155.65602, 20.16544 ], [ -155.65566, 20.16521 ], [ -155.65542, 20.16511 ], [ -155.65527, 20.16506 ], [ -155.65514, 20.16504 ], [ -155.655, 20.16502 ], [ -155.65485, 20.16501 ], [ -155.65474, 20.16503 ], [ -155.65453, 20.16503 ], [ -155.65428, 20.16506 ], [ -155.65404, 20.16506 ], [ -155.65377, 20.16507 ], [ -155.65358, 20.16506 ], [ -155.65341, 20.16502 ], [ -155.65321, 20.16495 ], [ -155.65292, 20.16483 ], [ -155.6527, 20.16475 ], [ -155.65224, 20.16459 ], [ -155.65186, 20.16446 ], [ -155.65162, 20.16438 ], [ -155.65136, 20.16433 ], [ -155.65125, 20.16429 ], [ -155.65117, 20.16424 ], [ -155.65108, 20.16415 ], [ -155.65093, 20.16402 ], [ -155.65073, 20.16388 ], [ -155.65058, 20.16372 ], [ -155.65038, 20.16345 ], [ -155.65011, 20.16311 ], [ -155.64985, 20.16283 ], [ -155.64955, 20.16244 ], [ -155.64943, 20.16229 ], [ -155.64935, 20.16222 ], [ -155.6491, 20.16191 ], [ -155.64887, 20.1616 ], [ -155.64873, 20.16139 ], [ -155.64848, 20.1611 ], [ -155.64818, 20.16072 ], [ -155.64811, 20.16061 ], [ -155.64805, 20.16049 ], [ -155.64792, 20.16024 ], [ -155.64781, 20.16002 ], [ -155.64773, 20.1599 ], [ -155.64758, 20.15965 ], [ -155.6475, 20.15952 ], [ -155.64739, 20.15937 ], [ -155.64728, 20.15921 ], [ -155.64712, 20.15886 ], [ -155.64707, 20.15877 ], [ -155.647, 20.15867 ], [ -155.64693, 20.15842 ], [ -155.64686, 20.15813 ], [ -155.64684, 20.15797 ], [ -155.64683, 20.1578 ], [ -155.64683, 20.15768 ], [ -155.64688, 20.15758 ], [ -155.64688, 20.15749 ], [ -155.64688, 20.15739 ], [ -155.64693, 20.15712 ], [ -155.64691, 20.15704 ], [ -155.6469, 20.15701 ], [ -155.64686, 20.1569 ], [ -155.6467, 20.15666 ], [ -155.64663, 20.15656 ], [ -155.64659, 20.15652 ], [ -155.64653, 20.15649 ], [ -155.64643, 20.15647 ], [ -155.64631, 20.15646 ], [ -155.6461, 20.15641 ], [ -155.64582, 20.15627 ], [ -155.64566, 20.15622 ], [ -155.64548, 20.15614 ], [ -155.64535, 20.1561 ], [ -155.64524, 20.1561 ], [ -155.64513, 20.15604 ], [ -155.64502, 20.15603 ], [ -155.64492, 20.15599 ], [ -155.6448, 20.15595 ], [ -155.64469, 20.1559 ], [ -155.64459, 20.15585 ], [ -155.64445, 20.15576 ], [ -155.64434, 20.15569 ], [ -155.64406, 20.15554 ], [ -155.64383, 20.15543 ], [ -155.64376, 20.15542 ], [ -155.64369, 20.15541 ], [ -155.64363, 20.15543 ], [ -155.64353, 20.15544 ], [ -155.64345, 20.15544 ], [ -155.64334, 20.15544 ], [ -155.64319, 20.15542 ], [ -155.6429, 20.15538 ], [ -155.64276, 20.15535 ], [ -155.64266, 20.15529 ], [ -155.64253, 20.15525 ], [ -155.64234, 20.1552 ], [ -155.64221, 20.15515 ], [ -155.64211, 20.1551 ], [ -155.64095, 20.15153 ], [ -155.63677, 20.14283 ], [ -155.63122, 20.13555 ], [ -155.6231, 20.12711 ], [ -155.61412, 20.11937 ], [ -155.60279, 20.11036 ], [ -155.59361, 20.10282 ], [ -155.5599, 20.09841 ], [ -155.53931, 20.09242 ], [ -155.51828, 20.08513 ], [ -155.50208, 20.07949 ], [ -155.48226, 20.07408 ], [ -155.46816, 20.07385 ], [ -155.4518, 20.07233 ], [ -155.43087, 20.06352 ], [ -155.40831, 20.05261 ], [ -155.39265, 20.0381 ], [ -155.38722, 20.03021 ], [ -155.38452, 20.01898 ], [ -155.38314, 20.01055 ], [ -155.3943, 20.0061 ], [ -155.4099, 20.00743 ], [ -155.42639, 20.01227 ], [ -155.45403, 20.01949 ], [ -155.48655, 20.02515 ], [ -155.51521, 20.02883 ], [ -155.53861, 20.03861 ], [ -155.55388, 20.05442 ], [ -155.56381, 20.06234 ], [ -155.57409, 20.06473 ], [ -155.58274, 20.06443 ], [ -155.60328, 20.05954 ], [ -155.61401, 20.05528 ], [ -155.62808, 20.05289 ], [ -155.64635, 20.05377 ], [ -155.66384, 20.05958 ], [ -155.69083, 20.07221 ], [ -155.70741, 20.08196 ], [ -155.71835, 20.09238 ], [ -155.72986, 20.10551 ], [ -155.74221, 20.11803 ], [ -155.75711, 20.1282 ], [ -155.76534, 20.13603 ], [ -155.77393, 20.14659 ], [ -155.7809, 20.15555 ], [ -155.7875, 20.16824 ], [ -155.79147, 20.17664 ], [ -155.79433, 20.18224 ], [ -155.79679, 20.18955 ], [ -155.79633, 20.19479 ], [ -155.79328, 20.19845 ], [ -155.78935, 20.19991 ], [ -155.78272, 20.20041 ], [ -155.76989, 20.20007 ] ], [ [ -155.72745, 20.15425 ], [ -155.72782, 20.15072 ], [ -155.72583, 20.14581 ], [ -155.72236, 20.14194 ], [ -155.71768, 20.13596 ], [ -155.71215, 20.1303 ], [ -155.70835, 20.12592 ], [ -155.68038, 20.10475 ], [ -155.67442, 20.09849 ], [ -155.66036, 20.09364 ], [ -155.64612, 20.0919 ], [ -155.63889, 20.09411 ], [ -155.63705, 20.10037 ], [ -155.63831, 20.10659 ], [ -155.63989, 20.11251 ], [ -155.64457, 20.11899 ], [ -155.64795, 20.12378 ], [ -155.65376, 20.12722 ], [ -155.66077, 20.13176 ], [ -155.66961, 20.13758 ], [ -155.67877, 20.1428 ], [ -155.68534, 20.14674 ], [ -155.69814, 20.15262 ], [ -155.71059, 20.15668 ], [ -155.72022, 20.15716 ], [ -155.72745, 20.15425 ] ] ] ] } },
{ "type": "Feature", "properties": { "objectid": 35, "solar_cal": "300-350", "st_areasha": 165278832.09598565, "st_perimet": 116809.27180156633 }, "geometry": { "type": "MultiPolygon", "coordinates": [ [ [ [ -156.21894, 20.88477 ], [ -156.20177, 20.88143 ], [ -156.19509, 20.88033 ], [ -156.18672, 20.88259 ], [ -156.18543, 20.88352 ], [ -156.1853, 20.88333 ], [ -156.185, 20.88301 ], [ -156.18476, 20.88285 ], [ -156.18449, 20.88278 ], [ -156.18431, 20.88261 ], [ -156.18407, 20.88249 ], [ -156.1839, 20.88231 ], [ -156.18374, 20.88216 ], [ -156.18369, 20.88202 ], [ -156.18347, 20.88183 ], [ -156.18343, 20.8817 ], [ -156.18343, 20.88158 ], [ -156.18325, 20.88149 ], [ -156.18307, 20.88145 ], [ -156.183, 20.88117 ], [ -156.18294, 20.88108 ], [ -156.1828, 20.88095 ], [ -156.18261, 20.88084 ], [ -156.18258, 20.88076 ], [ -156.18255, 20.88064 ], [ -156.18246, 20.88045 ], [ -156.18236, 20.88033 ], [ -156.18224, 20.8803 ], [ -156.18224, 20.8802 ], [ -156.18224, 20.88011 ], [ -156.18205, 20.87997 ], [ -156.18172, 20.87977 ], [ -156.18127, 20.87954 ], [ -156.18093, 20.87939 ], [ -156.18085, 20.87934 ], [ -156.18077, 20.8792 ], [ -156.1807, 20.87912 ], [ -156.18044, 20.87921 ], [ -156.18028, 20.87918 ], [ -156.17995, 20.879 ], [ -156.17942, 20.87852 ], [ -156.17926, 20.87838 ], [ -156.17868, 20.87783 ], [ -156.1784, 20.87765 ], [ -156.17825, 20.87759 ], [ -156.17795, 20.87769 ], [ -156.17762, 20.87757 ], [ -156.17713, 20.87734 ], [ -156.17689, 20.87719 ], [ -156.17665, 20.87697 ], [ -156.1763, 20.8767 ], [ -156.1761, 20.8767 ], [ -156.17587, 20.87663 ], [ -156.17577, 20.87657 ], [ -156.17565, 20.87649 ], [ -156.17537, 20.87618 ], [ -156.17522, 20.87594 ], [ -156.17511, 20.87569 ], [ -156.17478, 20.87528 ], [ -156.17463, 20.87492 ], [ -156.17447, 20.8746 ], [ -156.17443, 20.87444 ], [ -156.17443, 20.87419 ], [ -156.17447, 20.8739 ], [ -156.17447, 20.87372 ], [ -156.1745, 20.87355 ], [ -156.17449, 20.87342 ], [ -156.17439, 20.87343 ], [ -156.17413, 20.87349 ], [ -156.17372, 20.87366 ], [ -156.17334, 20.87383 ], [ -156.17294, 20.87409 ], [ -156.17237, 20.87448 ], [ -156.17224, 20.87449 ], [ -156.17214, 20.87451 ], [ -156.17204, 20.87448 ], [ -156.17201, 20.87439 ], [ -156.17202, 20.87422 ], [ -156.17189, 20.8741 ], [ -156.1718, 20.874 ], [ -156.17172, 20.87399 ], [ -156.17161, 20.87406 ], [ -156.17148, 20.87411 ], [ -156.17138, 20.87408 ], [ -156.17097, 20.87385 ], [ -156.17075, 20.8738 ], [ -156.17046, 20.8738 ], [ -156.17028, 20.87383 ], [ -156.17018, 20.87381 ], [ -156.17011, 20.87376 ], [ -156.16978, 20.8732 ], [ -156.16974, 20.87312 ], [ -156.16955, 20.87305 ], [ -156.1693, 20.87286 ], [ -156.16878, 20.87258 ], [ -156.16862, 20.87237 ], [ -156.16845, 20.87225 ], [ -156.16803, 20.87203 ], [ -156.16796, 20.87193 ], [ -156.16794, 20.87162 ], [ -156.16771, 20.87143 ], [ -156.16757, 20.87122 ], [ -156.16746, 20.87091 ], [ -156.16742, 20.87089 ], [ -156.16724, 20.87054 ], [ -156.16712, 20.87013 ], [ -156.16712, 20.87 ], [ -156.167, 20.86975 ], [ -156.16688, 20.86938 ], [ -156.16687, 20.86898 ], [ -156.16672, 20.86863 ], [ -156.16666, 20.86832 ], [ -156.16664, 20.8679 ], [ -156.16661, 20.86753 ], [ -156.16661, 20.86704 ], [ -156.16667, 20.86652 ], [ -156.16675, 20.86621 ], [ -156.1668, 20.86591 ], [ -156.16684, 20.86556 ], [ -156.16686, 20.86532 ], [ -156.16689, 20.86477 ], [ -156.1669, 20.86463 ], [ -156.16692, 20.86439 ], [ -156.1669, 20.86407 ], [ -156.16682, 20.86378 ], [ -156.16675, 20.86352 ], [ -156.16666, 20.86325 ], [ -156.16658, 20.86306 ], [ -156.1665, 20.86296 ], [ -156.16652, 20.8629 ], [ -156.16659, 20.86285 ], [ -156.16669, 20.86277 ], [ -156.16677, 20.86253 ], [ -156.16679, 20.86224 ], [ -156.16672, 20.86202 ], [ -156.16668, 20.86185 ], [ -156.16664, 20.86176 ], [ -156.16668, 20.8617 ], [ -156.16679, 20.86166 ], [ -156.16698, 20.86159 ], [ -156.16698, 20.86154 ], [ -156.16696, 20.86149 ], [ -156.16689, 20.8614 ], [ -156.16685, 20.86133 ], [ -156.16693, 20.86123 ], [ -156.16718, 20.86118 ], [ -156.16718, 20.86105 ], [ -156.16713, 20.86092 ], [ -156.16707, 20.86074 ], [ -156.16706, 20.86059 ], [ -156.16706, 20.86037 ], [ -156.16707, 20.86018 ], [ -156.16705, 20.86011 ], [ -156.167, 20.86009 ], [ -156.16696, 20.86023 ], [ -156.16694, 20.86041 ], [ -156.16692, 20.86058 ], [ -156.16685, 20.86078 ], [ -156.16673, 20.86086 ], [ -156.16654, 20.86089 ], [ -156.16634, 20.86086 ], [ -156.16597, 20.86072 ], [ -156.16551, 20.86061 ], [ -156.16531, 20.86064 ], [ -156.16504, 20.86094 ], [ -156.16485, 20.86113 ], [ -156.1647, 20.86117 ], [ -156.16452, 20.8611 ], [ -156.16435, 20.86131 ], [ -156.16418, 20.86168 ], [ -156.16408, 20.86207 ], [ -156.16392, 20.86229 ], [ -156.16371, 20.86257 ], [ -156.16358, 20.86311 ], [ -156.16339, 20.86361 ], [ -156.16325, 20.86374 ], [ -156.16304, 20.86383 ], [ -156.16299, 20.86374 ], [ -156.163, 20.86348 ], [ -156.16292, 20.86334 ], [ -156.16258, 20.86322 ], [ -156.16215, 20.86318 ], [ -156.16198, 20.86327 ], [ -156.16178, 20.86349 ], [ -156.16169, 20.86346 ], [ -156.16132, 20.86332 ], [ -156.16124, 20.86324 ], [ -156.16121, 20.86306 ], [ -156.16107, 20.863 ], [ -156.16089, 20.86294 ], [ -156.1608, 20.86287 ], [ -156.16073, 20.86275 ], [ -156.1607, 20.86262 ], [ -156.16068, 20.86259 ], [ -156.16063, 20.86241 ], [ -156.16056, 20.86222 ], [ -156.16051, 20.86216 ], [ -156.16044, 20.86216 ], [ -156.1602, 20.86216 ], [ -156.15997, 20.86216 ], [ -156.15977, 20.86212 ], [ -156.1596, 20.86204 ], [ -156.15946, 20.86197 ], [ -156.15929, 20.86199 ], [ -156.15921, 20.86188 ], [ -156.15912, 20.86189 ], [ -156.159, 20.86192 ], [ -156.15897, 20.86191 ], [ -156.15895, 20.86181 ], [ -156.1588, 20.86174 ], [ -156.15853, 20.86168 ], [ -156.15839, 20.86166 ], [ -156.15834, 20.86175 ], [ -156.15836, 20.86195 ], [ -156.15838, 20.86211 ], [ -156.15835, 20.86214 ], [ -156.15825, 20.86218 ], [ -156.15818, 20.86212 ], [ -156.15816, 20.86206 ], [ -156.15812, 20.86192 ], [ -156.15809, 20.86175 ], [ -156.15804, 20.86166 ], [ -156.15788, 20.86156 ], [ -156.1579, 20.86145 ], [ -156.15795, 20.86137 ], [ -156.15806, 20.86132 ], [ -156.15808, 20.86131 ], [ -156.15808, 20.86127 ], [ -156.15802, 20.86117 ], [ -156.15791, 20.86101 ], [ -156.15784, 20.86084 ], [ -156.15782, 20.86068 ], [ -156.15788, 20.86059 ], [ -156.15799, 20.86051 ], [ -156.15805, 20.86045 ], [ -156.15808, 20.86028 ], [ -156.15809, 20.85991 ], [ -156.15808, 20.85969 ], [ -156.15802, 20.8596 ], [ -156.15788, 20.85942 ], [ -156.15779, 20.85923 ], [ -156.15767, 20.8592 ], [ -156.15744, 20.85913 ], [ -156.15737, 20.85909 ], [ -156.15722, 20.85898 ], [ -156.15706, 20.85892 ], [ -156.15686, 20.85879 ], [ -156.15678, 20.85874 ], [ -156.15667, 20.85874 ], [ -156.15644, 20.85878 ], [ -156.15631, 20.85887 ], [ -156.15611, 20.85893 ], [ -156.15585, 20.85892 ], [ -156.15554, 20.85894 ], [ -156.15528, 20.85898 ], [ -156.15472, 20.85915 ], [ -156.15412, 20.85927 ], [ -156.15333, 20.85947 ], [ -156.15301, 20.85957 ], [ -156.15286, 20.85965 ], [ -156.1528, 20.85961 ], [ -156.15261, 20.85962 ], [ -156.15229, 20.8597 ], [ -156.15204, 20.85981 ], [ -156.15178, 20.86 ], [ -156.15164, 20.86004 ], [ -156.1513, 20.86009 ], [ -156.15096, 20.86015 ], [ -156.15064, 20.86032 ], [ -156.15036, 20.86057 ], [ -156.14995, 20.86094 ], [ -156.14956, 20.86124 ], [ -156.1493, 20.86137 ], [ -156.14906, 20.86143 ], [ -156.14891, 20.86142 ], [ -156.14876, 20.86138 ], [ -156.14865, 20.86132 ], [ -156.14861, 20.8613 ], [ -156.14853, 20.86129 ], [ -156.14836, 20.86138 ], [ -156.14832, 20.86142 ], [ -156.14829, 20.86154 ], [ -156.14828, 20.86159 ], [ -156.14816, 20.8617 ], [ -156.14815, 20.8618 ], [ -156.14817, 20.86188 ], [ -156.14819, 20.86193 ], [ -156.14818, 20.86203 ], [ -156.14819, 20.86208 ], [ -156.14813, 20.86214 ], [ -156.14798, 20.86224 ], [ -156.14789, 20.86235 ], [ -156.14784, 20.86246 ], [ -156.14783, 20.86258 ], [ -156.14787, 20.86263 ], [ -156.14795, 20.86269 ], [ -156.14807, 20.86281 ], [ -156.14808, 20.86289 ], [ -156.14807, 20.86354 ], [ -156.14807, 20.86369 ], [ -156.14802, 20.86377 ], [ -156.14798, 20.8638 ], [ -156.14789, 20.86384 ], [ -156.14772, 20.86385 ], [ -156.1475, 20.86387 ], [ -156.14731, 20.86388 ], [ -156.14726, 20.86394 ], [ -156.14723, 20.86401 ], [ -156.1473, 20.86417 ], [ -156.14735, 20.86433 ], [ -156.14739, 20.86447 ], [ -156.14745, 20.86468 ], [ -156.14747, 20.86483 ], [ -156.14747, 20.86491 ], [ -156.14743, 20.86499 ], [ -156.14724, 20.86516 ], [ -156.14691, 20.86525 ], [ -156.14667, 20.86531 ], [ -156.14649, 20.86547 ], [ -156.14639, 20.86565 ], [ -156.14628, 20.86581 ], [ -156.14624, 20.86588 ], [ -156.14613, 20.86596 ], [ -156.14604, 20.86593 ], [ -156.14588, 20.86589 ], [ -156.14585, 20.86587 ], [ -156.1458, 20.86576 ], [ -156.14574, 20.86571 ], [ -156.14568, 20.8656 ], [ -156.14568, 20.86546 ], [ -156.14566, 20.86539 ], [ -156.14559, 20.86532 ], [ -156.14555, 20.8653 ], [ -156.14544, 20.86516 ], [ -156.14527, 20.86499 ], [ -156.14519, 20.86483 ], [ -156.145, 20.86461 ], [ -156.14488, 20.86457 ], [ -156.14477, 20.86457 ], [ -156.14466, 20.86462 ], [ -156.14461, 20.86464 ], [ -156.14441, 20.8647 ], [ -156.14434, 20.86482 ], [ -156.14429, 20.86486 ], [ -156.14417, 20.8649 ], [ -156.14399, 20.86495 ], [ -156.14378, 20.86502 ], [ -156.1437, 20.86489 ], [ -156.14365, 20.86482 ], [ -156.14356, 20.86471 ], [ -156.1434, 20.86422 ], [ -156.14341, 20.86408 ], [ -156.14347, 20.86394 ], [ -156.14359, 20.86367 ], [ -156.14361, 20.86352 ], [ -156.14358, 20.86344 ], [ -156.14351, 20.86342 ], [ -156.14324, 20.86339 ], [ -156.14284, 20.86336 ], [ -156.14272, 20.86338 ], [ -156.14267, 20.86336 ], [ -156.14266, 20.86327 ], [ -156.14272, 20.86319 ], [ -156.14284, 20.86301 ], [ -156.14288, 20.86287 ], [ -156.14294, 20.86283 ], [ -156.14313, 20.8628 ], [ -156.14327, 20.86276 ], [ -156.14352, 20.86271 ], [ -156.14366, 20.86264 ], [ -156.14374, 20.86257 ], [ -156.14373, 20.86245 ], [ -156.14355, 20.86211 ], [ -156.14348, 20.86205 ], [ -156.14331, 20.86202 ], [ -156.1432, 20.86197 ], [ -156.14319, 20.86195 ], [ -156.14299, 20.86186 ], [ -156.14301, 20.8617 ], [ -156.14306, 20.86153 ], [ -156.14316, 20.86134 ], [ -156.14331, 20.86124 ], [ -156.1433, 20.86117 ], [ -156.14319, 20.86119 ], [ -156.14311, 20.86112 ], [ -156.14312, 20.861 ], [ -156.14319, 20.86087 ], [ -156.14332, 20.86083 ], [ -156.14352, 20.86083 ], [ -156.14352, 20.86077 ], [ -156.14349, 20.86072 ], [ -156.14341, 20.86059 ], [ -156.14336, 20.86044 ], [ -156.14334, 20.86027 ], [ -156.14338, 20.86011 ], [ -156.14355, 20.85996 ], [ -156.14371, 20.85988 ], [ -156.14385, 20.85983 ], [ -156.14402, 20.85978 ], [ -156.14405, 20.85974 ], [ -156.14393, 20.85962 ], [ -156.14382, 20.85946 ], [ -156.14384, 20.8593 ], [ -156.14395, 20.85908 ], [ -156.14403, 20.85898 ], [ -156.14406, 20.85894 ], [ -156.14425, 20.85874 ], [ -156.14431, 20.85858 ], [ -156.14433, 20.85838 ], [ -156.1442, 20.85821 ], [ -156.14406, 20.85813 ], [ -156.14384, 20.85797 ], [ -156.14324, 20.85784 ], [ -156.14284, 20.85782 ], [ -156.1423, 20.85782 ], [ -156.142, 20.85781 ], [ -156.14146, 20.85789 ], [ -156.14112, 20.85797 ], [ -156.14058, 20.85809 ], [ -156.14033, 20.85814 ], [ -156.13974, 20.85819 ], [ -156.13947, 20.85823 ], [ -156.13922, 20.8582 ], [ -156.13898, 20.85815 ], [ -156.13885, 20.85804 ], [ -156.13883, 20.85793 ], [ -156.13875, 20.85795 ], [ -156.13854, 20.85817 ], [ -156.13837, 20.85835 ], [ -156.1383, 20.8584 ], [ -156.13825, 20.8584 ], [ -156.13827, 20.85824 ], [ -156.13814, 20.85822 ], [ -156.13803, 20.8583 ], [ -156.138, 20.85844 ], [ -156.13792, 20.85852 ], [ -156.13787, 20.85852 ], [ -156.13786, 20.85814 ], [ -156.13769, 20.85813 ], [ -156.13758, 20.85815 ], [ -156.13718, 20.85823 ], [ -156.13697, 20.85827 ], [ -156.13682, 20.85829 ], [ -156.13648, 20.85831 ], [ -156.13609, 20.85834 ], [ -156.1357, 20.85843 ], [ -156.13555, 20.85845 ], [ -156.13523, 20.85846 ], [ -156.135, 20.85845 ], [ -156.13466, 20.85842 ], [ -156.13451, 20.85833 ], [ -156.13439, 20.85823 ], [ -156.13418, 20.85799 ], [ -156.13408, 20.85796 ], [ -156.134, 20.858 ], [ -156.13383, 20.85815 ], [ -156.13357, 20.85831 ], [ -156.13345, 20.85836 ], [ -156.1334, 20.85835 ], [ -156.13336, 20.8583 ], [ -156.13347, 20.85801 ], [ -156.13348, 20.85783 ], [ -156.13345, 20.85773 ], [ -156.13335, 20.85767 ], [ -156.13313, 20.85769 ], [ -156.13296, 20.8578 ], [ -156.13212, 20.85859 ], [ -156.13189, 20.85881 ], [ -156.13174, 20.85892 ], [ -156.13146, 20.85905 ], [ -156.13131, 20.85908 ], [ -156.13128, 20.859 ], [ -156.13129, 20.85878 ], [ -156.13137, 20.85851 ], [ -156.13137, 20.85826 ], [ -156.13133, 20.85815 ], [ -156.13126, 20.85785 ], [ -156.13123, 20.85784 ], [ -156.13119, 20.85786 ], [ -156.13103, 20.85804 ], [ -156.13082, 20.85821 ], [ -156.13063, 20.85829 ], [ -156.13042, 20.85841 ], [ -156.13034, 20.8584 ], [ -156.13025, 20.85836 ], [ -156.13011, 20.85834 ], [ -156.13006, 20.85827 ], [ -156.13012, 20.85821 ], [ -156.13024, 20.8581 ], [ -156.13044, 20.8579 ], [ -156.1306, 20.85771 ], [ -156.13079, 20.85762 ], [ -156.13086, 20.8575 ], [ -156.13105, 20.85735 ], [ -156.13132, 20.8572 ], [ -156.13155, 20.85716 ], [ -156.13155, 20.85687 ], [ -156.13158, 20.85678 ], [ -156.13167, 20.85665 ], [ -156.13178, 20.85648 ], [ -156.13185, 20.85629 ], [ -156.1319, 20.85601 ], [ -156.13185, 20.85585 ], [ -156.13169, 20.8557 ], [ -156.13151, 20.85564 ], [ -156.13128, 20.85556 ], [ -156.13099, 20.85542 ], [ -156.13088, 20.85532 ], [ -156.13065, 20.8552 ], [ -156.13055, 20.85519 ], [ -156.13029, 20.85515 ], [ -156.12998, 20.85508 ], [ -156.12986, 20.8551 ], [ -156.12972, 20.85508 ], [ -156.12956, 20.855 ], [ -156.12933, 20.85489 ], [ -156.12908, 20.85481 ], [ -156.12887, 20.85478 ], [ -156.12871, 20.85485 ], [ -156.12865, 20.85481 ], [ -156.12863, 20.85474 ], [ -156.12866, 20.85459 ], [ -156.12879, 20.85448 ], [ -156.12904, 20.85437 ], [ -156.12917, 20.85431 ], [ -156.12927, 20.85407 ], [ -156.1293, 20.85391 ], [ -156.1292, 20.85367 ], [ -156.12913, 20.85353 ], [ -156.12904, 20.85337 ], [ -156.12886, 20.85289 ], [ -156.12875, 20.85245 ], [ -156.12867, 20.85224 ], [ -156.12863, 20.852 ], [ -156.12862, 20.85171 ], [ -156.12861, 20.85153 ], [ -156.12853, 20.85119 ], [ -156.12852, 20.85093 ], [ -156.12852, 20.85042 ], [ -156.12851, 20.85016 ], [ -156.12849, 20.85006 ], [ -156.12844, 20.84957 ], [ -156.1284, 20.84914 ], [ -156.12838, 20.84883 ], [ -156.12842, 20.8487 ], [ -156.12858, 20.84862 ], [ -156.12862, 20.84855 ], [ -156.12859, 20.8485 ], [ -156.12837, 20.84842 ], [ -156.1283, 20.84837 ], [ -156.12817, 20.84821 ], [ -156.128, 20.84791 ], [ -156.12786, 20.8476 ], [ -156.12776, 20.84731 ], [ -156.12765, 20.847 ], [ -156.12754, 20.84674 ], [ -156.12743, 20.84653 ], [ -156.12738, 20.84633 ], [ -156.12739, 20.84616 ], [ -156.12742, 20.84587 ], [ -156.1274, 20.84566 ], [ -156.12734, 20.8454 ], [ -156.12724, 20.84514 ], [ -156.12701, 20.84487 ], [ -156.12681, 20.84461 ], [ -156.12674, 20.84432 ], [ -156.12676, 20.84405 ], [ -156.12686, 20.84377 ], [ -156.12697, 20.84346 ], [ -156.12714, 20.84318 ], [ -156.12731, 20.84286 ], [ -156.1275, 20.84258 ], [ -156.12775, 20.8423 ], [ -156.12781, 20.84225 ], [ -156.12804, 20.84204 ], [ -156.12808, 20.842 ], [ -156.1283, 20.84178 ], [ -156.12847, 20.84156 ], [ -156.12859, 20.84133 ], [ -156.12862, 20.84114 ], [ -156.12862, 20.84111 ], [ -156.12862, 20.84097 ], [ -156.12825, 20.84036 ], [ -156.12808, 20.84028 ], [ -156.12796, 20.84026 ], [ -156.12769, 20.84023 ], [ -156.12751, 20.8402 ], [ -156.12735, 20.84016 ], [ -156.12703, 20.84018 ], [ -156.12662, 20.84019 ], [ -156.12639, 20.84019 ], [ -156.1262, 20.84016 ], [ -156.12609, 20.84011 ], [ -156.12596, 20.84005 ], [ -156.12591, 20.83998 ], [ -156.12588, 20.83988 ], [ -156.12573, 20.83947 ], [ -156.12564, 20.83936 ], [ -156.12564, 20.83926 ], [ -156.12569, 20.83915 ], [ -156.12569, 20.83902 ], [ -156.12564, 20.83891 ], [ -156.1256, 20.83873 ], [ -156.12545, 20.83858 ], [ -156.12545, 20.83849 ], [ -156.1255, 20.83843 ], [ -156.12558, 20.8383 ], [ -156.1256, 20.83812 ], [ -156.12561, 20.8379 ], [ -156.12555, 20.83762 ], [ -156.12545, 20.83726 ], [ -156.12533, 20.83707 ], [ -156.12533, 20.837 ], [ -156.1254, 20.83685 ], [ -156.1254, 20.83675 ], [ -156.12533, 20.83675 ], [ -156.12521, 20.83678 ], [ -156.12503, 20.83674 ], [ -156.12461, 20.83658 ], [ -156.12412, 20.83638 ], [ -156.12384, 20.83633 ], [ -156.12363, 20.83637 ], [ -156.12344, 20.83644 ], [ -156.12308, 20.83659 ], [ -156.12271, 20.83696 ], [ -156.12246, 20.8373 ], [ -156.12222, 20.83771 ], [ -156.12207, 20.83806 ], [ -156.12204, 20.83823 ], [ -156.122, 20.83832 ], [ -156.12186, 20.83844 ], [ -156.12173, 20.83857 ], [ -156.12162, 20.83877 ], [ -156.12155, 20.83882 ], [ -156.12151, 20.8388 ], [ -156.1215, 20.83868 ], [ -156.12138, 20.83852 ], [ -156.12134, 20.83843 ], [ -156.12135, 20.83824 ], [ -156.12133, 20.83812 ], [ -156.12126, 20.83805 ], [ -156.12113, 20.83802 ], [ -156.12069, 20.83808 ], [ -156.12066, 20.83807 ], [ -156.12066, 20.83803 ], [ -156.12065, 20.83783 ], [ -156.12061, 20.83765 ], [ -156.1206, 20.83759 ], [ -156.1206, 20.83727 ], [ -156.12059, 20.83694 ], [ -156.12055, 20.8367 ], [ -156.12052, 20.83652 ], [ -156.12046, 20.8363 ], [ -156.12034, 20.83614 ], [ -156.12021, 20.836 ], [ -156.12006, 20.83587 ], [ -156.11999, 20.83579 ], [ -156.11982, 20.83563 ], [ -156.11969, 20.83541 ], [ -156.11961, 20.83528 ], [ -156.11956, 20.83514 ], [ -156.11955, 20.835 ], [ -156.11942, 20.83454 ], [ -156.11925, 20.83439 ], [ -156.11902, 20.83432 ], [ -156.11875, 20.83413 ], [ -156.11858, 20.83405 ], [ -156.11828, 20.83388 ], [ -156.11819, 20.83377 ], [ -156.11811, 20.83356 ], [ -156.1181, 20.83337 ], [ -156.1182, 20.83306 ], [ -156.11817, 20.83278 ], [ -156.11781, 20.83248 ], [ -156.1176, 20.8324 ], [ -156.11736, 20.83232 ], [ -156.11678, 20.83213 ], [ -156.11657, 20.83203 ], [ -156.11629, 20.83187 ], [ -156.11597, 20.83158 ], [ -156.1155, 20.83108 ], [ -156.11523, 20.83051 ], [ -156.11516, 20.83014 ], [ -156.11513, 20.83006 ], [ -156.11514, 20.82988 ], [ -156.11518, 20.8298 ], [ -156.11524, 20.82942 ], [ -156.11529, 20.82929 ], [ -156.1153, 20.82915 ], [ -156.11539, 20.82893 ], [ -156.11541, 20.8288 ], [ -156.11552, 20.82859 ], [ -156.11555, 20.82847 ], [ -156.1156, 20.82834 ], [ -156.11563, 20.82824 ], [ -156.11566, 20.82817 ], [ -156.11566, 20.8281 ], [ -156.11575, 20.82788 ], [ -156.11582, 20.82775 ], [ -156.11584, 20.82757 ], [ -156.11581, 20.82741 ], [ -156.11574, 20.82726 ], [ -156.11566, 20.82715 ], [ -156.11555, 20.82708 ], [ -156.11555, 20.82686 ], [ -156.11552, 20.8268 ], [ -156.11545, 20.82674 ], [ -156.11525, 20.82668 ], [ -156.11522, 20.82665 ], [ -156.11519, 20.82652 ], [ -156.11514, 20.82642 ], [ -156.11508, 20.82643 ], [ -156.11491, 20.82652 ], [ -156.11477, 20.82669 ], [ -156.11473, 20.82672 ], [ -156.11471, 20.8267 ], [ -156.1147, 20.82664 ], [ -156.11464, 20.82659 ], [ -156.11448, 20.82661 ], [ -156.11447, 20.82656 ], [ -156.11449, 20.82651 ], [ -156.1145, 20.82638 ], [ -156.11446, 20.82615 ], [ -156.11446, 20.82596 ], [ -156.11451, 20.82581 ], [ -156.11469, 20.82568 ], [ -156.11473, 20.82562 ], [ -156.11474, 20.82552 ], [ -156.11471, 20.82549 ], [ -156.11451, 20.82543 ], [ -156.11428, 20.82533 ], [ -156.11397, 20.825 ], [ -156.1137, 20.8248 ], [ -156.11346, 20.82458 ], [ -156.11332, 20.82439 ], [ -156.11319, 20.82426 ], [ -156.11279, 20.82405 ], [ -156.11273, 20.82405 ], [ -156.11267, 20.82405 ], [ -156.11247, 20.82415 ], [ -156.1121, 20.8244 ], [ -156.11195, 20.82454 ], [ -156.11182, 20.82462 ], [ -156.11147, 20.82495 ], [ -156.11129, 20.82501 ], [ -156.1105, 20.82509 ], [ -156.10992, 20.82513 ], [ -156.10958, 20.82508 ], [ -156.10923, 20.82498 ], [ -156.10882, 20.82473 ], [ -156.10865, 20.82466 ], [ -156.10834, 20.82462 ], [ -156.10806, 20.8245 ], [ -156.10791, 20.82436 ], [ -156.10769, 20.824 ], [ -156.10752, 20.82385 ], [ -156.10734, 20.82375 ], [ -156.10705, 20.82349 ], [ -156.10691, 20.82331 ], [ -156.10687, 20.82322 ], [ -156.10676, 20.82317 ], [ -156.10674, 20.82318 ], [ -156.10653, 20.82323 ], [ -156.10621, 20.82354 ], [ -156.10589, 20.82377 ], [ -156.10543, 20.82403 ], [ -156.10522, 20.82424 ], [ -156.10513, 20.82436 ], [ -156.10488, 20.82462 ], [ -156.10462, 20.825 ], [ -156.10446, 20.82518 ], [ -156.10434, 20.82527 ], [ -156.104, 20.82542 ], [ -156.10365, 20.82551 ], [ -156.10338, 20.82554 ], [ -156.103, 20.82553 ], [ -156.10228, 20.82548 ], [ -156.10192, 20.82543 ], [ -156.10145, 20.82541 ], [ -156.10111, 20.82528 ], [ -156.10097, 20.82518 ], [ -156.10042, 20.82517 ], [ -156.09997, 20.8251 ], [ -156.0988, 20.8251 ], [ -156.09862, 20.82515 ], [ -156.09838, 20.82524 ], [ -156.09759, 20.82522 ], [ -156.09709, 20.82526 ], [ -156.09659, 20.82539 ], [ -156.09619, 20.82553 ], [ -156.09564, 20.82567 ], [ -156.09513, 20.82585 ], [ -156.09498, 20.82594 ], [ -156.09488, 20.82603 ], [ -156.09479, 20.82619 ], [ -156.09476, 20.82629 ], [ -156.09477, 20.82649 ], [ -156.09483, 20.82665 ], [ -156.09498, 20.82681 ], [ -156.09511, 20.82691 ], [ -156.09515, 20.82698 ], [ -156.095, 20.82734 ], [ -156.09466, 20.82735 ], [ -156.09455, 20.82736 ], [ -156.08696, 20.82108 ], [ -156.07911, 20.81517 ], [ -156.0714, 20.80836 ], [ -156.06463, 20.80092 ], [ -156.05895, 20.79256 ], [ -156.05486, 20.78312 ], [ -156.05409, 20.7712 ], [ -156.05473, 20.75973 ], [ -156.05782, 20.7493 ], [ -156.06262, 20.74115 ], [ -156.07674, 20.72842 ], [ -156.08706, 20.72149 ], [ -156.10036, 20.71502 ], [ -156.11757, 20.71898 ], [ -156.12728, 20.72726 ], [ -156.13671, 20.73635 ], [ -156.14771, 20.74589 ], [ -156.15907, 20.75584 ], [ -156.16805, 20.76267 ], [ -156.17512, 20.76797 ], [ -156.1843, 20.77261 ], [ -156.19645, 20.77734 ], [ -156.21241, 20.78099 ], [ -156.22789, 20.78356 ], [ -156.23345, 20.78448 ], [ -156.24434, 20.78663 ], [ -156.25377, 20.78894 ], [ -156.25688, 20.79063 ], [ -156.26492, 20.79378 ], [ -156.27375, 20.8006 ], [ -156.27939, 20.8065 ], [ -156.28379, 20.81588 ], [ -156.28553, 20.82304 ], [ -156.28628, 20.83132 ], [ -156.28476, 20.83926 ], [ -156.28147, 20.84525 ], [ -156.27485, 20.85079 ], [ -156.27009, 20.85591 ], [ -156.26647, 20.8629 ], [ -156.26424, 20.86858 ], [ -156.26192, 20.8728 ], [ -156.25739, 20.87739 ], [ -156.24927, 20.88372 ], [ -156.24407, 20.88549 ], [ -156.23459, 20.88554 ], [ -156.21894, 20.88477 ] ], [ [ -156.21491, 20.85478 ], [ -156.22053, 20.85173 ], [ -156.22694, 20.84553 ], [ -156.23147, 20.84098 ], [ -156.23452, 20.83368 ], [ -156.23525, 20.82817 ], [ -156.23384, 20.82185 ], [ -156.22929, 20.81517 ], [ -156.22215, 20.80921 ], [ -156.21013, 20.8041 ], [ -156.19435, 20.7994 ], [ -156.17862, 20.79262 ], [ -156.16437, 20.78676 ], [ -156.15464, 20.78212 ], [ -156.13962, 20.77082 ], [ -156.12325, 20.76002 ], [ -156.11231, 20.75333 ], [ -156.10409, 20.7506 ], [ -156.08949, 20.75307 ], [ -156.07802, 20.76022 ], [ -156.07588, 20.7658 ], [ -156.07632, 20.77441 ], [ -156.08067, 20.78171 ], [ -156.08574, 20.78966 ], [ -156.09263, 20.79601 ], [ -156.10039, 20.80225 ], [ -156.10677, 20.80605 ], [ -156.11592, 20.81146 ], [ -156.12291, 20.81549 ], [ -156.13008, 20.82022 ], [ -156.13699, 20.82496 ], [ -156.14619, 20.83041 ], [ -156.15468, 20.83578 ], [ -156.16658, 20.84274 ], [ -156.17905, 20.84784 ], [ -156.18904, 20.85251 ], [ -156.19519, 20.85452 ], [ -156.21491, 20.85478 ] ] ] ] } },
{ "type": "Feature", "properties": { "objectid": 40, "solar_cal": "300-350", "st_areasha": 75159977.763274193, "st_perimet": 72829.375339957944 }, "geometry": { "type": "MultiPolygon", "coordinates": [ [ [ [ -156.57289, 20.97947 ], [ -156.56218, 20.97516 ], [ -156.55518, 20.97167 ], [ -156.55067, 20.96907 ], [ -156.54602, 20.96491 ], [ -156.54095, 20.96009 ], [ -156.53833, 20.95627 ], [ -156.53393, 20.95187 ], [ -156.52938, 20.94946 ], [ -156.52407, 20.94508 ], [ -156.52214, 20.94247 ], [ -156.51954, 20.93774 ], [ -156.51955, 20.93419 ], [ -156.52117, 20.92624 ], [ -156.52249, 20.91863 ], [ -156.52313, 20.90431 ], [ -156.52366, 20.89543 ], [ -156.52325, 20.89132 ], [ -156.52154, 20.88757 ], [ -156.5196, 20.88283 ], [ -156.51985, 20.87652 ], [ -156.52231, 20.87021 ], [ -156.53043, 20.85283 ], [ -156.53707, 20.84245 ], [ -156.54319, 20.83919 ], [ -156.55289, 20.83774 ], [ -156.56419, 20.83985 ], [ -156.57726, 20.84434 ], [ -156.58884, 20.84957 ], [ -156.59385, 20.85377 ], [ -156.59613, 20.85827 ], [ -156.59829, 20.86547 ], [ -156.5987, 20.87365 ], [ -156.5996, 20.88088 ], [ -156.60172, 20.89069 ], [ -156.60427, 20.89939 ], [ -156.6098, 20.90856 ], [ -156.61682, 20.91636 ], [ -156.62038, 20.92343 ], [ -156.62351, 20.93099 ], [ -156.62771, 20.94297 ], [ -156.62805, 20.95021 ], [ -156.62767, 20.95482 ], [ -156.62655, 20.96039 ], [ -156.62453, 20.96593 ], [ -156.61995, 20.9703 ], [ -156.61337, 20.97348 ], [ -156.60532, 20.97637 ], [ -156.59766, 20.97891 ], [ -156.5946, 20.9795 ], [ -156.5865, 20.98068 ], [ -156.57828, 20.98067 ], [ -156.57289, 20.97947 ] ], [ [ -156.58222, 20.95377 ], [ -156.58775, 20.95307 ], [ -156.59331, 20.94925 ], [ -156.59848, 20.94463 ], [ -156.60123, 20.93979 ], [ -156.60041, 20.9335 ], [ -156.59758, 20.92338 ], [ -156.59503, 20.91667 ], [ -156.59139, 20.90865 ], [ -156.59011, 20.90218 ], [ -156.59095, 20.89368 ], [ -156.59221, 20.88778 ], [ -156.59283, 20.88246 ], [ -156.59237, 20.87664 ], [ -156.58866, 20.86971 ], [ -156.58482, 20.86549 ], [ -156.58011, 20.86067 ], [ -156.57392, 20.85735 ], [ -156.56958, 20.85536 ], [ -156.56236, 20.85491 ], [ -156.55628, 20.85581 ], [ -156.55088, 20.85773 ], [ -156.54638, 20.86129 ], [ -156.54324, 20.86643 ], [ -156.54048, 20.87289 ], [ -156.53911, 20.88026 ], [ -156.53956, 20.88404 ], [ -156.54007, 20.88829 ], [ -156.54058, 20.89235 ], [ -156.54033, 20.89653 ], [ -156.53824, 20.9034 ], [ -156.53734, 20.90769 ], [ -156.53799, 20.91326 ], [ -156.54016, 20.92136 ], [ -156.54276, 20.92618 ], [ -156.54877, 20.93443 ], [ -156.55428, 20.94265 ], [ -156.56134, 20.94831 ], [ -156.56581, 20.95139 ], [ -156.57101, 20.95336 ], [ -156.57577, 20.95401 ], [ -156.58222, 20.95377 ] ] ] ] } },
{ "type": "Feature", "properties": { "objectid": 52, "solar_cal": "300-350", "st_areasha": 99653673.987072334, "st_perimet": 85986.404819354124 }, "geometry": { "type": "MultiPolygon", "coordinates": [ [ [ [ -156.80333, 21.17521 ], [ -156.80281, 21.17514 ], [ -156.80237, 21.17503 ], [ -156.80178, 21.17483 ], [ -156.80141, 21.17476 ], [ -156.80097, 21.17456 ], [ -156.80061, 21.17433 ], [ -156.80014, 21.17383 ], [ -156.7997, 21.17327 ], [ -156.79919, 21.17232 ], [ -156.79905, 21.17198 ], [ -156.79882, 21.17157 ], [ -156.79839, 21.1709 ], [ -156.79825, 21.1705 ], [ -156.798, 21.17009 ], [ -156.79777, 21.1699 ], [ -156.79741, 21.16949 ], [ -156.79671, 21.16858 ], [ -156.79639, 21.16833 ], [ -156.79547, 21.16782 ], [ -156.79516, 21.16774 ], [ -156.79463, 21.16764 ], [ -156.79418, 21.16767 ], [ -156.79345, 21.16783 ], [ -156.79307, 21.16794 ], [ -156.7921, 21.16797 ], [ -156.79119, 21.16811 ], [ -156.79067, 21.16826 ], [ -156.79023, 21.16857 ], [ -156.79015, 21.16889 ], [ -156.79013, 21.1693 ], [ -156.79004, 21.1694 ], [ -156.78976, 21.16932 ], [ -156.78966, 21.16911 ], [ -156.7895, 21.16889 ], [ -156.78921, 21.16877 ], [ -156.78878, 21.16883 ], [ -156.7886, 21.16896 ], [ -156.78824, 21.16942 ], [ -156.78822, 21.16946 ], [ -156.7831, 21.16489 ], [ -156.77696, 21.1574 ], [ -156.77304, 21.15149 ], [ -156.77, 21.14388 ], [ -156.76947, 21.13663 ], [ -156.77207, 21.12653 ], [ -156.7765, 21.11786 ], [ -156.78031, 21.11338 ], [ -156.78758, 21.10705 ], [ -156.79892, 21.09957 ], [ -156.81226, 21.09269 ], [ -156.82877, 21.08671 ], [ -156.8407, 21.08423 ], [ -156.84595, 21.08324 ], [ -156.85495, 21.08327 ], [ -156.86716, 21.08504 ], [ -156.87642, 21.08683 ], [ -156.88525, 21.09133 ], [ -156.89499, 21.09701 ], [ -156.90582, 21.10433 ], [ -156.91443, 21.11016 ], [ -156.91983, 21.11412 ], [ -156.92918, 21.12168 ], [ -156.938, 21.13043 ], [ -156.94576, 21.13657 ], [ -156.95173, 21.13989 ], [ -156.9568, 21.14357 ], [ -156.96318, 21.14653 ], [ -156.97075, 21.15063 ], [ -156.97597, 21.15417 ], [ -156.97996, 21.15957 ], [ -156.98034, 21.16401 ], [ -156.97751, 21.16857 ], [ -156.97012, 21.17228 ], [ -156.96058, 21.17353 ], [ -156.94981, 21.17453 ], [ -156.94454, 21.17444 ], [ -156.94446, 21.17401 ], [ -156.94449, 21.17371 ], [ -156.94449, 21.17348 ], [ -156.9444, 21.17331 ], [ -156.94314, 21.17243 ], [ -156.94246, 21.17206 ], [ -156.94202, 21.17192 ], [ -156.94116, 21.17175 ], [ -156.94069, 21.17169 ], [ -156.93989, 21.17167 ], [ -156.93863, 21.17148 ], [ -156.93824, 21.17137 ], [ -156.93784, 21.17122 ], [ -156.93745, 21.17095 ], [ -156.93662, 21.17028 ], [ -156.93588, 21.16994 ], [ -156.93535, 21.16976 ], [ -156.93474, 21.16962 ], [ -156.93407, 21.16949 ], [ -156.93355, 21.16949 ], [ -156.93315, 21.16943 ], [ -156.93278, 21.16939 ], [ -156.93226, 21.16922 ], [ -156.93192, 21.16913 ], [ -156.93168, 21.16914 ], [ -156.93103, 21.1694 ], [ -156.93066, 21.16957 ], [ -156.92908, 21.17047 ], [ -156.92881, 21.17071 ], [ -156.92879, 21.17092 ], [ -156.92885, 21.17111 ], [ -156.92913, 21.17172 ], [ -156.92923, 21.17206 ], [ -156.92946, 21.17251 ], [ -156.92946, 21.17271 ], [ -156.92871, 21.1728 ], [ -156.92861, 21.17274 ], [ -156.92856, 21.17259 ], [ -156.9284, 21.17229 ], [ -156.92822, 21.17212 ], [ -156.92783, 21.17182 ], [ -156.92749, 21.17154 ], [ -156.92731, 21.17131 ], [ -156.92715, 21.17099 ], [ -156.92714, 21.17036 ], [ -156.92702, 21.16983 ], [ -156.92675, 21.16968 ], [ -156.92547, 21.16949 ], [ -156.92497, 21.16943 ], [ -156.92455, 21.16945 ], [ -156.92417, 21.16958 ], [ -156.92389, 21.16971 ], [ -156.92352, 21.16976 ], [ -156.92304, 21.16973 ], [ -156.92252, 21.16967 ], [ -156.92164, 21.16954 ], [ -156.92122, 21.16928 ], [ -156.92099, 21.1691 ], [ -156.92059, 21.16891 ], [ -156.92019, 21.16877 ], [ -156.91974, 21.16868 ], [ -156.91928, 21.1687 ], [ -156.91897, 21.16874 ], [ -156.91809, 21.16912 ], [ -156.91782, 21.16943 ], [ -156.91755, 21.16993 ], [ -156.91715, 21.17036 ], [ -156.91681, 21.17054 ], [ -156.91657, 21.17047 ], [ -156.91622, 21.1705 ], [ -156.91615, 21.1706 ], [ -156.91612, 21.17074 ], [ -156.9158, 21.17082 ], [ -156.91565, 21.17093 ], [ -156.91562, 21.17108 ], [ -156.91576, 21.17113 ], [ -156.91521, 21.1716 ], [ -156.91501, 21.17168 ], [ -156.91498, 21.17155 ], [ -156.91498, 21.17129 ], [ -156.91509, 21.17121 ], [ -156.91522, 21.17086 ], [ -156.91541, 21.17072 ], [ -156.91545, 21.1706 ], [ -156.91541, 21.17038 ], [ -156.9155, 21.17024 ], [ -156.91545, 21.17005 ], [ -156.9153, 21.16998 ], [ -156.91508, 21.16996 ], [ -156.91482, 21.16982 ], [ -156.91464, 21.16992 ], [ -156.9146, 21.1699 ], [ -156.91447, 21.16974 ], [ -156.9145, 21.16966 ], [ -156.91447, 21.16948 ], [ -156.91438, 21.16929 ], [ -156.91427, 21.16913 ], [ -156.91408, 21.16909 ], [ -156.91397, 21.16905 ], [ -156.914, 21.16892 ], [ -156.91409, 21.16875 ], [ -156.91413, 21.16862 ], [ -156.91425, 21.16855 ], [ -156.91445, 21.1685 ], [ -156.91456, 21.16844 ], [ -156.91463, 21.16828 ], [ -156.91463, 21.16806 ], [ -156.91457, 21.16783 ], [ -156.91457, 21.16765 ], [ -156.91466, 21.1675 ], [ -156.91471, 21.16737 ], [ -156.91463, 21.16732 ], [ -156.91439, 21.16732 ], [ -156.91431, 21.16724 ], [ -156.91431, 21.16709 ], [ -156.91439, 21.16681 ], [ -156.91434, 21.16663 ], [ -156.91422, 21.16648 ], [ -156.91351, 21.16589 ], [ -156.91321, 21.16573 ], [ -156.91218, 21.16528 ], [ -156.91116, 21.16478 ], [ -156.91052, 21.16453 ], [ -156.90982, 21.16442 ], [ -156.90918, 21.16442 ], [ -156.90881, 21.16438 ], [ -156.90844, 21.16428 ], [ -156.90804, 21.16421 ], [ -156.90759, 21.16418 ], [ -156.90723, 21.16442 ], [ -156.90707, 21.16463 ], [ -156.90692, 21.16489 ], [ -156.9067, 21.16521 ], [ -156.90643, 21.16531 ], [ -156.9061, 21.16531 ], [ -156.90555, 21.16509 ], [ -156.90509, 21.16507 ], [ -156.90485, 21.1651 ], [ -156.90456, 21.16523 ], [ -156.90429, 21.16519 ], [ -156.90392, 21.16495 ], [ -156.90362, 21.1648 ], [ -156.90326, 21.16468 ], [ -156.90296, 21.16445 ], [ -156.90264, 21.16415 ], [ -156.90235, 21.16402 ], [ -156.9022, 21.16387 ], [ -156.90215, 21.16366 ], [ -156.90218, 21.16339 ], [ -156.90234, 21.16324 ], [ -156.90251, 21.16316 ], [ -156.90266, 21.16304 ], [ -156.90272, 21.1629 ], [ -156.90267, 21.16271 ], [ -156.90251, 21.16241 ], [ -156.9023, 21.16226 ], [ -156.90191, 21.16208 ], [ -156.90153, 21.16201 ], [ -156.90117, 21.16201 ], [ -156.90091, 21.16203 ], [ -156.8999, 21.16235 ], [ -156.89954, 21.1625 ], [ -156.89899, 21.16305 ], [ -156.89877, 21.16315 ], [ -156.89857, 21.16316 ], [ -156.89839, 21.16301 ], [ -156.8983, 21.16276 ], [ -156.89806, 21.16236 ], [ -156.89805, 21.16199 ], [ -156.89801, 21.16176 ], [ -156.89777, 21.16162 ], [ -156.89762, 21.16169 ], [ -156.89745, 21.16184 ], [ -156.89719, 21.16232 ], [ -156.89717, 21.16241 ], [ -156.89717, 21.16259 ], [ -156.89713, 21.16275 ], [ -156.89706, 21.16283 ], [ -156.89692, 21.1629 ], [ -156.89676, 21.16294 ], [ -156.89658, 21.16304 ], [ -156.89627, 21.16325 ], [ -156.89586, 21.16321 ], [ -156.8957, 21.16332 ], [ -156.89559, 21.16357 ], [ -156.89543, 21.16375 ], [ -156.89526, 21.16412 ], [ -156.89529, 21.16433 ], [ -156.89525, 21.16476 ], [ -156.89517, 21.16486 ], [ -156.89496, 21.16503 ], [ -156.89478, 21.16548 ], [ -156.89461, 21.16567 ], [ -156.8945, 21.16576 ], [ -156.89449, 21.16591 ], [ -156.89434, 21.16624 ], [ -156.89438, 21.16645 ], [ -156.89419, 21.16661 ], [ -156.89392, 21.16672 ], [ -156.89364, 21.16669 ], [ -156.89334, 21.16663 ], [ -156.8932, 21.1665 ], [ -156.89286, 21.16638 ], [ -156.89272, 21.16639 ], [ -156.8928, 21.1667 ], [ -156.89274, 21.16679 ], [ -156.89273, 21.16688 ], [ -156.89291, 21.1671 ], [ -156.89313, 21.1677 ], [ -156.89333, 21.1679 ], [ -156.89349, 21.1682 ], [ -156.89361, 21.16855 ], [ -156.89379, 21.16884 ], [ -156.89401, 21.16917 ], [ -156.89433, 21.16946 ], [ -156.89452, 21.16976 ], [ -156.89454, 21.1701 ], [ -156.8945, 21.17021 ], [ -156.89442, 21.1702 ], [ -156.89433, 21.17009 ], [ -156.89403, 21.16999 ], [ -156.89389, 21.16988 ], [ -156.89334, 21.16972 ], [ -156.89306, 21.1697 ], [ -156.89253, 21.16962 ], [ -156.89231, 21.16954 ], [ -156.89203, 21.16936 ], [ -156.89095, 21.16889 ], [ -156.89059, 21.16849 ], [ -156.89022, 21.16838 ], [ -156.88941, 21.16829 ], [ -156.88923, 21.1683 ], [ -156.88905, 21.16824 ], [ -156.88877, 21.1682 ], [ -156.88863, 21.16824 ], [ -156.88828, 21.16843 ], [ -156.88796, 21.16848 ], [ -156.88687, 21.1684 ], [ -156.88635, 21.16843 ], [ -156.88589, 21.16838 ], [ -156.88563, 21.1683 ], [ -156.88518, 21.16805 ], [ -156.88492, 21.1678 ], [ -156.88479, 21.16746 ], [ -156.88473, 21.16707 ], [ -156.88476, 21.16664 ], [ -156.88463, 21.16629 ], [ -156.88427, 21.16567 ], [ -156.88418, 21.16542 ], [ -156.88415, 21.16519 ], [ -156.8844, 21.16472 ], [ -156.88441, 21.16447 ], [ -156.8844, 21.16433 ], [ -156.88443, 21.16415 ], [ -156.88439, 21.16401 ], [ -156.884, 21.16367 ], [ -156.884, 21.1634 ], [ -156.88405, 21.16316 ], [ -156.88399, 21.16297 ], [ -156.88392, 21.16282 ], [ -156.88381, 21.16267 ], [ -156.88374, 21.16226 ], [ -156.88356, 21.16208 ], [ -156.88347, 21.16183 ], [ -156.88341, 21.16173 ], [ -156.88324, 21.16168 ], [ -156.88305, 21.16159 ], [ -156.88301, 21.16152 ], [ -156.88304, 21.16144 ], [ -156.88309, 21.1614 ], [ -156.88287, 21.1613 ], [ -156.88265, 21.16128 ], [ -156.88175, 21.16104 ], [ -156.88136, 21.161 ], [ -156.88049, 21.16099 ], [ -156.88025, 21.16092 ], [ -156.87951, 21.16095 ], [ -156.87937, 21.16115 ], [ -156.87924, 21.16138 ], [ -156.87908, 21.16186 ], [ -156.87896, 21.16209 ], [ -156.87893, 21.16227 ], [ -156.8788, 21.16263 ], [ -156.87873, 21.16275 ], [ -156.87849, 21.16291 ], [ -156.87843, 21.16324 ], [ -156.87834, 21.16333 ], [ -156.87844, 21.16352 ], [ -156.87854, 21.16362 ], [ -156.87853, 21.1638 ], [ -156.87834, 21.16461 ], [ -156.87823, 21.16469 ], [ -156.87803, 21.16492 ], [ -156.87784, 21.16506 ], [ -156.87768, 21.1652 ], [ -156.87759, 21.16562 ], [ -156.8775, 21.16575 ], [ -156.87731, 21.16583 ], [ -156.87716, 21.16596 ], [ -156.87712, 21.1661 ], [ -156.87712, 21.16624 ], [ -156.87727, 21.16643 ], [ -156.87732, 21.16654 ], [ -156.87726, 21.1667 ], [ -156.87716, 21.16678 ], [ -156.87705, 21.16692 ], [ -156.87694, 21.167 ], [ -156.87685, 21.16699 ], [ -156.87674, 21.16695 ], [ -156.87666, 21.16686 ], [ -156.8763, 21.16656 ], [ -156.87605, 21.16627 ], [ -156.87589, 21.16583 ], [ -156.87579, 21.16526 ], [ -156.87572, 21.16507 ], [ -156.87558, 21.16494 ], [ -156.87535, 21.16484 ], [ -156.87495, 21.16474 ], [ -156.87476, 21.16488 ], [ -156.87455, 21.16512 ], [ -156.8744, 21.16526 ], [ -156.8741, 21.16535 ], [ -156.87388, 21.16547 ], [ -156.87373, 21.16563 ], [ -156.87379, 21.1659 ], [ -156.87396, 21.16611 ], [ -156.87417, 21.16647 ], [ -156.87427, 21.16678 ], [ -156.87423, 21.1669 ], [ -156.87406, 21.16679 ], [ -156.87391, 21.16667 ], [ -156.87373, 21.16644 ], [ -156.87351, 21.16623 ], [ -156.87316, 21.16612 ], [ -156.87278, 21.1655 ], [ -156.87251, 21.16535 ], [ -156.8723, 21.1652 ], [ -156.87172, 21.16504 ], [ -156.87146, 21.165 ], [ -156.87119, 21.16477 ], [ -156.87069, 21.16443 ], [ -156.87048, 21.16425 ], [ -156.87027, 21.16391 ], [ -156.86989, 21.16321 ], [ -156.86965, 21.16296 ], [ -156.8695, 21.1629 ], [ -156.86917, 21.16249 ], [ -156.86877, 21.16221 ], [ -156.86852, 21.16187 ], [ -156.86798, 21.16178 ], [ -156.8677, 21.16164 ], [ -156.86726, 21.16153 ], [ -156.867, 21.16142 ], [ -156.86672, 21.1614 ], [ -156.86632, 21.16141 ], [ -156.86561, 21.16152 ], [ -156.86529, 21.16155 ], [ -156.86505, 21.1616 ], [ -156.86482, 21.16171 ], [ -156.86469, 21.16166 ], [ -156.86441, 21.16161 ], [ -156.86414, 21.16183 ], [ -156.86391, 21.16193 ], [ -156.86369, 21.16193 ], [ -156.86325, 21.16208 ], [ -156.86292, 21.16222 ], [ -156.86257, 21.1624 ], [ -156.86232, 21.16246 ], [ -156.86205, 21.16256 ], [ -156.86157, 21.16266 ], [ -156.86106, 21.1627 ], [ -156.86074, 21.16287 ], [ -156.86042, 21.16307 ], [ -156.8601, 21.16315 ], [ -156.85909, 21.16317 ], [ -156.8583, 21.1631 ], [ -156.85777, 21.16301 ], [ -156.85702, 21.16309 ], [ -156.85656, 21.16323 ], [ -156.85628, 21.16345 ], [ -156.85606, 21.16356 ], [ -156.85568, 21.16358 ], [ -156.85529, 21.16363 ], [ -156.85472, 21.16358 ], [ -156.85416, 21.16335 ], [ -156.8537, 21.16323 ], [ -156.85334, 21.16323 ], [ -156.85284, 21.16328 ], [ -156.85244, 21.16342 ], [ -156.85126, 21.16373 ], [ -156.85062, 21.16405 ], [ -156.84993, 21.16469 ], [ -156.84937, 21.16507 ], [ -156.84874, 21.16542 ], [ -156.84774, 21.16588 ], [ -156.84711, 21.16614 ], [ -156.84658, 21.16622 ], [ -156.84537, 21.16655 ], [ -156.84473, 21.16665 ], [ -156.84406, 21.16681 ], [ -156.84336, 21.16694 ], [ -156.84286, 21.16693 ], [ -156.84218, 21.16669 ], [ -156.84151, 21.16641 ], [ -156.84091, 21.16606 ], [ -156.84027, 21.16563 ], [ -156.83968, 21.16515 ], [ -156.8385, 21.16469 ], [ -156.8379, 21.16454 ], [ -156.83735, 21.16443 ], [ -156.83672, 21.16424 ], [ -156.83609, 21.16411 ], [ -156.83536, 21.16408 ], [ -156.8348, 21.16409 ], [ -156.83443, 21.16399 ], [ -156.83406, 21.1638 ], [ -156.83383, 21.16373 ], [ -156.83337, 21.16372 ], [ -156.83266, 21.16376 ], [ -156.83221, 21.16386 ], [ -156.83173, 21.16402 ], [ -156.83132, 21.16407 ], [ -156.83084, 21.1641 ], [ -156.83044, 21.16424 ], [ -156.82997, 21.16452 ], [ -156.8295, 21.16489 ], [ -156.829, 21.16525 ], [ -156.82855, 21.16538 ], [ -156.82813, 21.16554 ], [ -156.82789, 21.16569 ], [ -156.82772, 21.16588 ], [ -156.82728, 21.16618 ], [ -156.82701, 21.16638 ], [ -156.82698, 21.16687 ], [ -156.827, 21.1671 ], [ -156.82723, 21.16737 ], [ -156.82737, 21.16763 ], [ -156.82737, 21.16791 ], [ -156.82733, 21.16799 ], [ -156.8272, 21.16815 ], [ -156.82706, 21.16818 ], [ -156.82684, 21.16813 ], [ -156.82573, 21.16754 ], [ -156.82542, 21.16759 ], [ -156.82493, 21.16775 ], [ -156.82385, 21.16823 ], [ -156.82344, 21.16835 ], [ -156.82299, 21.16844 ], [ -156.82222, 21.16887 ], [ -156.8222, 21.16888 ], [ -156.82143, 21.16931 ], [ -156.82091, 21.16979 ], [ -156.8206, 21.17006 ], [ -156.82024, 21.17048 ], [ -156.81972, 21.17094 ], [ -156.8193, 21.17136 ], [ -156.81887, 21.17161 ], [ -156.81771, 21.172 ], [ -156.81711, 21.17199 ], [ -156.81655, 21.17221 ], [ -156.81621, 21.17219 ], [ -156.81542, 21.17199 ], [ -156.81455, 21.17203 ], [ -156.81336, 21.17225 ], [ -156.81264, 21.17249 ], [ -156.81242, 21.17264 ], [ -156.81179, 21.17296 ], [ -156.81141, 21.17298 ], [ -156.8103, 21.17268 ], [ -156.80949, 21.17262 ], [ -156.80898, 21.17266 ], [ -156.80843, 21.17279 ], [ -156.80753, 21.17311 ], [ -156.80666, 21.17363 ], [ -156.80608, 21.17395 ], [ -156.80582, 21.1742 ], [ -156.80552, 21.17442 ], [ -156.80508, 21.17479 ], [ -156.80475, 21.17515 ], [ -156.80436, 21.17524 ], [ -156.80333, 21.17521 ] ], [ [ -156.89146, 21.14694 ], [ -156.8966, 21.14433 ], [ -156.89981, 21.14242 ], [ -156.90306, 21.13871 ], [ -156.90468, 21.13344 ], [ -156.90409, 21.12816 ], [ -156.90233, 21.12387 ], [ -156.89818, 21.11897 ], [ -156.89276, 21.11381 ], [ -156.88445, 21.10789 ], [ -156.87595, 21.10381 ], [ -156.86799, 21.10159 ], [ -156.85789, 21.09992 ], [ -156.84863, 21.10002 ], [ -156.83876, 21.10108 ], [ -156.82992, 21.10369 ], [ -156.82406, 21.10738 ], [ -156.819, 21.11044 ], [ -156.81108, 21.11528 ], [ -156.80625, 21.11905 ], [ -156.80159, 21.12378 ], [ -156.79881, 21.12981 ], [ -156.79885, 21.13535 ], [ -156.80221, 21.14033 ], [ -156.80704, 21.14386 ], [ -156.81323, 21.14613 ], [ -156.81921, 21.14697 ], [ -156.82415, 21.1464 ], [ -156.8296, 21.14542 ], [ -156.83315, 21.14514 ], [ -156.83823, 21.14493 ], [ -156.84331, 21.14473 ], [ -156.85395, 21.14467 ], [ -156.86344, 21.14498 ], [ -156.86565, 21.14526 ], [ -156.87421, 21.14717 ], [ -156.88335, 21.14799 ], [ -156.89146, 21.14694 ] ] ] ] } },
{ "type": "Feature", "properties": { "objectid": 72, "solar_cal": "300-350", "st_areasha": 37994301.885610655, "st_perimet": 29527.197422960075 }, "geometry": { "type": "MultiPolygon", "coordinates": [ [ [ [ -158.15441, 21.52273 ], [ -158.14267, 21.52013 ], [ -158.13171, 21.51643 ], [ -158.1195, 21.51191 ], [ -158.11139, 21.50924 ], [ -158.09753, 21.50587 ], [ -158.08922, 21.50346 ], [ -158.08612, 21.50142 ], [ -158.07948, 21.49875 ], [ -158.0719, 21.49464 ], [ -158.06589, 21.49171 ], [ -158.05871, 21.48696 ], [ -158.0532, 21.48342 ], [ -158.05154, 21.48179 ], [ -158.05076, 21.47906 ], [ -158.05251, 21.477 ], [ -158.05585, 21.47442 ], [ -158.07964, 21.46284 ], [ -158.08725, 21.4606 ], [ -158.09448, 21.46174 ], [ -158.10171, 21.46357 ], [ -158.10947, 21.46712 ], [ -158.11691, 21.47306 ], [ -158.12468, 21.48074 ], [ -158.13143, 21.48812 ], [ -158.13762, 21.49355 ], [ -158.14556, 21.49967 ], [ -158.15333, 21.50537 ], [ -158.16268, 21.51298 ], [ -158.16892, 21.51768 ], [ -158.17108, 21.52094 ], [ -158.17026, 21.5237 ], [ -158.16794, 21.52416 ], [ -158.16389, 21.52427 ], [ -158.15441, 21.52273 ] ] ] ] } },
{ "type": "Feature", "properties": { "objectid": 76, "solar_cal": "300-350", "st_areasha": 151044350.06905389, "st_perimet": 175122.57394909963 }, "geometry": { "type": "MultiPolygon", "coordinates": [ [ [ [ -157.96784, 21.6286 ], [ -157.96091, 21.62689 ], [ -157.95252, 21.62373 ], [ -157.94749, 21.6214 ], [ -157.94203, 21.61833 ], [ -157.93351, 21.61234 ], [ -157.92172, 21.6029 ], [ -157.90941, 21.5911 ], [ -157.89939, 21.57826 ], [ -157.8924, 21.56729 ], [ -157.88583, 21.56079 ], [ -157.87709, 21.54909 ], [ -157.87481, 21.54678 ], [ -157.87088, 21.54319 ], [ -157.86723, 21.53843 ], [ -157.86381, 21.52967 ], [ -157.86098, 21.52159 ], [ -157.85859, 21.51155 ], [ -157.85808, 21.50101 ], [ -157.85662, 21.49479 ], [ -157.85339, 21.48741 ], [ -157.84968, 21.48179 ], [ -157.84517, 21.4725 ], [ -157.84437, 21.47138 ], [ -157.84436, 21.47126 ], [ -157.84435, 21.4711 ], [ -157.84435, 21.47087 ], [ -157.84432, 21.47067 ], [ -157.84425, 21.47035 ], [ -157.84415, 21.47015 ], [ -157.84401, 21.46987 ], [ -157.84393, 21.46965 ], [ -157.84386, 21.46943 ], [ -157.84373, 21.46913 ], [ -157.84364, 21.46892 ], [ -157.84352, 21.46869 ], [ -157.84346, 21.46849 ], [ -157.8434, 21.4683 ], [ -157.84336, 21.46818 ], [ -157.84334, 21.46811 ], [ -157.84332, 21.46805 ], [ -157.84321, 21.46798 ], [ -157.84307, 21.46788 ], [ -157.84289, 21.46776 ], [ -157.84275, 21.46767 ], [ -157.84269, 21.46761 ], [ -157.84261, 21.46751 ], [ -157.84241, 21.46708 ], [ -157.84236, 21.46693 ], [ -157.84234, 21.46681 ], [ -157.84229, 21.46659 ], [ -157.84225, 21.46645 ], [ -157.84222, 21.4663 ], [ -157.84225, 21.46615 ], [ -157.8423, 21.466 ], [ -157.84238, 21.46585 ], [ -157.84247, 21.46566 ], [ -157.8426, 21.46548 ], [ -157.84272, 21.46533 ], [ -157.84285, 21.46516 ], [ -157.84296, 21.465 ], [ -157.84302, 21.46489 ], [ -157.84305, 21.46478 ], [ -157.84305, 21.4646 ], [ -157.84305, 21.46444 ], [ -157.84302, 21.46431 ], [ -157.84295, 21.46407 ], [ -157.8428, 21.46375 ], [ -157.84273, 21.46352 ], [ -157.84262, 21.46335 ], [ -157.8425, 21.4632 ], [ -157.8424, 21.46311 ], [ -157.84226, 21.46299 ], [ -157.84217, 21.46292 ], [ -157.84204, 21.46282 ], [ -157.84195, 21.46275 ], [ -157.84188, 21.4627 ], [ -157.84182, 21.4626 ], [ -157.8416, 21.46196 ], [ -157.84153, 21.46176 ], [ -157.84148, 21.4616 ], [ -157.84138, 21.46138 ], [ -157.84121, 21.46114 ], [ -157.84104, 21.46088 ], [ -157.84079, 21.46049 ], [ -157.84066, 21.46036 ], [ -157.84055, 21.46023 ], [ -157.84038, 21.46012 ], [ -157.8402, 21.46003 ], [ -157.84006, 21.46001 ], [ -157.83992, 21.46002 ], [ -157.83982, 21.46005 ], [ -157.8397, 21.4601 ], [ -157.83959, 21.46019 ], [ -157.83949, 21.46027 ], [ -157.8394, 21.46035 ], [ -157.83929, 21.46045 ], [ -157.83918, 21.46049 ], [ -157.83903, 21.46048 ], [ -157.83898, 21.46044 ], [ -157.83897, 21.46043 ], [ -157.83894, 21.46037 ], [ -157.83892, 21.46025 ], [ -157.83893, 21.45989 ], [ -157.83855, 21.46005 ], [ -157.8384, 21.45994 ], [ -157.83832, 21.45978 ], [ -157.83824, 21.45971 ], [ -157.83813, 21.45965 ], [ -157.83803, 21.45963 ], [ -157.83794, 21.45963 ], [ -157.8379, 21.45964 ], [ -157.83787, 21.45963 ], [ -157.83785, 21.45963 ], [ -157.83784, 21.45954 ], [ -157.83786, 21.45943 ], [ -157.83792, 21.45926 ], [ -157.83792, 21.45911 ], [ -157.83788, 21.45896 ], [ -157.83784, 21.45879 ], [ -157.8377, 21.45856 ], [ -157.83757, 21.45841 ], [ -157.83742, 21.45825 ], [ -157.8373, 21.45814 ], [ -157.83718, 21.45809 ], [ -157.8371, 21.45806 ], [ -157.83698, 21.45795 ], [ -157.83684, 21.45785 ], [ -157.83672, 21.45777 ], [ -157.83659, 21.45769 ], [ -157.83646, 21.45766 ], [ -157.83633, 21.45768 ], [ -157.83615, 21.4577 ], [ -157.83595, 21.45771 ], [ -157.8357, 21.45767 ], [ -157.83549, 21.45764 ], [ -157.83529, 21.4576 ], [ -157.835, 21.45757 ], [ -157.83487, 21.45759 ], [ -157.83473, 21.45767 ], [ -157.83456, 21.45777 ], [ -157.83443, 21.4579 ], [ -157.83433, 21.45801 ], [ -157.83425, 21.45818 ], [ -157.83422, 21.45844 ], [ -157.83424, 21.45862 ], [ -157.83426, 21.45886 ], [ -157.83421, 21.45911 ], [ -157.83016, 21.45422 ], [ -157.82393, 21.44799 ], [ -157.81755, 21.44064 ], [ -157.80969, 21.43069 ], [ -157.79659, 21.41781 ], [ -157.79487, 21.41662 ], [ -157.78854, 21.40747 ], [ -157.78336, 21.39951 ], [ -157.77821, 21.39042 ], [ -157.77551, 21.38325 ], [ -157.7712, 21.37597 ], [ -157.76518, 21.37044 ], [ -157.75746, 21.36357 ], [ -157.74989, 21.35531 ], [ -157.74527, 21.34831 ], [ -157.73947, 21.33917 ], [ -157.73587, 21.33425 ], [ -157.7334, 21.32955 ], [ -157.73389, 21.32436 ], [ -157.73799, 21.32162 ], [ -157.74238, 21.32046 ], [ -157.75154, 21.31925 ], [ -157.7607, 21.31869 ], [ -157.76889, 21.31919 ], [ -157.78088, 21.32207 ], [ -157.79149, 21.32673 ], [ -157.79589, 21.32839 ], [ -157.80678, 21.32926 ], [ -157.81807, 21.33224 ], [ -157.82514, 21.34113 ], [ -157.83219, 21.35014 ], [ -157.83977, 21.35862 ], [ -157.84799, 21.36676 ], [ -157.85485, 21.37222 ], [ -157.86175, 21.37814 ], [ -157.86925, 21.38581 ], [ -157.8741, 21.39195 ], [ -157.87596, 21.39683 ], [ -157.88134, 21.40486 ], [ -157.88277, 21.40729 ], [ -157.88566, 21.41722 ], [ -157.88922, 21.42864 ], [ -157.8935, 21.43531 ], [ -157.89818, 21.43932 ], [ -157.90489, 21.44389 ], [ -157.91479, 21.44843 ], [ -157.92251, 21.44953 ], [ -157.93136, 21.44936 ], [ -157.93731, 21.45023 ], [ -157.94404, 21.45398 ], [ -157.94897, 21.45892 ], [ -157.95189, 21.46904 ], [ -157.95407, 21.48864 ], [ -157.9563, 21.51375 ], [ -157.95848, 21.53027 ], [ -157.96107, 21.53917 ], [ -157.96341, 21.54638 ], [ -157.96755, 21.55546 ], [ -157.9733, 21.56412 ], [ -157.97919, 21.57226 ], [ -157.98486, 21.58085 ], [ -157.98913, 21.58731 ], [ -157.99184, 21.59345 ], [ -157.99421, 21.60195 ], [ -157.99538, 21.61146 ], [ -157.992, 21.62035 ], [ -157.9872, 21.62419 ], [ -157.98095, 21.62783 ], [ -157.97568, 21.62905 ], [ -157.96784, 21.6286 ] ], [ [ -157.96475, 21.60639 ], [ -157.96767, 21.605 ], [ -157.97002, 21.60175 ], [ -157.97054, 21.59789 ], [ -157.9686, 21.59236 ], [ -157.96548, 21.58407 ], [ -157.96032, 21.57623 ], [ -157.95519, 21.56626 ], [ -157.95068, 21.55772 ], [ -157.94633, 21.54805 ], [ -157.94336, 21.53439 ], [ -157.94257, 21.52729 ], [ -157.94217, 21.52521 ], [ -157.94181, 21.52077 ], [ -157.94135, 21.51551 ], [ -157.94087, 21.51185 ], [ -157.94104, 21.50949 ], [ -157.93935, 21.50311 ], [ -157.93689, 21.49669 ], [ -157.93448, 21.49115 ], [ -157.931, 21.48555 ], [ -157.92724, 21.48025 ], [ -157.92283, 21.47461 ], [ -157.9169, 21.46955 ], [ -157.91282, 21.46507 ], [ -157.90376, 21.45805 ], [ -157.89638, 21.4522 ], [ -157.891, 21.44674 ], [ -157.88566, 21.44021 ], [ -157.87985, 21.43043 ], [ -157.87492, 21.42317 ], [ -157.86889, 21.4154 ], [ -157.85671, 21.40266 ], [ -157.85553, 21.40133 ], [ -157.85108, 21.39573 ], [ -157.84625, 21.38884 ], [ -157.84007, 21.38193 ], [ -157.83349, 21.3704 ], [ -157.82596, 21.35798 ], [ -157.82106, 21.35123 ], [ -157.81751, 21.34642 ], [ -157.81226, 21.3434 ], [ -157.80559, 21.34146 ], [ -157.80049, 21.33908 ], [ -157.79625, 21.33804 ], [ -157.79095, 21.33611 ], [ -157.78616, 21.33333 ], [ -157.78081, 21.33074 ], [ -157.77624, 21.32897 ], [ -157.77097, 21.32737 ], [ -157.76593, 21.32599 ], [ -157.75939, 21.32633 ], [ -157.75589, 21.32836 ], [ -157.75325, 21.33126 ], [ -157.75485, 21.33729 ], [ -157.75892, 21.34334 ], [ -157.76262, 21.34852 ], [ -157.76737, 21.35331 ], [ -157.77289, 21.35804 ], [ -157.77809, 21.36145 ], [ -157.78351, 21.36572 ], [ -157.78913, 21.37048 ], [ -157.79646, 21.37893 ], [ -157.80296, 21.38623 ], [ -157.80734, 21.39315 ], [ -157.81426, 21.40218 ], [ -157.82064, 21.4104 ], [ -157.82524, 21.41602 ], [ -157.82885, 21.41983 ], [ -157.8356, 21.42987 ], [ -157.83655, 21.4311 ], [ -157.84116, 21.43766 ], [ -157.84519, 21.4435 ], [ -157.84889, 21.45092 ], [ -157.85195, 21.45751 ], [ -157.85453, 21.46211 ], [ -157.85694, 21.4671 ], [ -157.85849, 21.47154 ], [ -157.8602, 21.47703 ], [ -157.86353, 21.48058 ], [ -157.86843, 21.48688 ], [ -157.87222, 21.49477 ], [ -157.87857, 21.51212 ], [ -157.88346, 21.52473 ], [ -157.88808, 21.53585 ], [ -157.89582, 21.54953 ], [ -157.89692, 21.55093 ], [ -157.90402, 21.56015 ], [ -157.90885, 21.56577 ], [ -157.91406, 21.57274 ], [ -157.9184, 21.57966 ], [ -157.92369, 21.58649 ], [ -157.92985, 21.59241 ], [ -157.93419, 21.596 ], [ -157.93975, 21.60044 ], [ -157.94498, 21.60318 ], [ -157.95034, 21.60583 ], [ -157.95662, 21.60696 ], [ -157.9614, 21.60714 ], [ -157.96475, 21.60639 ] ] ] ] } },
{ "type": "Feature", "properties": { "objectid": 92, "solar_cal": "300-350", "st_areasha": 404118905.36397159, "st_perimet": 155997.90436416387 }, "geometry": { "type": "MultiPolygon", "coordinates": [ [ [ [ -159.44397, 22.19751 ], [ -159.43428, 22.19653 ], [ -159.42602, 22.19581 ], [ -159.4193, 22.19489 ], [ -159.41072, 22.19352 ], [ -159.40169, 22.19077 ], [ -159.39346, 22.18849 ], [ -159.38342, 22.18565 ], [ -159.37638, 22.18336 ], [ -159.36963, 22.18016 ], [ -159.36528, 22.17554 ], [ -159.3622, 22.17081 ], [ -159.36086, 22.16482 ], [ -159.36047, 22.15929 ], [ -159.35963, 22.1519 ], [ -159.35948, 22.14279 ], [ -159.36031, 22.13286 ], [ -159.36148, 22.12215 ], [ -159.36204, 22.11727 ], [ -159.36298, 22.11363 ], [ -159.36455, 22.11008 ], [ -159.3679, 22.1052 ], [ -159.37538, 22.09798 ], [ -159.38118, 22.09467 ], [ -159.388, 22.09135 ], [ -159.39488, 22.08632 ], [ -159.40064, 22.08146 ], [ -159.40518, 22.07636 ], [ -159.40818, 22.07177 ], [ -159.40916, 22.06962 ], [ -159.4123, 22.06327 ], [ -159.41536, 22.05715 ], [ -159.41784, 22.05025 ], [ -159.4188, 22.04148 ], [ -159.41918, 22.03533 ], [ -159.41788, 22.02898 ], [ -159.41689, 22.02315 ], [ -159.41612, 22.01904 ], [ -159.41572, 22.01243 ], [ -159.41568, 22.00741 ], [ -159.41711, 22.00122 ], [ -159.42017, 21.99575 ], [ -159.42523, 21.9909 ], [ -159.43183, 21.98771 ], [ -159.43665, 21.98461 ], [ -159.44287, 21.98158 ], [ -159.45118, 21.97832 ], [ -159.45875, 21.97435 ], [ -159.46441, 21.97096 ], [ -159.46936, 21.96634 ], [ -159.47371, 21.95789 ], [ -159.47552, 21.95274 ], [ -159.47841, 21.94815 ], [ -159.48127, 21.94535 ], [ -159.48672, 21.94437 ], [ -159.4914, 21.94388 ], [ -159.49653, 21.94346 ], [ -159.50045, 21.94355 ], [ -159.50184, 21.94401 ], [ -159.50807, 21.94765 ], [ -159.51328, 21.95101 ], [ -159.52017, 21.95501 ], [ -159.52696, 21.95997 ], [ -159.53291, 21.96622 ], [ -159.53701, 21.97169 ], [ -159.54136, 21.9787 ], [ -159.54708, 21.98834 ], [ -159.5521, 21.997 ], [ -159.55767, 22.00681 ], [ -159.56441, 22.01707 ], [ -159.57065, 22.02417 ], [ -159.57755, 22.03062 ], [ -159.58844, 22.03696 ], [ -159.59694, 22.04178 ], [ -159.60468, 22.04611 ], [ -159.61504, 22.05043 ], [ -159.62102, 22.05261 ], [ -159.62855, 22.05537 ], [ -159.63152, 22.0568 ], [ -159.64087, 22.06142 ], [ -159.65268, 22.06971 ], [ -159.65864, 22.07573 ], [ -159.66429, 22.08345 ], [ -159.66752, 22.09697 ], [ -159.66868, 22.10922 ], [ -159.66962, 22.11942 ], [ -159.66933, 22.12916 ], [ -159.66768, 22.13906 ], [ -159.66515, 22.14616 ], [ -159.66108, 22.15316 ], [ -159.65648, 22.15952 ], [ -159.65233, 22.16392 ], [ -159.64636, 22.16754 ], [ -159.63763, 22.17266 ], [ -159.62865, 22.1779 ], [ -159.61891, 22.18289 ], [ -159.61031, 22.18674 ], [ -159.59569, 22.19173 ], [ -159.58573, 22.19505 ], [ -159.57821, 22.19675 ], [ -159.5682, 22.1975 ], [ -159.55742, 22.19672 ], [ -159.54759, 22.19486 ], [ -159.53568, 22.19077 ], [ -159.5215, 22.18826 ], [ -159.5172, 22.18771 ], [ -159.51051, 22.18735 ], [ -159.50407, 22.18803 ], [ -159.49988, 22.18855 ], [ -159.49403, 22.18923 ], [ -159.48735, 22.19066 ], [ -159.48137, 22.19239 ], [ -159.47732, 22.19382 ], [ -159.46972, 22.19541 ], [ -159.46231, 22.19687 ], [ -159.45832, 22.19759 ], [ -159.45171, 22.19817 ], [ -159.44397, 22.19751 ] ], [ [ -159.55791, 22.1644 ], [ -159.56329, 22.16371 ], [ -159.57022, 22.16199 ], [ -159.5736, 22.16019 ], [ -159.57552, 22.1582 ], [ -159.57842, 22.1541 ], [ -159.57932, 22.14955 ], [ -159.57913, 22.1442 ], [ -159.5781, 22.14016 ], [ -159.57522, 22.13525 ], [ -159.56986, 22.1305 ], [ -159.56404, 22.1262 ], [ -159.56197, 22.12373 ], [ -159.55951, 22.11979 ], [ -159.55695, 22.11523 ], [ -159.55449, 22.10846 ], [ -159.55269, 22.10243 ], [ -159.55131, 22.09468 ], [ -159.54832, 22.08957 ], [ -159.54422, 22.08397 ], [ -159.54005, 22.07856 ], [ -159.53433, 22.07344 ], [ -159.52954, 22.06993 ], [ -159.52414, 22.06456 ], [ -159.51965, 22.05876 ], [ -159.51792, 22.05078 ], [ -159.51689, 22.04208 ], [ -159.51723, 22.03491 ], [ -159.51816, 22.02843 ], [ -159.51887, 22.02035 ], [ -159.5191, 22.01279 ], [ -159.51759, 22.00546 ], [ -159.51383, 21.99963 ], [ -159.50785, 21.99754 ], [ -159.50488, 21.99764 ], [ -159.50059, 21.9993 ], [ -159.49392, 22.00155 ], [ -159.48641, 22.00465 ], [ -159.47845, 22.00918 ], [ -159.46906, 22.01804 ], [ -159.46304, 22.03045 ], [ -159.4604, 22.04094 ], [ -159.45842, 22.04785 ], [ -159.45581, 22.05501 ], [ -159.4532, 22.06306 ], [ -159.44982, 22.06807 ], [ -159.445, 22.07351 ], [ -159.44109, 22.07781 ], [ -159.43617, 22.08198 ], [ -159.43054, 22.08663 ], [ -159.42604, 22.09066 ], [ -159.42167, 22.09512 ], [ -159.4177, 22.10101 ], [ -159.41449, 22.10749 ], [ -159.41219, 22.11426 ], [ -159.41167, 22.11999 ], [ -159.41185, 22.12374 ], [ -159.41172, 22.12731 ], [ -159.41197, 22.13249 ], [ -159.41289, 22.13776 ], [ -159.4137, 22.1419 ], [ -159.41527, 22.14502 ], [ -159.41766, 22.14858 ], [ -159.42039, 22.15121 ], [ -159.42354, 22.15363 ], [ -159.42935, 22.15669 ], [ -159.43394, 22.15826 ], [ -159.44066, 22.15943 ], [ -159.44689, 22.1595 ], [ -159.45378, 22.15915 ], [ -159.4591, 22.15908 ], [ -159.4655, 22.15866 ], [ -159.47361, 22.15782 ], [ -159.47991, 22.15756 ], [ -159.48565, 22.15792 ], [ -159.49016, 22.15841 ], [ -159.50251, 22.15945 ], [ -159.5099, 22.16004 ], [ -159.519, 22.16199 ], [ -159.52463, 22.16284 ], [ -159.52915, 22.16365 ], [ -159.53723, 22.16401 ], [ -159.54384, 22.16411 ], [ -159.55294, 22.16502 ], [ -159.55791, 22.1644 ] ] ] ] } }
]
}
