{
"type": "FeatureCollection",
"name": "Solar_Insolation_200-250",
"crs": { "type": "name", "properties": { "name": "urn:ogc:def:crs:OGC:1.3:CRS84" } },
"xy_coordinate_resolution": 1e-05,
"features": [
{ "type": "Feature", "properties": { "objectid": 2, "solar_cal": "200-250", "st_areasha": 8998181.7402040008, "st_perimet": 14562.891681422232 }, "geometry": { "type": "MultiPolygon", "coordinates": [ [ [ [ -155.56184, 19.1781 ], [ -155.56353, 19.16993 ], [ -155.57688, 19.15235 ], [ -155.58848, 19.13951 ], [ -155.59164, 19.13776 ], [ -155.59978, 19.13504 ], [ -155.59861, 19.1424 ], [ -155.59508, 19.15573 ], [ -155.58603, 19.16913 ], [ -155.57753, 19.17588 ], [ -155.56657, 19.18226 ], [ -155.56173, 19.18545 ], [ -155.56184, 19.1781 ] ] ] ] } },
{ "type": "Feature", "properties": { "objectid": 3, "solar_cal": "200-250", "st_areasha": 6250146.0049693296, "st_perimet": 12961.150554532855 }, "geometry": { "type": "MultiPolygon", "coordinates": [ [ [ [ -155.50916, 19.24056 ], [ -155.51267, 19.23337 ], [ -155.51809, 19.22566 ], [ -155.52428, 19.22004 ], [ -155.53301, 19.21389 ], [ -155.5386, 19.2107 ], [ -155.54324, 19.20793 ], [ -155.54758, 19.20676 ], [ -155.54667, 19.21019 ], [ -155.54463, 19.21646 ], [ -155.54267, 19.22041 ], [ -155.53986, 19.22517 ], [ -155.53523, 19.22815 ], [ -155.53029, 19.23214 ], [ -155.52545, 19.23582 ], [ -155.52072, 19.2395 ], [ -155.51473, 19.24401 ], [ -155.50798, 19.24812 ], [ -155.50916, 19.24056 ] ] ] ] } },
{ "type": "Feature", "properties": { "objectid": 88, "solar_cal": "200-250", "st_areasha": 37656945.343617745, "st_perimet": 25241.151546690024 }, "geometry": { "type": "MultiPolygon", "coordinates": [ [ [ [ -159.51432, 22.13354 ], [ -159.51166, 22.13331 ], [ -159.50956, 22.13298 ], [ -159.50403, 22.13233 ], [ -159.50057, 22.13168 ], [ -159.49507, 22.13061 ], [ -159.49011, 22.12963 ], [ -159.48773, 22.12852 ], [ -159.4851, 22.12744 ], [ -159.4816, 22.12595 ], [ -159.47782, 22.12402 ], [ -159.47509, 22.12259 ], [ -159.47169, 22.12047 ], [ -159.46906, 22.11735 ], [ -159.4671, 22.11513 ], [ -159.46566, 22.11175 ], [ -159.46631, 22.10608 ], [ -159.46763, 22.09996 ], [ -159.47031, 22.09312 ], [ -159.47303, 22.08807 ], [ -159.47477, 22.08306 ], [ -159.47651, 22.07808 ], [ -159.47801, 22.07329 ], [ -159.4794, 22.06785 ], [ -159.4804, 22.06443 ], [ -159.4811, 22.0612 ], [ -159.48179, 22.05886 ], [ -159.48343, 22.05515 ], [ -159.48552, 22.05176 ], [ -159.48744, 22.05026 ], [ -159.49093, 22.04818 ], [ -159.49355, 22.04726 ], [ -159.49533, 22.0473 ], [ -159.49778, 22.04804 ], [ -159.5002, 22.0499 ], [ -159.50167, 22.05273 ], [ -159.50256, 22.05837 ], [ -159.50306, 22.0627 ], [ -159.50415, 22.06801 ], [ -159.50587, 22.07329 ], [ -159.50798, 22.07635 ], [ -159.51106, 22.07987 ], [ -159.5131, 22.08342 ], [ -159.51748, 22.08967 ], [ -159.51934, 22.09371 ], [ -159.521, 22.09869 ], [ -159.52199, 22.10491 ], [ -159.5234, 22.1098 ], [ -159.5247, 22.1138 ], [ -159.526, 22.11676 ], [ -159.52678, 22.12038 ], [ -159.52665, 22.12367 ], [ -159.52574, 22.12719 ], [ -159.5247, 22.12934 ], [ -159.52212, 22.13197 ], [ -159.51925, 22.13315 ], [ -159.5167, 22.13354 ], [ -159.51432, 22.13354 ] ] ] ] } }
]
}
