{
"type": "FeatureCollection",
"name": "Solar_Insolation_250-300",
"crs": { "type": "name", "properties": { "name": "urn:ogc:def:crs:OGC:1.3:CRS84" } },
"xy_coordinate_resolution": 1e-05,
"features": [
{ "type": "Feature", "properties": { "objectid": 4, "solar_cal": "250-300", "st_areasha": 89603873.10826467, "st_perimet": 80440.488626080012 }, "geometry": { "type": "MultiPolygon", "coordinates": [ [ [ [ -155.47301, 19.28679 ], [ -155.47974, 19.27363 ], [ -155.49015, 19.2575 ], [ -155.49875, 19.24139 ], [ -155.50571, 19.22189 ], [ -155.50992, 19.21107 ], [ -155.51783, 19.19125 ], [ -155.52695, 19.17453 ], [ -155.5332, 19.1655 ], [ -155.54333, 19.15309 ], [ -155.55695, 19.14003 ], [ -155.56973, 19.12769 ], [ -155.58636, 19.11711 ], [ -155.59734, 19.11293 ], [ -155.60748, 19.11652 ], [ -155.61275, 19.12108 ], [ -155.61596, 19.13029 ], [ -155.61399, 19.14118 ], [ -155.6099, 19.15241 ], [ -155.60502, 19.16716 ], [ -155.59776, 19.17974 ], [ -155.58785, 19.19255 ], [ -155.57176, 19.21168 ], [ -155.55544, 19.2297 ], [ -155.54501, 19.23648 ], [ -155.53324, 19.24608 ], [ -155.52043, 19.25722 ], [ -155.50536, 19.27441 ], [ -155.49478, 19.28551 ], [ -155.4833, 19.2933 ], [ -155.47307, 19.29907 ], [ -155.47301, 19.28679 ] ], [ [ -155.51473, 19.24401 ], [ -155.52072, 19.2395 ], [ -155.52545, 19.23582 ], [ -155.53029, 19.23214 ], [ -155.53523, 19.22815 ], [ -155.53986, 19.22517 ], [ -155.54267, 19.22041 ], [ -155.54463, 19.21646 ], [ -155.54667, 19.21019 ], [ -155.54758, 19.20676 ], [ -155.54324, 19.20793 ], [ -155.5386, 19.2107 ], [ -155.53301, 19.21389 ], [ -155.52428, 19.22004 ], [ -155.51809, 19.22566 ], [ -155.51267, 19.23337 ], [ -155.50916, 19.24056 ], [ -155.50798, 19.24812 ], [ -155.51473, 19.24401 ] ], [ [ -155.56657, 19.18226 ], [ -155.57753, 19.17588 ], [ -155.58603, 19.16913 ], [ -155.59508, 19.15573 ], [ -155.59861, 19.1424 ], [ -155.59978, 19.13504 ], [ -155.59164, 19.13776 ], [ -155.58848, 19.13951 ], [ -155.57688, 19.15235 ], [ -155.56353, 19.16993 ], [ -155.56184, 19.1781 ], [ -155.56173, 19.18545 ], [ -155.56657, 19.18226 ] ] ] ] } },
{ "type": "Feature", "properties": { "objectid": 17, "solar_cal": "250-300", "st_areasha": 119830813.97516073, "st_perimet": 51029.394989098415 }, "geometry": { "type": "MultiPolygon", "coordinates": [ [ [ [ -155.2184, 19.90854 ], [ -155.21268, 19.90266 ], [ -155.20146, 19.89132 ], [ -155.18722, 19.87598 ], [ -155.17885, 19.86138 ], [ -155.17062, 19.83994 ], [ -155.16521, 19.8225 ], [ -155.15747, 19.80699 ], [ -155.14972, 19.79028 ], [ -155.14766, 19.77703 ], [ -155.14946, 19.76564 ], [ -155.15303, 19.75072 ], [ -155.15875, 19.73849 ], [ -155.16912, 19.7223 ], [ -155.18652, 19.71608 ], [ -155.20222, 19.71934 ], [ -155.21455, 19.72705 ], [ -155.2228, 19.74044 ], [ -155.22526, 19.75017 ], [ -155.22187, 19.76207 ], [ -155.2184, 19.77498 ], [ -155.2179, 19.81622 ], [ -155.21896, 19.82567 ], [ -155.22136, 19.83992 ], [ -155.22233, 19.85047 ], [ -155.22773, 19.8661 ], [ -155.23548, 19.88151 ], [ -155.23882, 19.89464 ], [ -155.23742, 19.90291 ], [ -155.23481, 19.90797 ], [ -155.23025, 19.90992 ], [ -155.2184, 19.90854 ] ] ] ] } },
{ "type": "Feature", "properties": { "objectid": 23, "solar_cal": "250-300", "st_areasha": 32837072.582381982, "st_perimet": 25369.270178452301 }, "geometry": { "type": "MultiPolygon", "coordinates": [ [ [ [ -155.71059, 20.15668 ], [ -155.69814, 20.15262 ], [ -155.68534, 20.14674 ], [ -155.67877, 20.1428 ], [ -155.66961, 20.13758 ], [ -155.66077, 20.13176 ], [ -155.65376, 20.12722 ], [ -155.64795, 20.12378 ], [ -155.64457, 20.11899 ], [ -155.63989, 20.11251 ], [ -155.63831, 20.10659 ], [ -155.63705, 20.10037 ], [ -155.63889, 20.09411 ], [ -155.64612, 20.0919 ], [ -155.66036, 20.09364 ], [ -155.67442, 20.09849 ], [ -155.68038, 20.10475 ], [ -155.70835, 20.12592 ], [ -155.71215, 20.1303 ], [ -155.71768, 20.13596 ], [ -155.72236, 20.14194 ], [ -155.72583, 20.14581 ], [ -155.72782, 20.15072 ], [ -155.72745, 20.15425 ], [ -155.72022, 20.15716 ], [ -155.71059, 20.15668 ] ] ] ] } },
{ "type": "Feature", "properties": { "objectid": 34, "solar_cal": "250-300", "st_areasha": 89810440.12042813, "st_perimet": 42565.218247853016 }, "geometry": { "type": "MultiPolygon", "coordinates": [ [ [ [ -156.18904, 20.85251 ], [ -156.17905, 20.84784 ], [ -156.16658, 20.84274 ], [ -156.15468, 20.83578 ], [ -156.14619, 20.83041 ], [ -156.13699, 20.82496 ], [ -156.13008, 20.82022 ], [ -156.12291, 20.81549 ], [ -156.11592, 20.81146 ], [ -156.10677, 20.80605 ], [ -156.10039, 20.80225 ], [ -156.09263, 20.79601 ], [ -156.08574, 20.78966 ], [ -156.08067, 20.78171 ], [ -156.07632, 20.77441 ], [ -156.07588, 20.7658 ], [ -156.07802, 20.76022 ], [ -156.08949, 20.75307 ], [ -156.10409, 20.7506 ], [ -156.11231, 20.75333 ], [ -156.12325, 20.76002 ], [ -156.13962, 20.77082 ], [ -156.15464, 20.78212 ], [ -156.16437, 20.78676 ], [ -156.17862, 20.79262 ], [ -156.19435, 20.7994 ], [ -156.21013, 20.8041 ], [ -156.22215, 20.80921 ], [ -156.22929, 20.81517 ], [ -156.23384, 20.82185 ], [ -156.23525, 20.82817 ], [ -156.23452, 20.83368 ], [ -156.23147, 20.84098 ], [ -156.22694, 20.84553 ], [ -156.22053, 20.85173 ], [ -156.21491, 20.85478 ], [ -156.19519, 20.85452 ], [ -156.18904, 20.85251 ] ] ] ] } },
{ "type": "Feature", "properties": { "objectid": 39, "solar_cal": "250-300", "st_areasha": 54049536.571814001, "st_perimet": 28863.580945374029 }, "geometry": { "type": "MultiPolygon", "coordinates": [ [ [ [ -156.57101, 20.95336 ], [ -156.56581, 20.95139 ], [ -156.56134, 20.94831 ], [ -156.55428, 20.94265 ], [ -156.54877, 20.93443 ], [ -156.54276, 20.92618 ], [ -156.54016, 20.92136 ], [ -156.53799, 20.91326 ], [ -156.53734, 20.90769 ], [ -156.53824, 20.9034 ], [ -156.54033, 20.89653 ], [ -156.54058, 20.89235 ], [ -156.54007, 20.88829 ], [ -156.53956, 20.88404 ], [ -156.53911, 20.88026 ], [ -156.54048, 20.87289 ], [ -156.54324, 20.86643 ], [ -156.54638, 20.86129 ], [ -156.55088, 20.85773 ], [ -156.55628, 20.85581 ], [ -156.56236, 20.85491 ], [ -156.56958, 20.85536 ], [ -156.57392, 20.85735 ], [ -156.58011, 20.86067 ], [ -156.58482, 20.86549 ], [ -156.58866, 20.86971 ], [ -156.59237, 20.87664 ], [ -156.59283, 20.88246 ], [ -156.59221, 20.88778 ], [ -156.59095, 20.89368 ], [ -156.59011, 20.90218 ], [ -156.59139, 20.90865 ], [ -156.59503, 20.91667 ], [ -156.59758, 20.92338 ], [ -156.60041, 20.9335 ], [ -156.60123, 20.93979 ], [ -156.59848, 20.94463 ], [ -156.59331, 20.94925 ], [ -156.58775, 20.95307 ], [ -156.58222, 20.95377 ], [ -156.57577, 20.95401 ], [ -156.57101, 20.95336 ] ] ] ] } },
{ "type": "Feature", "properties": { "objectid": 50, "solar_cal": "250-300", "st_areasha": 44801712.286267601, "st_perimet": 26915.131816353398 }, "geometry": { "type": "MultiPolygon", "coordinates": [ [ [ [ -156.87421, 21.14717 ], [ -156.86565, 21.14526 ], [ -156.86344, 21.14498 ], [ -156.85395, 21.14467 ], [ -156.84331, 21.14473 ], [ -156.83823, 21.14493 ], [ -156.83315, 21.14514 ], [ -156.8296, 21.14542 ], [ -156.82415, 21.1464 ], [ -156.81921, 21.14697 ], [ -156.81323, 21.14613 ], [ -156.80704, 21.14386 ], [ -156.80221, 21.14033 ], [ -156.79885, 21.13535 ], [ -156.79881, 21.12981 ], [ -156.80159, 21.12378 ], [ -156.80625, 21.11905 ], [ -156.81108, 21.11528 ], [ -156.819, 21.11044 ], [ -156.82406, 21.10738 ], [ -156.82992, 21.10369 ], [ -156.83876, 21.10108 ], [ -156.84863, 21.10002 ], [ -156.85789, 21.09992 ], [ -156.86799, 21.10159 ], [ -156.87595, 21.10381 ], [ -156.88445, 21.10789 ], [ -156.89276, 21.11381 ], [ -156.89818, 21.11897 ], [ -156.90233, 21.12387 ], [ -156.90409, 21.12816 ], [ -156.90468, 21.13344 ], [ -156.90306, 21.13871 ], [ -156.89981, 21.14242 ], [ -156.8966, 21.14433 ], [ -156.89146, 21.14694 ], [ -156.88335, 21.14799 ], [ -156.87421, 21.14717 ] ] ] ] } },
{ "type": "Feature", "properties": { "objectid": 75, "solar_cal": "250-300", "st_areasha": 156413283.28712684, "st_perimet": 80129.926126451275 }, "geometry": { "type": "MultiPolygon", "coordinates": [ [ [ [ -157.95662, 21.60696 ], [ -157.95034, 21.60583 ], [ -157.94498, 21.60318 ], [ -157.93975, 21.60044 ], [ -157.93419, 21.596 ], [ -157.92985, 21.59241 ], [ -157.92369, 21.58649 ], [ -157.9184, 21.57966 ], [ -157.91406, 21.57274 ], [ -157.90885, 21.56577 ], [ -157.90402, 21.56015 ], [ -157.89692, 21.55093 ], [ -157.89582, 21.54953 ], [ -157.88808, 21.53585 ], [ -157.88346, 21.52473 ], [ -157.87857, 21.51212 ], [ -157.87222, 21.49477 ], [ -157.86843, 21.48688 ], [ -157.86353, 21.48058 ], [ -157.8602, 21.47703 ], [ -157.85849, 21.47154 ], [ -157.85694, 21.4671 ], [ -157.85453, 21.46211 ], [ -157.85195, 21.45751 ], [ -157.84889, 21.45092 ], [ -157.84519, 21.4435 ], [ -157.84116, 21.43766 ], [ -157.83655, 21.4311 ], [ -157.8356, 21.42987 ], [ -157.82885, 21.41983 ], [ -157.82524, 21.41602 ], [ -157.82064, 21.4104 ], [ -157.81426, 21.40218 ], [ -157.80734, 21.39315 ], [ -157.80296, 21.38623 ], [ -157.79646, 21.37893 ], [ -157.78913, 21.37048 ], [ -157.78351, 21.36572 ], [ -157.77809, 21.36145 ], [ -157.77289, 21.35804 ], [ -157.76737, 21.35331 ], [ -157.76262, 21.34852 ], [ -157.75892, 21.34334 ], [ -157.75485, 21.33729 ], [ -157.75325, 21.33126 ], [ -157.75589, 21.32836 ], [ -157.75939, 21.32633 ], [ -157.76593, 21.32599 ], [ -157.77097, 21.32737 ], [ -157.77624, 21.32897 ], [ -157.78081, 21.33074 ], [ -157.78616, 21.33333 ], [ -157.79095, 21.33611 ], [ -157.79625, 21.33804 ], [ -157.80049, 21.33908 ], [ -157.80559, 21.34146 ], [ -157.81226, 21.3434 ], [ -157.81751, 21.34642 ], [ -157.82106, 21.35123 ], [ -157.82596, 21.35798 ], [ -157.83349, 21.3704 ], [ -157.84007, 21.38193 ], [ -157.84625, 21.38884 ], [ -157.85108, 21.39573 ], [ -157.85553, 21.40133 ], [ -157.85671, 21.40266 ], [ -157.86889, 21.4154 ], [ -157.87492, 21.42317 ], [ -157.87985, 21.43043 ], [ -157.88566, 21.44021 ], [ -157.891, 21.44674 ], [ -157.89638, 21.4522 ], [ -157.90376, 21.45805 ], [ -157.91282, 21.46507 ], [ -157.9169, 21.46955 ], [ -157.92283, 21.47461 ], [ -157.92724, 21.48025 ], [ -157.931, 21.48555 ], [ -157.93448, 21.49115 ], [ -157.93689, 21.49669 ], [ -157.93935, 21.50311 ], [ -157.94104, 21.50949 ], [ -157.94087, 21.51185 ], [ -157.94135, 21.51551 ], [ -157.94181, 21.52077 ], [ -157.94217, 21.52521 ], [ -157.94257, 21.52729 ], [ -157.94336, 21.53439 ], [ -157.94633, 21.54805 ], [ -157.95068, 21.55772 ], [ -157.95519, 21.56626 ], [ -157.96032, 21.57623 ], [ -157.96548, 21.58407 ], [ -157.9686, 21.59236 ], [ -157.97054, 21.59789 ], [ -157.97002, 21.60175 ], [ -157.96767, 21.605 ], [ -157.96475, 21.60639 ], [ -157.9614, 21.60714 ], [ -157.95662, 21.60696 ] ] ] ] } },
{ "type": "Feature", "properties": { "objectid": 91, "solar_cal": "250-300", "st_areasha": 149183130.31431568, "st_perimet": 83772.065178049801 }, "geometry": { "type": "MultiPolygon", "coordinates": [ [ [ [ -159.54384, 22.16411 ], [ -159.53723, 22.16401 ], [ -159.52915, 22.16365 ], [ -159.52463, 22.16284 ], [ -159.519, 22.16199 ], [ -159.5099, 22.16004 ], [ -159.50251, 22.15945 ], [ -159.49016, 22.15841 ], [ -159.48565, 22.15792 ], [ -159.47991, 22.15756 ], [ -159.47361, 22.15782 ], [ -159.4655, 22.15866 ], [ -159.4591, 22.15908 ], [ -159.45378, 22.15915 ], [ -159.44689, 22.1595 ], [ -159.44066, 22.15943 ], [ -159.43394, 22.15826 ], [ -159.42935, 22.15669 ], [ -159.42354, 22.15363 ], [ -159.42039, 22.15121 ], [ -159.41766, 22.14858 ], [ -159.41527, 22.14502 ], [ -159.4137, 22.1419 ], [ -159.41289, 22.13776 ], [ -159.41197, 22.13249 ], [ -159.41172, 22.12731 ], [ -159.41185, 22.12374 ], [ -159.41167, 22.11999 ], [ -159.41219, 22.11426 ], [ -159.41449, 22.10749 ], [ -159.4177, 22.10101 ], [ -159.42167, 22.09512 ], [ -159.42604, 22.09066 ], [ -159.43054, 22.08663 ], [ -159.43617, 22.08198 ], [ -159.44109, 22.07781 ], [ -159.445, 22.07351 ], [ -159.44982, 22.06807 ], [ -159.4532, 22.06306 ], [ -159.45581, 22.05501 ], [ -159.45842, 22.04785 ], [ -159.4604, 22.04094 ], [ -159.46304, 22.03045 ], [ -159.46906, 22.01804 ], [ -159.47845, 22.00918 ], [ -159.48641, 22.00465 ], [ -159.49392, 22.00155 ], [ -159.50059, 21.9993 ], [ -159.50488, 21.99764 ], [ -159.50785, 21.99754 ], [ -159.51383, 21.99963 ], [ -159.51759, 22.00546 ], [ -159.5191, 22.01279 ], [ -159.51887, 22.02035 ], [ -159.51816, 22.02843 ], [ -159.51723, 22.03491 ], [ -159.51689, 22.04208 ], [ -159.51792, 22.05078 ], [ -159.51965, 22.05876 ], [ -159.52414, 22.06456 ], [ -159.52954, 22.06993 ], [ -159.53433, 22.07344 ], [ -159.54005, 22.07856 ], [ -159.54422, 22.08397 ], [ -159.54832, 22.08957 ], [ -159.55131, 22.09468 ], [ -159.55269, 22.10243 ], [ -159.55449, 22.10846 ], [ -159.55695, 22.11523 ], [ -159.55951, 22.11979 ], [ -159.56197, 22.12373 ], [ -159.56404, 22.1262 ], [ -159.56986, 22.1305 ], [ -159.57522, 22.13525 ], [ -159.5781, 22.14016 ], [ -159.57913, 22.1442 ], [ -159.57932, 22.14955 ], [ -159.57842, 22.1541 ], [ -159.57552, 22.1582 ], [ -159.5736, 22.16019 ], [ -159.57022, 22.16199 ], [ -159.56329, 22.16371 ], [ -159.55791, 22.1644 ], [ -159.55294, 22.16502 ], [ -159.54384, 22.16411 ] ], [ [ -159.51925, 22.13315 ], [ -159.52212, 22.13197 ], [ -159.5247, 22.12934 ], [ -159.52574, 22.12719 ], [ -159.52665, 22.12367 ], [ -159.52678, 22.12038 ], [ -159.526, 22.11676 ], [ -159.5247, 22.1138 ], [ -159.5234, 22.1098 ], [ -159.52199, 22.10491 ], [ -159.521, 22.09869 ], [ -159.51934, 22.09371 ], [ -159.51748, 22.08967 ], [ -159.5131, 22.08342 ], [ -159.51106, 22.07987 ], [ -159.50798, 22.07635 ], [ -159.50587, 22.07329 ], [ -159.50415, 22.06801 ], [ -159.50306, 22.0627 ], [ -159.50256, 22.05837 ], [ -159.50167, 22.05273 ], [ -159.5002, 22.0499 ], [ -159.49778, 22.04804 ], [ -159.49533, 22.0473 ], [ -159.49355, 22.04726 ], [ -159.49093, 22.04818 ], [ -159.48744, 22.05026 ], [ -159.48552, 22.05176 ], [ -159.48343, 22.05515 ], [ -159.48179, 22.05886 ], [ -159.4811, 22.0612 ], [ -159.4804, 22.06443 ], [ -159.4794, 22.06785 ], [ -159.47801, 22.07329 ], [ -159.47651, 22.07808 ], [ -159.47477, 22.08306 ], [ -159.47303, 22.08807 ], [ -159.47031, 22.09312 ], [ -159.46763, 22.09996 ], [ -159.46631, 22.10608 ], [ -159.46566, 22.11175 ], [ -159.4671, 22.11513 ], [ -159.46906, 22.11735 ], [ -159.47169, 22.12047 ], [ -159.47509, 22.12259 ], [ -159.47782, 22.12402 ], [ -159.4816, 22.12595 ], [ -159.4851, 22.12744 ], [ -159.48773, 22.12852 ], [ -159.49011, 22.12963 ], [ -159.49507, 22.13061 ], [ -159.50057, 22.13168 ], [ -159.50403, 22.13233 ], [ -159.50956, 22.13298 ], [ -159.51166, 22.13331 ], [ -159.51432, 22.13354 ], [ -159.5167, 22.13354 ], [ -159.51925, 22.13315 ] ] ] ] } }
]
}
