{
"type": "FeatureCollection",
"name": "Solar_Insolation_550-600",
"crs": { "type": "name", "properties": { "name": "urn:ogc:def:crs:OGC:1.3:CRS84" } },
"xy_coordinate_resolution": 1e-05,
"features": [
{ "type": "Feature", "properties": { "objectid": 9, "solar_cal": "550-600", "st_areasha": 240806588.2050162, "st_perimet": 126982.43124158261 }, "geometry": { "type": "MultiPolygon", "coordinates": [ [ [ [ -155.54093, 19.56895 ], [ -155.51599, 19.56724 ], [ -155.49461, 19.56037 ], [ -155.47319, 19.55057 ], [ -155.46254, 19.54155 ], [ -155.45708, 19.53105 ], [ -155.46039, 19.50767 ], [ -155.47382, 19.48427 ], [ -155.49586, 19.45381 ], [ -155.51343, 19.43096 ], [ -155.53607, 19.40592 ], [ -155.56259, 19.38576 ], [ -155.57315, 19.38059 ], [ -155.58829, 19.37526 ], [ -155.60633, 19.36506 ], [ -155.6195, 19.35644 ], [ -155.64374, 19.34917 ], [ -155.65574, 19.3475 ], [ -155.66953, 19.35305 ], [ -155.67737, 19.36522 ], [ -155.67959, 19.37897 ], [ -155.68343, 19.41656 ], [ -155.68771, 19.44769 ], [ -155.68978, 19.47282 ], [ -155.68788, 19.48855 ], [ -155.68275, 19.50924 ], [ -155.67655, 19.5222 ], [ -155.66725, 19.5343 ], [ -155.6549, 19.54201 ], [ -155.63597, 19.55102 ], [ -155.6242, 19.55459 ], [ -155.61255, 19.55877 ], [ -155.56788, 19.56991 ], [ -155.55936, 19.57012 ], [ -155.54093, 19.56895 ] ], [ [ -155.57946, 19.53706 ], [ -155.59499, 19.53646 ], [ -155.60986, 19.53405 ], [ -155.62115, 19.52676 ], [ -155.63043, 19.5203 ], [ -155.63986, 19.50951 ], [ -155.64507, 19.50179 ], [ -155.64991, 19.49026 ], [ -155.65414, 19.48145 ], [ -155.65613, 19.47136 ], [ -155.65555, 19.46101 ], [ -155.65434, 19.45026 ], [ -155.65297, 19.43669 ], [ -155.65192, 19.42231 ], [ -155.65015, 19.41016 ], [ -155.64456, 19.39887 ], [ -155.63289, 19.39309 ], [ -155.61493, 19.39473 ], [ -155.58971, 19.4014 ], [ -155.56795, 19.41195 ], [ -155.5524, 19.42603 ], [ -155.53987, 19.44319 ], [ -155.53196, 19.46432 ], [ -155.523, 19.48627 ], [ -155.51783, 19.50565 ], [ -155.52021, 19.51659 ], [ -155.5246, 19.52609 ], [ -155.53535, 19.5342 ], [ -155.54264, 19.53803 ], [ -155.56352, 19.53888 ], [ -155.57946, 19.53706 ] ] ] ] } },
{ "type": "Feature", "properties": { "objectid": 15, "solar_cal": "550-600", "st_areasha": 64754015.569689587, "st_perimet": 29619.30316564743 }, "geometry": { "type": "MultiPolygon", "coordinates": [ [ [ [ -155.44192, 19.8619 ], [ -155.4349, 19.85514 ], [ -155.42765, 19.84627 ], [ -155.42506, 19.83584 ], [ -155.4266, 19.83069 ], [ -155.43109, 19.8237 ], [ -155.43624, 19.81781 ], [ -155.44213, 19.8112 ], [ -155.44767, 19.80228 ], [ -155.45346, 19.79628 ], [ -155.45896, 19.7934 ], [ -155.46914, 19.78895 ], [ -155.48223, 19.78749 ], [ -155.49304, 19.79087 ], [ -155.50299, 19.79347 ], [ -155.50933, 19.79751 ], [ -155.51377, 19.8027 ], [ -155.5164, 19.80749 ], [ -155.51999, 19.81288 ], [ -155.52346, 19.81757 ], [ -155.52789, 19.82244 ], [ -155.52689, 19.82748 ], [ -155.52334, 19.83286 ], [ -155.5168, 19.83867 ], [ -155.50785, 19.84713 ], [ -155.50153, 19.85325 ], [ -155.49657, 19.85703 ], [ -155.48563, 19.86088 ], [ -155.47191, 19.86396 ], [ -155.4619, 19.86518 ], [ -155.45103, 19.86551 ], [ -155.44192, 19.8619 ] ] ] ] } },
{ "type": "Feature", "properties": { "objectid": 21, "solar_cal": "550-600", "st_areasha": 45575174.913010344, "st_perimet": 64013.799137306763 }, "geometry": { "type": "MultiPolygon", "coordinates": [ [ [ [ -155.86991, 20.08973 ], [ -155.86399, 20.08679 ], [ -155.85883, 20.08435 ], [ -155.8526, 20.08192 ], [ -155.8486, 20.07886 ], [ -155.84339, 20.0736 ], [ -155.84121, 20.07071 ], [ -155.83708, 20.06563 ], [ -155.83259, 20.05865 ], [ -155.82629, 20.05139 ], [ -155.82042, 20.04422 ], [ -155.81585, 20.03865 ], [ -155.80876, 20.02858 ], [ -155.80296, 20.01921 ], [ -155.79874, 20.00829 ], [ -155.79554, 20.00109 ], [ -155.79383, 19.99387 ], [ -155.79444, 19.9846 ], [ -155.79625, 19.97703 ], [ -155.79862, 19.97086 ], [ -155.80314, 19.96587 ], [ -155.80853, 19.96217 ], [ -155.81444, 19.95796 ], [ -155.821, 19.95365 ], [ -155.83044, 19.94949 ], [ -155.83913, 19.94555 ], [ -155.84953, 19.94168 ], [ -155.85898, 19.93833 ], [ -155.86739, 19.9366 ], [ -155.87715, 19.93294 ], [ -155.88819, 19.92961 ], [ -155.88841, 19.92975 ], [ -155.88845, 19.92981 ], [ -155.88842, 19.92984 ], [ -155.88839, 19.92983 ], [ -155.8883, 19.92979 ], [ -155.88821, 19.92987 ], [ -155.88806, 19.92993 ], [ -155.88801, 19.92997 ], [ -155.88802, 19.93002 ], [ -155.88811, 19.93014 ], [ -155.88811, 19.93045 ], [ -155.88803, 19.93053 ], [ -155.88798, 19.93052 ], [ -155.88786, 19.93054 ], [ -155.88782, 19.93054 ], [ -155.8878, 19.93056 ], [ -155.88778, 19.93062 ], [ -155.88783, 19.93068 ], [ -155.88784, 19.93089 ], [ -155.88778, 19.93111 ], [ -155.88779, 19.9312 ], [ -155.8879, 19.9312 ], [ -155.88795, 19.93123 ], [ -155.88799, 19.93135 ], [ -155.88796, 19.9314 ], [ -155.88781, 19.93156 ], [ -155.88774, 19.93168 ], [ -155.88763, 19.93173 ], [ -155.88759, 19.93186 ], [ -155.88753, 19.93194 ], [ -155.88733, 19.932 ], [ -155.88717, 19.93214 ], [ -155.88728, 19.93225 ], [ -155.88728, 19.93228 ], [ -155.88722, 19.93233 ], [ -155.88707, 19.93237 ], [ -155.887, 19.93246 ], [ -155.88675, 19.93272 ], [ -155.88667, 19.93273 ], [ -155.88654, 19.93277 ], [ -155.8864, 19.93278 ], [ -155.88623, 19.93274 ], [ -155.88608, 19.93279 ], [ -155.88586, 19.93283 ], [ -155.88583, 19.93281 ], [ -155.8858, 19.93264 ], [ -155.88568, 19.93268 ], [ -155.88566, 19.93283 ], [ -155.88556, 19.93296 ], [ -155.88551, 19.93297 ], [ -155.8854, 19.93298 ], [ -155.88521, 19.93307 ], [ -155.88509, 19.93306 ], [ -155.88501, 19.93299 ], [ -155.88489, 19.93298 ], [ -155.88485, 19.93303 ], [ -155.88489, 19.93309 ], [ -155.88484, 19.93325 ], [ -155.88492, 19.93322 ], [ -155.88496, 19.93322 ], [ -155.88493, 19.93334 ], [ -155.88494, 19.93352 ], [ -155.88492, 19.93377 ], [ -155.88489, 19.93382 ], [ -155.88481, 19.93384 ], [ -155.88472, 19.93381 ], [ -155.88431, 19.93379 ], [ -155.88407, 19.93375 ], [ -155.8838, 19.93379 ], [ -155.88369, 19.93377 ], [ -155.88356, 19.93362 ], [ -155.88349, 19.93359 ], [ -155.88339, 19.93366 ], [ -155.8833, 19.93364 ], [ -155.88319, 19.93364 ], [ -155.88311, 19.93371 ], [ -155.88281, 19.93374 ], [ -155.88275, 19.93377 ], [ -155.88269, 19.93387 ], [ -155.88281, 19.93397 ], [ -155.88282, 19.93404 ], [ -155.88279, 19.93409 ], [ -155.88258, 19.93414 ], [ -155.88236, 19.9341 ], [ -155.88208, 19.9341 ], [ -155.88201, 19.93413 ], [ -155.88204, 19.9342 ], [ -155.882, 19.93426 ], [ -155.88192, 19.93428 ], [ -155.88165, 19.93425 ], [ -155.88151, 19.9342 ], [ -155.88146, 19.93404 ], [ -155.88139, 19.93399 ], [ -155.88135, 19.93401 ], [ -155.88126, 19.93421 ], [ -155.88119, 19.93431 ], [ -155.88094, 19.93435 ], [ -155.88085, 19.93434 ], [ -155.88087, 19.9342 ], [ -155.88082, 19.93384 ], [ -155.88075, 19.93372 ], [ -155.88059, 19.93365 ], [ -155.88021, 19.93362 ], [ -155.87972, 19.93368 ], [ -155.87951, 19.93367 ], [ -155.87943, 19.93382 ], [ -155.87936, 19.93384 ], [ -155.8792, 19.93384 ], [ -155.87909, 19.93388 ], [ -155.87894, 19.9339 ], [ -155.87884, 19.93386 ], [ -155.87866, 19.93365 ], [ -155.87852, 19.93359 ], [ -155.87835, 19.9336 ], [ -155.87803, 19.93372 ], [ -155.8779, 19.93384 ], [ -155.87781, 19.93402 ], [ -155.87773, 19.93414 ], [ -155.8776, 19.93444 ], [ -155.87753, 19.9345 ], [ -155.87743, 19.93451 ], [ -155.87734, 19.93454 ], [ -155.87733, 19.93457 ], [ -155.87741, 19.93468 ], [ -155.87744, 19.93479 ], [ -155.87748, 19.93496 ], [ -155.87751, 19.9352 ], [ -155.87747, 19.93534 ], [ -155.87737, 19.93538 ], [ -155.8773, 19.93549 ], [ -155.87728, 19.93558 ], [ -155.87734, 19.93576 ], [ -155.87738, 19.93598 ], [ -155.87743, 19.9361 ], [ -155.87763, 19.93625 ], [ -155.87766, 19.93634 ], [ -155.87767, 19.93659 ], [ -155.87748, 19.93682 ], [ -155.87748, 19.93689 ], [ -155.87751, 19.93706 ], [ -155.87767, 19.93707 ], [ -155.87771, 19.9372 ], [ -155.87764, 19.93744 ], [ -155.87757, 19.9375 ], [ -155.87745, 19.93746 ], [ -155.87736, 19.93748 ], [ -155.87728, 19.93756 ], [ -155.87736, 19.93775 ], [ -155.87737, 19.93784 ], [ -155.87732, 19.93792 ], [ -155.87743, 19.93825 ], [ -155.87748, 19.93854 ], [ -155.87746, 19.93869 ], [ -155.87736, 19.93874 ], [ -155.87735, 19.93879 ], [ -155.87744, 19.93885 ], [ -155.87746, 19.93889 ], [ -155.87746, 19.93898 ], [ -155.87738, 19.93913 ], [ -155.8773, 19.93909 ], [ -155.8772, 19.93908 ], [ -155.87709, 19.93914 ], [ -155.87702, 19.93909 ], [ -155.87694, 19.9391 ], [ -155.87684, 19.93913 ], [ -155.87681, 19.93917 ], [ -155.87683, 19.93922 ], [ -155.8769, 19.93927 ], [ -155.87693, 19.93932 ], [ -155.87686, 19.93951 ], [ -155.87686, 19.93958 ], [ -155.87686, 19.9396 ], [ -155.87685, 19.93978 ], [ -155.87691, 19.93991 ], [ -155.87705, 19.94001 ], [ -155.8772, 19.94005 ], [ -155.87749, 19.94001 ], [ -155.8776, 19.93997 ], [ -155.87777, 19.94 ], [ -155.87811, 19.94028 ], [ -155.87841, 19.94048 ], [ -155.87841, 19.9405 ], [ -155.87855, 19.94056 ], [ -155.87861, 19.94061 ], [ -155.87863, 19.94076 ], [ -155.87867, 19.94098 ], [ -155.8787, 19.94104 ], [ -155.87867, 19.94108 ], [ -155.87858, 19.94114 ], [ -155.8785, 19.94117 ], [ -155.87845, 19.94113 ], [ -155.87834, 19.94111 ], [ -155.87828, 19.94114 ], [ -155.87828, 19.9412 ], [ -155.87826, 19.94135 ], [ -155.87833, 19.94138 ], [ -155.87845, 19.94138 ], [ -155.87859, 19.94147 ], [ -155.8786, 19.94156 ], [ -155.87846, 19.94165 ], [ -155.87825, 19.94177 ], [ -155.87821, 19.94173 ], [ -155.8781, 19.94166 ], [ -155.87799, 19.94164 ], [ -155.87791, 19.94174 ], [ -155.87793, 19.94182 ], [ -155.87805, 19.94189 ], [ -155.8781, 19.94198 ], [ -155.8781, 19.94216 ], [ -155.87803, 19.94222 ], [ -155.87786, 19.94216 ], [ -155.87756, 19.94192 ], [ -155.87741, 19.94179 ], [ -155.87733, 19.94178 ], [ -155.87727, 19.94193 ], [ -155.87737, 19.94207 ], [ -155.87762, 19.94221 ], [ -155.87769, 19.94231 ], [ -155.87786, 19.94251 ], [ -155.87794, 19.94262 ], [ -155.87799, 19.94272 ], [ -155.87796, 19.94278 ], [ -155.87788, 19.94275 ], [ -155.87766, 19.94257 ], [ -155.87733, 19.94238 ], [ -155.87712, 19.94222 ], [ -155.87703, 19.94222 ], [ -155.87702, 19.94228 ], [ -155.87711, 19.94251 ], [ -155.87708, 19.94265 ], [ -155.87707, 19.94276 ], [ -155.87712, 19.94284 ], [ -155.87726, 19.94294 ], [ -155.87743, 19.94308 ], [ -155.87743, 19.94315 ], [ -155.87736, 19.9432 ], [ -155.87703, 19.94322 ], [ -155.87689, 19.94317 ], [ -155.87689, 19.94302 ], [ -155.87674, 19.94293 ], [ -155.87666, 19.94283 ], [ -155.87662, 19.94264 ], [ -155.87656, 19.94262 ], [ -155.87632, 19.94263 ], [ -155.87621, 19.94264 ], [ -155.87608, 19.9426 ], [ -155.87597, 19.94259 ], [ -155.8759, 19.94264 ], [ -155.87576, 19.94281 ], [ -155.87558, 19.94296 ], [ -155.87548, 19.94296 ], [ -155.87541, 19.943 ], [ -155.87541, 19.94313 ], [ -155.8753, 19.94332 ], [ -155.87511, 19.94349 ], [ -155.87504, 19.94364 ], [ -155.87511, 19.94374 ], [ -155.87511, 19.94379 ], [ -155.87501, 19.94389 ], [ -155.87462, 19.94395 ], [ -155.8744, 19.94393 ], [ -155.87432, 19.94394 ], [ -155.87427, 19.94399 ], [ -155.87416, 19.94417 ], [ -155.87406, 19.94419 ], [ -155.87402, 19.94415 ], [ -155.87401, 19.94403 ], [ -155.87391, 19.94369 ], [ -155.87381, 19.94366 ], [ -155.87376, 19.94361 ], [ -155.8737, 19.9436 ], [ -155.87366, 19.94367 ], [ -155.87351, 19.94385 ], [ -155.87338, 19.94392 ], [ -155.8733, 19.94391 ], [ -155.87328, 19.94377 ], [ -155.87325, 19.9436 ], [ -155.87314, 19.94348 ], [ -155.87289, 19.94332 ], [ -155.87274, 19.94323 ], [ -155.8727, 19.94313 ], [ -155.87274, 19.94304 ], [ -155.8728, 19.9429 ], [ -155.87288, 19.94259 ], [ -155.87285, 19.9425 ], [ -155.8726, 19.94239 ], [ -155.87246, 19.94237 ], [ -155.87221, 19.94237 ], [ -155.87216, 19.94233 ], [ -155.872, 19.94231 ], [ -155.87192, 19.94233 ], [ -155.87178, 19.94242 ], [ -155.87167, 19.94258 ], [ -155.87137, 19.9428 ], [ -155.87115, 19.94294 ], [ -155.87082, 19.94305 ], [ -155.87045, 19.94309 ], [ -155.87025, 19.94313 ], [ -155.86995, 19.94324 ], [ -155.86973, 19.94335 ], [ -155.86965, 19.94346 ], [ -155.86948, 19.94357 ], [ -155.86944, 19.94363 ], [ -155.86943, 19.94369 ], [ -155.86945, 19.94372 ], [ -155.86972, 19.94385 ], [ -155.8698, 19.94393 ], [ -155.86991, 19.94399 ], [ -155.87001, 19.94408 ], [ -155.86999, 19.9442 ], [ -155.87007, 19.94434 ], [ -155.87001, 19.9444 ], [ -155.86997, 19.94442 ], [ -155.86975, 19.9445 ], [ -155.86971, 19.94462 ], [ -155.86969, 19.94497 ], [ -155.86965, 19.94504 ], [ -155.86955, 19.94508 ], [ -155.86937, 19.94504 ], [ -155.86929, 19.94507 ], [ -155.86919, 19.94521 ], [ -155.86906, 19.94524 ], [ -155.86899, 19.94522 ], [ -155.86893, 19.94523 ], [ -155.86885, 19.94516 ], [ -155.86883, 19.94509 ], [ -155.86881, 19.94508 ], [ -155.86843, 19.94539 ], [ -155.86841, 19.94542 ], [ -155.86827, 19.94547 ], [ -155.86805, 19.94556 ], [ -155.86795, 19.94566 ], [ -155.8679, 19.94574 ], [ -155.86791, 19.9459 ], [ -155.86823, 19.94636 ], [ -155.86827, 19.94657 ], [ -155.8683, 19.94687 ], [ -155.86821, 19.94712 ], [ -155.86799, 19.94723 ], [ -155.86779, 19.9473 ], [ -155.86744, 19.94749 ], [ -155.86715, 19.94769 ], [ -155.86697, 19.94787 ], [ -155.86682, 19.94814 ], [ -155.86652, 19.94852 ], [ -155.86616, 19.94872 ], [ -155.86609, 19.94881 ], [ -155.86597, 19.94893 ], [ -155.86583, 19.94916 ], [ -155.8657, 19.94926 ], [ -155.86565, 19.94936 ], [ -155.86554, 19.94947 ], [ -155.86543, 19.94954 ], [ -155.86534, 19.94962 ], [ -155.86525, 19.9498 ], [ -155.86524, 19.94988 ], [ -155.86518, 19.94994 ], [ -155.86501, 19.94999 ], [ -155.86491, 19.95006 ], [ -155.86484, 19.95029 ], [ -155.86481, 19.95048 ], [ -155.86472, 19.95057 ], [ -155.86467, 19.95056 ], [ -155.86461, 19.95051 ], [ -155.86451, 19.95049 ], [ -155.86445, 19.95075 ], [ -155.8643, 19.95075 ], [ -155.86425, 19.95079 ], [ -155.86422, 19.95099 ], [ -155.86419, 19.95107 ], [ -155.86402, 19.95128 ], [ -155.86383, 19.95146 ], [ -155.86374, 19.95151 ], [ -155.86356, 19.95146 ], [ -155.86348, 19.95149 ], [ -155.86342, 19.95146 ], [ -155.86342, 19.95141 ], [ -155.86335, 19.95133 ], [ -155.86316, 19.95139 ], [ -155.8631, 19.95133 ], [ -155.86295, 19.95121 ], [ -155.86275, 19.95119 ], [ -155.86238, 19.9512 ], [ -155.8622, 19.95125 ], [ -155.86204, 19.95132 ], [ -155.86168, 19.95145 ], [ -155.86162, 19.9515 ], [ -155.86147, 19.95159 ], [ -155.86138, 19.95202 ], [ -155.86135, 19.9523 ], [ -155.86142, 19.95255 ], [ -155.86151, 19.95265 ], [ -155.86165, 19.95268 ], [ -155.86186, 19.95279 ], [ -155.86197, 19.95278 ], [ -155.86207, 19.95277 ], [ -155.86212, 19.95282 ], [ -155.8621, 19.95287 ], [ -155.86201, 19.95293 ], [ -155.86199, 19.95298 ], [ -155.862, 19.95303 ], [ -155.86207, 19.95312 ], [ -155.86209, 19.95322 ], [ -155.8619, 19.95326 ], [ -155.8619, 19.95329 ], [ -155.86188, 19.95332 ], [ -155.86167, 19.9536 ], [ -155.86155, 19.95407 ], [ -155.86158, 19.95425 ], [ -155.8616, 19.9543 ], [ -155.8617, 19.95441 ], [ -155.86173, 19.95446 ], [ -155.8617, 19.95452 ], [ -155.86159, 19.95481 ], [ -155.86155, 19.95481 ], [ -155.86136, 19.95477 ], [ -155.86134, 19.9548 ], [ -155.86133, 19.95487 ], [ -155.86136, 19.95496 ], [ -155.86145, 19.95507 ], [ -155.86146, 19.95513 ], [ -155.86145, 19.95514 ], [ -155.86134, 19.95517 ], [ -155.86128, 19.9552 ], [ -155.8611, 19.9554 ], [ -155.86096, 19.9555 ], [ -155.86085, 19.95549 ], [ -155.86078, 19.95551 ], [ -155.86075, 19.95557 ], [ -155.86074, 19.95572 ], [ -155.8606, 19.95581 ], [ -155.86063, 19.9559 ], [ -155.86071, 19.95599 ], [ -155.86066, 19.95602 ], [ -155.86051, 19.95602 ], [ -155.86042, 19.95608 ], [ -155.86037, 19.95623 ], [ -155.86032, 19.95627 ], [ -155.86018, 19.95626 ], [ -155.86007, 19.95628 ], [ -155.86003, 19.95632 ], [ -155.85999, 19.95647 ], [ -155.85984, 19.95647 ], [ -155.85978, 19.95649 ], [ -155.8597, 19.95657 ], [ -155.8597, 19.95662 ], [ -155.85978, 19.95667 ], [ -155.85983, 19.95674 ], [ -155.8597, 19.95682 ], [ -155.85958, 19.95695 ], [ -155.85937, 19.95732 ], [ -155.85933, 19.95733 ], [ -155.85924, 19.95731 ], [ -155.85914, 19.95718 ], [ -155.85908, 19.95718 ], [ -155.85905, 19.95721 ], [ -155.85903, 19.95726 ], [ -155.85886, 19.95731 ], [ -155.85876, 19.95741 ], [ -155.85869, 19.95742 ], [ -155.85856, 19.95747 ], [ -155.85849, 19.95758 ], [ -155.8585, 19.95766 ], [ -155.85856, 19.95775 ], [ -155.85858, 19.95784 ], [ -155.85853, 19.95793 ], [ -155.85853, 19.95802 ], [ -155.85845, 19.95837 ], [ -155.85838, 19.95857 ], [ -155.85842, 19.95905 ], [ -155.85857, 19.95929 ], [ -155.85857, 19.95934 ], [ -155.85851, 19.95956 ], [ -155.85846, 19.95963 ], [ -155.85856, 19.95982 ], [ -155.85856, 19.95986 ], [ -155.85849, 19.96 ], [ -155.85841, 19.9604 ], [ -155.85846, 19.96055 ], [ -155.85845, 19.96058 ], [ -155.85838, 19.96061 ], [ -155.85825, 19.96063 ], [ -155.85817, 19.96059 ], [ -155.85795, 19.96061 ], [ -155.85789, 19.96065 ], [ -155.85767, 19.96081 ], [ -155.85737, 19.96109 ], [ -155.85724, 19.96134 ], [ -155.85725, 19.96153 ], [ -155.85722, 19.96157 ], [ -155.85708, 19.96168 ], [ -155.85701, 19.96199 ], [ -155.85698, 19.96201 ], [ -155.8569, 19.96201 ], [ -155.85679, 19.96205 ], [ -155.85676, 19.9621 ], [ -155.85664, 19.96212 ], [ -155.85649, 19.9622 ], [ -155.8561, 19.96259 ], [ -155.85603, 19.96286 ], [ -155.85599, 19.96316 ], [ -155.85606, 19.96339 ], [ -155.85598, 19.9635 ], [ -155.85506, 19.96434 ], [ -155.85502, 19.96452 ], [ -155.85497, 19.96462 ], [ -155.85465, 19.96493 ], [ -155.85456, 19.96506 ], [ -155.85452, 19.96534 ], [ -155.85447, 19.96547 ], [ -155.85443, 19.96548 ], [ -155.85441, 19.96547 ], [ -155.85431, 19.96547 ], [ -155.85416, 19.96578 ], [ -155.85412, 19.9658 ], [ -155.85389, 19.96574 ], [ -155.85361, 19.96578 ], [ -155.8534, 19.96588 ], [ -155.85323, 19.96605 ], [ -155.85285, 19.96626 ], [ -155.85275, 19.9664 ], [ -155.85272, 19.96673 ], [ -155.85269, 19.96676 ], [ -155.85261, 19.96679 ], [ -155.85245, 19.96673 ], [ -155.85228, 19.96673 ], [ -155.8522, 19.96684 ], [ -155.85207, 19.96702 ], [ -155.85197, 19.96705 ], [ -155.85176, 19.96714 ], [ -155.85162, 19.96727 ], [ -155.85144, 19.96753 ], [ -155.85134, 19.9676 ], [ -155.85117, 19.96766 ], [ -155.85091, 19.96774 ], [ -155.85081, 19.96772 ], [ -155.85049, 19.9678 ], [ -155.85009, 19.96799 ], [ -155.84996, 19.96803 ], [ -155.84978, 19.9681 ], [ -155.84974, 19.96817 ], [ -155.84964, 19.96819 ], [ -155.84949, 19.96817 ], [ -155.84938, 19.96811 ], [ -155.84928, 19.96808 ], [ -155.84917, 19.96816 ], [ -155.84879, 19.96822 ], [ -155.84864, 19.96818 ], [ -155.84855, 19.96818 ], [ -155.84844, 19.96826 ], [ -155.84829, 19.96827 ], [ -155.84776, 19.96818 ], [ -155.84745, 19.9682 ], [ -155.84733, 19.96801 ], [ -155.84725, 19.96797 ], [ -155.84714, 19.96798 ], [ -155.84643, 19.96827 ], [ -155.84623, 19.96825 ], [ -155.84595, 19.96834 ], [ -155.84579, 19.96838 ], [ -155.84527, 19.96873 ], [ -155.84509, 19.96888 ], [ -155.84477, 19.96911 ], [ -155.84463, 19.96929 ], [ -155.84438, 19.96938 ], [ -155.84426, 19.96939 ], [ -155.84409, 19.96948 ], [ -155.84391, 19.96954 ], [ -155.84379, 19.96955 ], [ -155.84375, 19.96957 ], [ -155.84366, 19.96967 ], [ -155.84344, 19.96977 ], [ -155.84332, 19.96988 ], [ -155.84326, 19.97009 ], [ -155.84326, 19.97033 ], [ -155.84324, 19.97043 ], [ -155.84299, 19.97059 ], [ -155.8428, 19.97077 ], [ -155.84265, 19.97108 ], [ -155.8425, 19.9712 ], [ -155.84235, 19.97124 ], [ -155.8422, 19.97143 ], [ -155.84218, 19.97151 ], [ -155.84225, 19.97162 ], [ -155.84226, 19.97168 ], [ -155.84213, 19.97175 ], [ -155.84182, 19.97162 ], [ -155.84172, 19.97162 ], [ -155.84154, 19.97167 ], [ -155.84083, 19.97218 ], [ -155.84039, 19.97246 ], [ -155.83959, 19.97291 ], [ -155.83927, 19.97322 ], [ -155.83919, 19.97325 ], [ -155.83901, 19.97324 ], [ -155.83878, 19.97324 ], [ -155.83859, 19.97327 ], [ -155.83828, 19.97364 ], [ -155.83812, 19.97368 ], [ -155.83809, 19.97371 ], [ -155.8379, 19.97378 ], [ -155.83775, 19.97375 ], [ -155.83733, 19.97357 ], [ -155.83731, 19.97353 ], [ -155.8373, 19.97342 ], [ -155.83745, 19.97318 ], [ -155.83758, 19.97306 ], [ -155.8375, 19.97289 ], [ -155.83741, 19.97281 ], [ -155.83699, 19.97269 ], [ -155.83677, 19.97269 ], [ -155.83653, 19.97275 ], [ -155.8363, 19.97275 ], [ -155.83616, 19.97265 ], [ -155.83611, 19.97257 ], [ -155.83606, 19.97245 ], [ -155.83598, 19.97238 ], [ -155.83588, 19.97234 ], [ -155.83566, 19.9724 ], [ -155.83558, 19.97247 ], [ -155.8355, 19.97249 ], [ -155.83542, 19.97245 ], [ -155.83537, 19.97237 ], [ -155.83533, 19.97236 ], [ -155.83526, 19.97237 ], [ -155.83519, 19.97236 ], [ -155.83499, 19.97244 ], [ -155.83495, 19.97243 ], [ -155.83491, 19.9724 ], [ -155.83482, 19.97239 ], [ -155.83472, 19.97244 ], [ -155.83462, 19.97258 ], [ -155.83463, 19.97263 ], [ -155.83471, 19.97272 ], [ -155.8347, 19.97276 ], [ -155.83466, 19.97278 ], [ -155.83449, 19.97281 ], [ -155.83444, 19.97284 ], [ -155.83437, 19.97286 ], [ -155.8343, 19.97278 ], [ -155.83414, 19.97266 ], [ -155.83404, 19.97263 ], [ -155.8339, 19.97273 ], [ -155.83383, 19.97283 ], [ -155.83383, 19.97289 ], [ -155.8339, 19.97303 ], [ -155.83389, 19.97309 ], [ -155.83383, 19.97312 ], [ -155.83384, 19.97325 ], [ -155.83373, 19.97332 ], [ -155.83348, 19.97339 ], [ -155.83342, 19.97341 ], [ -155.83328, 19.97348 ], [ -155.83322, 19.97348 ], [ -155.83321, 19.9733 ], [ -155.83312, 19.9731 ], [ -155.83293, 19.97288 ], [ -155.83289, 19.97287 ], [ -155.83281, 19.97289 ], [ -155.83271, 19.97289 ], [ -155.83249, 19.97296 ], [ -155.83241, 19.97304 ], [ -155.8324, 19.97309 ], [ -155.83245, 19.97331 ], [ -155.8325, 19.97337 ], [ -155.83255, 19.97351 ], [ -155.83244, 19.97359 ], [ -155.8324, 19.97364 ], [ -155.83239, 19.9737 ], [ -155.83241, 19.97382 ], [ -155.83239, 19.97393 ], [ -155.83235, 19.97395 ], [ -155.83228, 19.97395 ], [ -155.83213, 19.97382 ], [ -155.83184, 19.97388 ], [ -155.83162, 19.97397 ], [ -155.8315, 19.97415 ], [ -155.83149, 19.97419 ], [ -155.8315, 19.97429 ], [ -155.83144, 19.97481 ], [ -155.83138, 19.97503 ], [ -155.83131, 19.97513 ], [ -155.83123, 19.9754 ], [ -155.83124, 19.97553 ], [ -155.8312, 19.97567 ], [ -155.83125, 19.97575 ], [ -155.83135, 19.97578 ], [ -155.8314, 19.97586 ], [ -155.83143, 19.97616 ], [ -155.8315, 19.97626 ], [ -155.83169, 19.97653 ], [ -155.83174, 19.97657 ], [ -155.83195, 19.97662 ], [ -155.8321, 19.97671 ], [ -155.83227, 19.97694 ], [ -155.83237, 19.97701 ], [ -155.83245, 19.97713 ], [ -155.8325, 19.97727 ], [ -155.83247, 19.97732 ], [ -155.83241, 19.97749 ], [ -155.83234, 19.97759 ], [ -155.83216, 19.97771 ], [ -155.83202, 19.97777 ], [ -155.83191, 19.97776 ], [ -155.83156, 19.97756 ], [ -155.83138, 19.97743 ], [ -155.83128, 19.97739 ], [ -155.83121, 19.97744 ], [ -155.8312, 19.97753 ], [ -155.83097, 19.97774 ], [ -155.83093, 19.97786 ], [ -155.83099, 19.97797 ], [ -155.83095, 19.97814 ], [ -155.83097, 19.9782 ], [ -155.83114, 19.97832 ], [ -155.83136, 19.97864 ], [ -155.83134, 19.97889 ], [ -155.83124, 19.97916 ], [ -155.83126, 19.9793 ], [ -155.83107, 19.97934 ], [ -155.83099, 19.97932 ], [ -155.83095, 19.97917 ], [ -155.83091, 19.9791 ], [ -155.83062, 19.97899 ], [ -155.83053, 19.97892 ], [ -155.83052, 19.97886 ], [ -155.83046, 19.97875 ], [ -155.83035, 19.97866 ], [ -155.83027, 19.97864 ], [ -155.83, 19.97876 ], [ -155.8297, 19.97899 ], [ -155.82944, 19.97928 ], [ -155.82938, 19.97947 ], [ -155.82926, 19.97957 ], [ -155.82922, 19.97966 ], [ -155.82905, 19.98008 ], [ -155.82904, 19.9802 ], [ -155.82907, 19.98026 ], [ -155.82903, 19.98038 ], [ -155.82898, 19.98065 ], [ -155.82904, 19.98085 ], [ -155.82904, 19.98098 ], [ -155.82901, 19.98104 ], [ -155.82895, 19.98111 ], [ -155.8288, 19.98133 ], [ -155.82871, 19.98155 ], [ -155.82861, 19.98156 ], [ -155.82857, 19.98172 ], [ -155.82851, 19.98214 ], [ -155.82847, 19.98236 ], [ -155.82851, 19.9824 ], [ -155.82865, 19.98242 ], [ -155.82879, 19.98251 ], [ -155.82883, 19.9827 ], [ -155.82882, 19.98276 ], [ -155.82881, 19.98281 ], [ -155.82885, 19.98295 ], [ -155.82904, 19.98326 ], [ -155.82928, 19.98346 ], [ -155.82931, 19.98354 ], [ -155.82937, 19.9836 ], [ -155.82953, 19.98396 ], [ -155.82952, 19.98398 ], [ -155.82959, 19.98408 ], [ -155.82972, 19.98407 ], [ -155.82981, 19.98411 ], [ -155.82987, 19.98432 ], [ -155.83, 19.98446 ], [ -155.83009, 19.98449 ], [ -155.83041, 19.98447 ], [ -155.83071, 19.98449 ], [ -155.83085, 19.98447 ], [ -155.83094, 19.98435 ], [ -155.83101, 19.98436 ], [ -155.83105, 19.9844 ], [ -155.83103, 19.98446 ], [ -155.83103, 19.98452 ], [ -155.83111, 19.98455 ], [ -155.83122, 19.98461 ], [ -155.83118, 19.98467 ], [ -155.83095, 19.98469 ], [ -155.83087, 19.98473 ], [ -155.83086, 19.98477 ], [ -155.83089, 19.98485 ], [ -155.8311, 19.98496 ], [ -155.83124, 19.98509 ], [ -155.83128, 19.98518 ], [ -155.83127, 19.98523 ], [ -155.8311, 19.98553 ], [ -155.83092, 19.98566 ], [ -155.83079, 19.98575 ], [ -155.83071, 19.98592 ], [ -155.83054, 19.98605 ], [ -155.8305, 19.98613 ], [ -155.83055, 19.98624 ], [ -155.83055, 19.98634 ], [ -155.83046, 19.98646 ], [ -155.83035, 19.98673 ], [ -155.83019, 19.9868 ], [ -155.83013, 19.98684 ], [ -155.83015, 19.98688 ], [ -155.82999, 19.98695 ], [ -155.82994, 19.987 ], [ -155.82996, 19.98711 ], [ -155.83005, 19.98726 ], [ -155.83005, 19.98734 ], [ -155.82995, 19.98741 ], [ -155.82994, 19.98745 ], [ -155.82998, 19.98756 ], [ -155.82999, 19.98771 ], [ -155.83006, 19.98775 ], [ -155.83007, 19.9878 ], [ -155.83005, 19.98785 ], [ -155.83007, 19.98798 ], [ -155.82996, 19.988 ], [ -155.82992, 19.98798 ], [ -155.8296, 19.98778 ], [ -155.82942, 19.98786 ], [ -155.82924, 19.98789 ], [ -155.82914, 19.98785 ], [ -155.82903, 19.98791 ], [ -155.82902, 19.98798 ], [ -155.82896, 19.98842 ], [ -155.82893, 19.98845 ], [ -155.82876, 19.98844 ], [ -155.82862, 19.98847 ], [ -155.82856, 19.98845 ], [ -155.82832, 19.98845 ], [ -155.82804, 19.98842 ], [ -155.82792, 19.98844 ], [ -155.82789, 19.98851 ], [ -155.82794, 19.98862 ], [ -155.82789, 19.9887 ], [ -155.82793, 19.98878 ], [ -155.82785, 19.98887 ], [ -155.82776, 19.98911 ], [ -155.82774, 19.9893 ], [ -155.8277, 19.98931 ], [ -155.82761, 19.98937 ], [ -155.82745, 19.9894 ], [ -155.82712, 19.98958 ], [ -155.827, 19.98974 ], [ -155.82699, 19.98983 ], [ -155.82703, 19.99 ], [ -155.82701, 19.99013 ], [ -155.8269, 19.99036 ], [ -155.82675, 19.99054 ], [ -155.82664, 19.99082 ], [ -155.8266, 19.99103 ], [ -155.82653, 19.99123 ], [ -155.82651, 19.99132 ], [ -155.82644, 19.99161 ], [ -155.82634, 19.99202 ], [ -155.82634, 19.99225 ], [ -155.82627, 19.99243 ], [ -155.82617, 19.99258 ], [ -155.82618, 19.99268 ], [ -155.82615, 19.99271 ], [ -155.82612, 19.99315 ], [ -155.82608, 19.99332 ], [ -155.82604, 19.9935 ], [ -155.82607, 19.99357 ], [ -155.82603, 19.99368 ], [ -155.82598, 19.99381 ], [ -155.82596, 19.99408 ], [ -155.82591, 19.99448 ], [ -155.82594, 19.99454 ], [ -155.82612, 19.99481 ], [ -155.82622, 19.99484 ], [ -155.82631, 19.99489 ], [ -155.82637, 19.99506 ], [ -155.82632, 19.99522 ], [ -155.82637, 19.99525 ], [ -155.82654, 19.9953 ], [ -155.8266, 19.99539 ], [ -155.82665, 19.99541 ], [ -155.82676, 19.99539 ], [ -155.82693, 19.99523 ], [ -155.82703, 19.9952 ], [ -155.82709, 19.99525 ], [ -155.82716, 19.9954 ], [ -155.82732, 19.99545 ], [ -155.82739, 19.9955 ], [ -155.82741, 19.99557 ], [ -155.82741, 19.99567 ], [ -155.82735, 19.99574 ], [ -155.82719, 19.99582 ], [ -155.82712, 19.99592 ], [ -155.82744, 19.99607 ], [ -155.82745, 19.99613 ], [ -155.82741, 19.99629 ], [ -155.82734, 19.99637 ], [ -155.82742, 19.99644 ], [ -155.82746, 19.99653 ], [ -155.82748, 19.99659 ], [ -155.8274, 19.9967 ], [ -155.82741, 19.99673 ], [ -155.82755, 19.99677 ], [ -155.82759, 19.99681 ], [ -155.8276, 19.99686 ], [ -155.82745, 19.99692 ], [ -155.82744, 19.99695 ], [ -155.82748, 19.99705 ], [ -155.82754, 19.99706 ], [ -155.82774, 19.99701 ], [ -155.82792, 19.99704 ], [ -155.82794, 19.99707 ], [ -155.82783, 19.99712 ], [ -155.82777, 19.99719 ], [ -155.82779, 19.99724 ], [ -155.82789, 19.99735 ], [ -155.82814, 19.99735 ], [ -155.82824, 19.99739 ], [ -155.82819, 19.99743 ], [ -155.82803, 19.99749 ], [ -155.82798, 19.99753 ], [ -155.82801, 19.99756 ], [ -155.82829, 19.99762 ], [ -155.82835, 19.99769 ], [ -155.82825, 19.99779 ], [ -155.82798, 19.99784 ], [ -155.82778, 19.99782 ], [ -155.82772, 19.99784 ], [ -155.82769, 19.99787 ], [ -155.82767, 19.99794 ], [ -155.82773, 19.99803 ], [ -155.82778, 19.99813 ], [ -155.82777, 19.99819 ], [ -155.82772, 19.99825 ], [ -155.82758, 19.99833 ], [ -155.82746, 19.99842 ], [ -155.82748, 19.99847 ], [ -155.8276, 19.99856 ], [ -155.8277, 19.99865 ], [ -155.82765, 19.99882 ], [ -155.82765, 19.99897 ], [ -155.82775, 19.99904 ], [ -155.82791, 19.99913 ], [ -155.82792, 19.99922 ], [ -155.82792, 19.99935 ], [ -155.82804, 19.99949 ], [ -155.82802, 19.99963 ], [ -155.82815, 19.99977 ], [ -155.82812, 19.99984 ], [ -155.82806, 19.99989 ], [ -155.82797, 19.99992 ], [ -155.82784, 19.99998 ], [ -155.8277, 20.00013 ], [ -155.82768, 20.0002 ], [ -155.82775, 20.00026 ], [ -155.82779, 20.00034 ], [ -155.82768, 20.00045 ], [ -155.82772, 20.00059 ], [ -155.82766, 20.00065 ], [ -155.82764, 20.00069 ], [ -155.8275, 20.0008 ], [ -155.8275, 20.00083 ], [ -155.82764, 20.00099 ], [ -155.82764, 20.00104 ], [ -155.82761, 20.00109 ], [ -155.82757, 20.0011 ], [ -155.82751, 20.00119 ], [ -155.82737, 20.00136 ], [ -155.82736, 20.00142 ], [ -155.82747, 20.00167 ], [ -155.82745, 20.00171 ], [ -155.82727, 20.00197 ], [ -155.82713, 20.00214 ], [ -155.82693, 20.00225 ], [ -155.82683, 20.00235 ], [ -155.82683, 20.00244 ], [ -155.82693, 20.00265 ], [ -155.82705, 20.00276 ], [ -155.82694, 20.00283 ], [ -155.82681, 20.00281 ], [ -155.82669, 20.00274 ], [ -155.82647, 20.0027 ], [ -155.82617, 20.00274 ], [ -155.82583, 20.00283 ], [ -155.82567, 20.00293 ], [ -155.82542, 20.00307 ], [ -155.82525, 20.00319 ], [ -155.82519, 20.00327 ], [ -155.82504, 20.00378 ], [ -155.82492, 20.0046 ], [ -155.82501, 20.00555 ], [ -155.82511, 20.00577 ], [ -155.82522, 20.00593 ], [ -155.82539, 20.00603 ], [ -155.82566, 20.00608 ], [ -155.82586, 20.00616 ], [ -155.82623, 20.00625 ], [ -155.82655, 20.00635 ], [ -155.82681, 20.00651 ], [ -155.82685, 20.00658 ], [ -155.82682, 20.00666 ], [ -155.82663, 20.00683 ], [ -155.82656, 20.00692 ], [ -155.82664, 20.00704 ], [ -155.82688, 20.00728 ], [ -155.82696, 20.00738 ], [ -155.82693, 20.00758 ], [ -155.82699, 20.00769 ], [ -155.82699, 20.0078 ], [ -155.82682, 20.00797 ], [ -155.82657, 20.00825 ], [ -155.82654, 20.00844 ], [ -155.82659, 20.00862 ], [ -155.82656, 20.00871 ], [ -155.8264, 20.00887 ], [ -155.82635, 20.00897 ], [ -155.82632, 20.00901 ], [ -155.82627, 20.00902 ], [ -155.82617, 20.00902 ], [ -155.82608, 20.00907 ], [ -155.82594, 20.0091 ], [ -155.82583, 20.00916 ], [ -155.82594, 20.0095 ], [ -155.82589, 20.00969 ], [ -155.82562, 20.00984 ], [ -155.82537, 20.00981 ], [ -155.82528, 20.00984 ], [ -155.82524, 20.00992 ], [ -155.82514, 20.01027 ], [ -155.82512, 20.01044 ], [ -155.82512, 20.01047 ], [ -155.8252, 20.01056 ], [ -155.82544, 20.01067 ], [ -155.82572, 20.0108 ], [ -155.82572, 20.01091 ], [ -155.8257, 20.01108 ], [ -155.82586, 20.01118 ], [ -155.82596, 20.01131 ], [ -155.82593, 20.01138 ], [ -155.82586, 20.01149 ], [ -155.82569, 20.01158 ], [ -155.8256, 20.01168 ], [ -155.82542, 20.01205 ], [ -155.82533, 20.01212 ], [ -155.82526, 20.01208 ], [ -155.82513, 20.01203 ], [ -155.8251, 20.01209 ], [ -155.82511, 20.01217 ], [ -155.82521, 20.01239 ], [ -155.82513, 20.01251 ], [ -155.825, 20.01255 ], [ -155.82494, 20.0126 ], [ -155.82508, 20.01271 ], [ -155.82505, 20.01279 ], [ -155.82491, 20.01296 ], [ -155.82493, 20.013 ], [ -155.82515, 20.01309 ], [ -155.82518, 20.01313 ], [ -155.82519, 20.0132 ], [ -155.82527, 20.01336 ], [ -155.82543, 20.01346 ], [ -155.82553, 20.01358 ], [ -155.82551, 20.01365 ], [ -155.82525, 20.0136 ], [ -155.82495, 20.0137 ], [ -155.82486, 20.01377 ], [ -155.82486, 20.0138 ], [ -155.82496, 20.01387 ], [ -155.82516, 20.0139 ], [ -155.82523, 20.01398 ], [ -155.82521, 20.01409 ], [ -155.82507, 20.01426 ], [ -155.82508, 20.01431 ], [ -155.82524, 20.01436 ], [ -155.82539, 20.01437 ], [ -155.82561, 20.01442 ], [ -155.82555, 20.01451 ], [ -155.82551, 20.01462 ], [ -155.82546, 20.015 ], [ -155.8254, 20.01532 ], [ -155.82535, 20.01542 ], [ -155.82522, 20.01545 ], [ -155.82516, 20.01548 ], [ -155.82516, 20.0155 ], [ -155.82532, 20.01565 ], [ -155.82534, 20.01573 ], [ -155.8253, 20.01579 ], [ -155.82503, 20.01579 ], [ -155.82494, 20.01583 ], [ -155.82484, 20.01595 ], [ -155.82459, 20.01597 ], [ -155.82447, 20.01595 ], [ -155.82423, 20.01582 ], [ -155.82419, 20.01573 ], [ -155.8241, 20.01577 ], [ -155.82401, 20.01588 ], [ -155.82392, 20.01589 ], [ -155.82372, 20.01583 ], [ -155.82359, 20.01583 ], [ -155.82348, 20.01593 ], [ -155.82344, 20.01605 ], [ -155.82349, 20.01618 ], [ -155.82348, 20.01637 ], [ -155.82342, 20.01648 ], [ -155.8233, 20.01657 ], [ -155.82329, 20.01663 ], [ -155.82352, 20.0168 ], [ -155.82344, 20.01714 ], [ -155.82339, 20.01721 ], [ -155.82327, 20.01723 ], [ -155.82317, 20.01726 ], [ -155.82312, 20.01732 ], [ -155.82308, 20.01746 ], [ -155.823, 20.01761 ], [ -155.82287, 20.01772 ], [ -155.82283, 20.01783 ], [ -155.82285, 20.01791 ], [ -155.82285, 20.01802 ], [ -155.82278, 20.01817 ], [ -155.82274, 20.01828 ], [ -155.82282, 20.01837 ], [ -155.82285, 20.01844 ], [ -155.82283, 20.01849 ], [ -155.82279, 20.01866 ], [ -155.82282, 20.0187 ], [ -155.82312, 20.01881 ], [ -155.82323, 20.01888 ], [ -155.82333, 20.019 ], [ -155.8234, 20.01918 ], [ -155.82343, 20.01934 ], [ -155.8234, 20.01949 ], [ -155.82321, 20.01986 ], [ -155.82313, 20.02003 ], [ -155.82313, 20.02016 ], [ -155.82332, 20.02065 ], [ -155.82332, 20.02082 ], [ -155.82326, 20.0211 ], [ -155.8232, 20.02142 ], [ -155.82312, 20.02156 ], [ -155.82296, 20.0217 ], [ -155.82283, 20.02174 ], [ -155.82267, 20.02182 ], [ -155.82255, 20.02191 ], [ -155.82254, 20.02198 ], [ -155.82264, 20.02206 ], [ -155.82277, 20.0221 ], [ -155.82281, 20.02222 ], [ -155.82282, 20.02244 ], [ -155.82276, 20.02269 ], [ -155.82266, 20.02286 ], [ -155.82255, 20.02291 ], [ -155.82244, 20.02298 ], [ -155.82241, 20.02306 ], [ -155.82259, 20.02321 ], [ -155.82272, 20.02335 ], [ -155.82296, 20.02361 ], [ -155.82301, 20.0237 ], [ -155.82302, 20.02398 ], [ -155.82312, 20.02423 ], [ -155.82346, 20.02458 ], [ -155.82351, 20.02466 ], [ -155.82354, 20.02485 ], [ -155.82355, 20.025 ], [ -155.82361, 20.02535 ], [ -155.82358, 20.02549 ], [ -155.82345, 20.02565 ], [ -155.82341, 20.02575 ], [ -155.82344, 20.02582 ], [ -155.82353, 20.02593 ], [ -155.82366, 20.02613 ], [ -155.82367, 20.02631 ], [ -155.82356, 20.02668 ], [ -155.8234, 20.02699 ], [ -155.82326, 20.02732 ], [ -155.82321, 20.02757 ], [ -155.82318, 20.02784 ], [ -155.82312, 20.02808 ], [ -155.82322, 20.02827 ], [ -155.82327, 20.02846 ], [ -155.82326, 20.02861 ], [ -155.82326, 20.0287 ], [ -155.8233, 20.02871 ], [ -155.82445, 20.02784 ], [ -155.82489, 20.0275 ], [ -155.82517, 20.0274 ], [ -155.82539, 20.02739 ], [ -155.82569, 20.02741 ], [ -155.82584, 20.02747 ], [ -155.82618, 20.02763 ], [ -155.82867, 20.02884 ], [ -155.82877, 20.02885 ], [ -155.82897, 20.029 ], [ -155.82911, 20.02913 ], [ -155.82932, 20.02936 ], [ -155.83383, 20.03445 ], [ -155.83394, 20.03464 ], [ -155.83397, 20.03482 ], [ -155.83408, 20.03699 ], [ -155.83411, 20.03732 ], [ -155.83404, 20.03738 ], [ -155.83396, 20.03737 ], [ -155.83394, 20.03729 ], [ -155.83393, 20.03707 ], [ -155.83393, 20.03701 ], [ -155.83381, 20.03482 ], [ -155.83372, 20.03458 ], [ -155.83303, 20.03378 ], [ -155.83077, 20.03121 ], [ -155.83072, 20.03119 ], [ -155.83048, 20.03125 ], [ -155.8303, 20.0313 ], [ -155.83019, 20.03146 ], [ -155.82998, 20.03151 ], [ -155.82961, 20.0313 ], [ -155.82935, 20.03135 ], [ -155.82929, 20.03141 ], [ -155.82926, 20.03151 ], [ -155.82934, 20.03178 ], [ -155.82938, 20.03209 ], [ -155.82738, 20.03235 ], [ -155.82667, 20.03287 ], [ -155.82611, 20.03197 ], [ -155.8257, 20.03202 ], [ -155.82535, 20.03206 ], [ -155.82531, 20.03211 ], [ -155.82531, 20.03222 ], [ -155.82538, 20.03234 ], [ -155.8258, 20.0328 ], [ -155.82587, 20.03287 ], [ -155.82807, 20.03531 ], [ -155.8282, 20.03522 ], [ -155.82931, 20.03647 ], [ -155.82922, 20.03656 ], [ -155.82983, 20.03725 ], [ -155.82983, 20.03731 ], [ -155.82957, 20.03752 ], [ -155.82906, 20.03789 ], [ -155.829, 20.03788 ], [ -155.82768, 20.03746 ], [ -155.8273, 20.03719 ], [ -155.82726, 20.03722 ], [ -155.82746, 20.0374 ], [ -155.8277, 20.03754 ], [ -155.82903, 20.03798 ], [ -155.82912, 20.03795 ], [ -155.82964, 20.03758 ], [ -155.82991, 20.03741 ], [ -155.83002, 20.03739 ], [ -155.83012, 20.0374 ], [ -155.831, 20.03787 ], [ -155.83116, 20.03794 ], [ -155.83119, 20.03806 ], [ -155.83146, 20.03827 ], [ -155.83152, 20.03832 ], [ -155.8315, 20.0384 ], [ -155.83168, 20.0385 ], [ -155.83162, 20.03858 ], [ -155.83143, 20.03847 ], [ -155.83136, 20.03859 ], [ -155.83142, 20.03864 ], [ -155.83114, 20.03907 ], [ -155.83115, 20.03911 ], [ -155.83161, 20.03943 ], [ -155.83167, 20.03934 ], [ -155.83172, 20.03938 ], [ -155.83169, 20.03946 ], [ -155.83174, 20.03951 ], [ -155.83213, 20.03897 ], [ -155.832, 20.03871 ], [ -155.83196, 20.03861 ], [ -155.832, 20.03859 ], [ -155.83223, 20.03896 ], [ -155.83214, 20.03928 ], [ -155.83208, 20.03954 ], [ -155.83204, 20.03971 ], [ -155.83207, 20.03988 ], [ -155.83213, 20.04 ], [ -155.83237, 20.04021 ], [ -155.83266, 20.0404 ], [ -155.83275, 20.04059 ], [ -155.83278, 20.04073 ], [ -155.83287, 20.04099 ], [ -155.83301, 20.04117 ], [ -155.83317, 20.04127 ], [ -155.83344, 20.0414 ], [ -155.83373, 20.04158 ], [ -155.83397, 20.04167 ], [ -155.83408, 20.04172 ], [ -155.83428, 20.04189 ], [ -155.83439, 20.04196 ], [ -155.83443, 20.04208 ], [ -155.83456, 20.04221 ], [ -155.83475, 20.04227 ], [ -155.83493, 20.04243 ], [ -155.83501, 20.04256 ], [ -155.83507, 20.04281 ], [ -155.8352, 20.043 ], [ -155.83537, 20.04317 ], [ -155.83556, 20.0433 ], [ -155.83579, 20.0436 ], [ -155.83599, 20.04378 ], [ -155.8361, 20.04382 ], [ -155.83621, 20.04385 ], [ -155.83626, 20.04391 ], [ -155.83633, 20.04406 ], [ -155.83659, 20.0442 ], [ -155.8366, 20.04423 ], [ -155.83644, 20.04438 ], [ -155.83646, 20.04447 ], [ -155.8365, 20.04458 ], [ -155.83642, 20.04465 ], [ -155.83642, 20.04471 ], [ -155.83649, 20.04484 ], [ -155.83667, 20.04497 ], [ -155.83683, 20.04501 ], [ -155.837, 20.04518 ], [ -155.83708, 20.04537 ], [ -155.8372, 20.04553 ], [ -155.83732, 20.04575 ], [ -155.83774, 20.04617 ], [ -155.83797, 20.04655 ], [ -155.83798, 20.04682 ], [ -155.83808, 20.04696 ], [ -155.83819, 20.04706 ], [ -155.83829, 20.04729 ], [ -155.83838, 20.04753 ], [ -155.83862, 20.04784 ], [ -155.83865, 20.04789 ], [ -155.83863, 20.04799 ], [ -155.83859, 20.04806 ], [ -155.83864, 20.04834 ], [ -155.83858, 20.04845 ], [ -155.83836, 20.04865 ], [ -155.83827, 20.04878 ], [ -155.83826, 20.04892 ], [ -155.83832, 20.0491 ], [ -155.83843, 20.04923 ], [ -155.83856, 20.04933 ], [ -155.83864, 20.04939 ], [ -155.83871, 20.04947 ], [ -155.8388, 20.04978 ], [ -155.83897, 20.05003 ], [ -155.83932, 20.05028 ], [ -155.83973, 20.05051 ], [ -155.83988, 20.05065 ], [ -155.8399, 20.05071 ], [ -155.83997, 20.05077 ], [ -155.84023, 20.05067 ], [ -155.84044, 20.05068 ], [ -155.84057, 20.05069 ], [ -155.8407, 20.05059 ], [ -155.84074, 20.05062 ], [ -155.84083, 20.05085 ], [ -155.84105, 20.05104 ], [ -155.84114, 20.05106 ], [ -155.84131, 20.05105 ], [ -155.84133, 20.05108 ], [ -155.84129, 20.05118 ], [ -155.84137, 20.05127 ], [ -155.8415, 20.05129 ], [ -155.84189, 20.05132 ], [ -155.84207, 20.05138 ], [ -155.84239, 20.0514 ], [ -155.84242, 20.05145 ], [ -155.84241, 20.05153 ], [ -155.84252, 20.05169 ], [ -155.84255, 20.05182 ], [ -155.84259, 20.05205 ], [ -155.8427, 20.05219 ], [ -155.8428, 20.05226 ], [ -155.84293, 20.05228 ], [ -155.84318, 20.0522 ], [ -155.84337, 20.05212 ], [ -155.84344, 20.05212 ], [ -155.84362, 20.05228 ], [ -155.84371, 20.05238 ], [ -155.84371, 20.05244 ], [ -155.84363, 20.05256 ], [ -155.84351, 20.05268 ], [ -155.84359, 20.05277 ], [ -155.84368, 20.05283 ], [ -155.84374, 20.05298 ], [ -155.84361, 20.05308 ], [ -155.84352, 20.05314 ], [ -155.84351, 20.05319 ], [ -155.84365, 20.05325 ], [ -155.84406, 20.05332 ], [ -155.84433, 20.05344 ], [ -155.84449, 20.05349 ], [ -155.84451, 20.05352 ], [ -155.8445, 20.05361 ], [ -155.84439, 20.05378 ], [ -155.84435, 20.05403 ], [ -155.84427, 20.05415 ], [ -155.84401, 20.05423 ], [ -155.84366, 20.05429 ], [ -155.8433, 20.05438 ], [ -155.84318, 20.05445 ], [ -155.84326, 20.05457 ], [ -155.84327, 20.05498 ], [ -155.84338, 20.05535 ], [ -155.84371, 20.05549 ], [ -155.84383, 20.05562 ], [ -155.84403, 20.0557 ], [ -155.8441, 20.05576 ], [ -155.8441, 20.05582 ], [ -155.84397, 20.05587 ], [ -155.84393, 20.05591 ], [ -155.8439, 20.05601 ], [ -155.84401, 20.05621 ], [ -155.84404, 20.05624 ], [ -155.84412, 20.05637 ], [ -155.84414, 20.05646 ], [ -155.84405, 20.05658 ], [ -155.84408, 20.05661 ], [ -155.8442, 20.05662 ], [ -155.8444, 20.0567 ], [ -155.84456, 20.05682 ], [ -155.84474, 20.05691 ], [ -155.84488, 20.05695 ], [ -155.84495, 20.05706 ], [ -155.84487, 20.05709 ], [ -155.84482, 20.05712 ], [ -155.84485, 20.05719 ], [ -155.84493, 20.05725 ], [ -155.84499, 20.05734 ], [ -155.84498, 20.05746 ], [ -155.84504, 20.05759 ], [ -155.84518, 20.05772 ], [ -155.84556, 20.05821 ], [ -155.84569, 20.05833 ], [ -155.84598, 20.05846 ], [ -155.84606, 20.05855 ], [ -155.84615, 20.05881 ], [ -155.84623, 20.05886 ], [ -155.84655, 20.05885 ], [ -155.84659, 20.05887 ], [ -155.84661, 20.05899 ], [ -155.84669, 20.05905 ], [ -155.84705, 20.05918 ], [ -155.84738, 20.05928 ], [ -155.84762, 20.05943 ], [ -155.84771, 20.05958 ], [ -155.84782, 20.05968 ], [ -155.84784, 20.05984 ], [ -155.8479, 20.0599 ], [ -155.84799, 20.05994 ], [ -155.84802, 20.06001 ], [ -155.84801, 20.06008 ], [ -155.84809, 20.06017 ], [ -155.84815, 20.06021 ], [ -155.84817, 20.06027 ], [ -155.8481, 20.06065 ], [ -155.84812, 20.06073 ], [ -155.84819, 20.0608 ], [ -155.84839, 20.06078 ], [ -155.84862, 20.06075 ], [ -155.84874, 20.0609 ], [ -155.84887, 20.06091 ], [ -155.8494, 20.06077 ], [ -155.84943, 20.06094 ], [ -155.84951, 20.06102 ], [ -155.84941, 20.06118 ], [ -155.84932, 20.06137 ], [ -155.84929, 20.06143 ], [ -155.84936, 20.06148 ], [ -155.84943, 20.06164 ], [ -155.84948, 20.06167 ], [ -155.84965, 20.06163 ], [ -155.84981, 20.06155 ], [ -155.84996, 20.06141 ], [ -155.85008, 20.06133 ], [ -155.85014, 20.06136 ], [ -155.85018, 20.06142 ], [ -155.85019, 20.06149 ], [ -155.8501, 20.06174 ], [ -155.85023, 20.06183 ], [ -155.85026, 20.06187 ], [ -155.85022, 20.062 ], [ -155.85039, 20.0621 ], [ -155.85048, 20.06238 ], [ -155.85061, 20.06242 ], [ -155.85103, 20.06228 ], [ -155.85114, 20.06238 ], [ -155.85132, 20.0625 ], [ -155.85152, 20.06273 ], [ -155.85154, 20.06278 ], [ -155.85146, 20.06289 ], [ -155.85146, 20.06295 ], [ -155.85163, 20.06305 ], [ -155.85172, 20.06309 ], [ -155.85183, 20.0632 ], [ -155.8518, 20.06329 ], [ -155.85172, 20.06341 ], [ -155.85181, 20.06347 ], [ -155.85202, 20.0635 ], [ -155.85217, 20.0635 ], [ -155.85227, 20.06355 ], [ -155.8524, 20.06376 ], [ -155.85237, 20.06388 ], [ -155.85249, 20.06396 ], [ -155.85249, 20.064 ], [ -155.85241, 20.06404 ], [ -155.85222, 20.06402 ], [ -155.85218, 20.06408 ], [ -155.8522, 20.06415 ], [ -155.85211, 20.06424 ], [ -155.85194, 20.06435 ], [ -155.85185, 20.06444 ], [ -155.85188, 20.06448 ], [ -155.8521, 20.06453 ], [ -155.8522, 20.06461 ], [ -155.85233, 20.0648 ], [ -155.85244, 20.06487 ], [ -155.8525, 20.06486 ], [ -155.85262, 20.06494 ], [ -155.85272, 20.06486 ], [ -155.85277, 20.06481 ], [ -155.85282, 20.06481 ], [ -155.8529, 20.06493 ], [ -155.85288, 20.065 ], [ -155.85294, 20.06509 ], [ -155.85302, 20.06511 ], [ -155.85305, 20.06516 ], [ -155.85309, 20.06524 ], [ -155.85323, 20.0654 ], [ -155.85314, 20.06562 ], [ -155.85318, 20.06568 ], [ -155.85328, 20.06571 ], [ -155.85359, 20.06569 ], [ -155.85365, 20.06576 ], [ -155.8537, 20.06586 ], [ -155.85375, 20.06588 ], [ -155.85387, 20.06588 ], [ -155.85393, 20.06588 ], [ -155.85414, 20.06584 ], [ -155.8542, 20.06583 ], [ -155.85424, 20.06593 ], [ -155.85419, 20.06606 ], [ -155.85415, 20.0663 ], [ -155.85419, 20.06636 ], [ -155.85421, 20.06636 ], [ -155.85427, 20.06632 ], [ -155.85431, 20.06631 ], [ -155.85438, 20.06638 ], [ -155.85442, 20.06647 ], [ -155.85449, 20.06654 ], [ -155.8545, 20.06669 ], [ -155.85472, 20.06683 ], [ -155.85487, 20.06691 ], [ -155.85491, 20.06698 ], [ -155.85483, 20.06711 ], [ -155.85487, 20.06717 ], [ -155.85505, 20.06727 ], [ -155.8551, 20.06732 ], [ -155.85514, 20.06747 ], [ -155.85527, 20.06754 ], [ -155.85535, 20.06765 ], [ -155.85562, 20.06778 ], [ -155.85566, 20.06781 ], [ -155.85565, 20.06789 ], [ -155.85558, 20.06795 ], [ -155.85555, 20.0681 ], [ -155.85559, 20.06822 ], [ -155.85557, 20.06833 ], [ -155.85551, 20.0684 ], [ -155.85545, 20.06839 ], [ -155.85541, 20.0684 ], [ -155.85539, 20.06847 ], [ -155.85536, 20.06861 ], [ -155.85535, 20.06867 ], [ -155.85547, 20.06875 ], [ -155.85555, 20.06889 ], [ -155.8556, 20.06906 ], [ -155.85581, 20.06944 ], [ -155.85593, 20.06973 ], [ -155.85596, 20.06995 ], [ -155.85603, 20.07003 ], [ -155.85622, 20.07017 ], [ -155.85632, 20.0703 ], [ -155.85653, 20.07032 ], [ -155.85663, 20.07034 ], [ -155.85667, 20.0704 ], [ -155.85669, 20.07053 ], [ -155.85672, 20.07056 ], [ -155.8569, 20.07054 ], [ -155.85695, 20.07057 ], [ -155.857, 20.07074 ], [ -155.85699, 20.07082 ], [ -155.85712, 20.07099 ], [ -155.85725, 20.07117 ], [ -155.85736, 20.07137 ], [ -155.85742, 20.07142 ], [ -155.85747, 20.07143 ], [ -155.8577, 20.07129 ], [ -155.85786, 20.07124 ], [ -155.85792, 20.07127 ], [ -155.85788, 20.07133 ], [ -155.85783, 20.07139 ], [ -155.85792, 20.07154 ], [ -155.85787, 20.0716 ], [ -155.85789, 20.07165 ], [ -155.85794, 20.07168 ], [ -155.85815, 20.07167 ], [ -155.85821, 20.07167 ], [ -155.85822, 20.07171 ], [ -155.85809, 20.07186 ], [ -155.85786, 20.072 ], [ -155.85786, 20.07205 ], [ -155.85802, 20.07216 ], [ -155.85815, 20.07218 ], [ -155.85848, 20.07222 ], [ -155.85853, 20.07225 ], [ -155.85846, 20.07244 ], [ -155.85834, 20.07256 ], [ -155.8582, 20.07285 ], [ -155.85823, 20.07287 ], [ -155.85857, 20.07283 ], [ -155.85869, 20.0728 ], [ -155.85873, 20.07281 ], [ -155.85872, 20.07285 ], [ -155.85864, 20.07292 ], [ -155.85872, 20.07304 ], [ -155.85872, 20.07331 ], [ -155.85875, 20.07346 ], [ -155.85886, 20.07353 ], [ -155.85898, 20.07355 ], [ -155.85906, 20.07364 ], [ -155.85908, 20.0739 ], [ -155.85907, 20.07397 ], [ -155.85912, 20.07402 ], [ -155.85915, 20.07402 ], [ -155.85929, 20.07396 ], [ -155.85954, 20.07388 ], [ -155.85959, 20.0739 ], [ -155.85962, 20.07395 ], [ -155.85959, 20.07406 ], [ -155.85945, 20.07427 ], [ -155.85942, 20.07439 ], [ -155.85947, 20.07445 ], [ -155.85961, 20.0745 ], [ -155.85977, 20.07451 ], [ -155.8599, 20.07465 ], [ -155.85996, 20.07467 ], [ -155.8601, 20.07463 ], [ -155.86026, 20.07459 ], [ -155.86052, 20.07459 ], [ -155.86067, 20.07461 ], [ -155.86073, 20.07459 ], [ -155.86077, 20.07469 ], [ -155.86083, 20.07475 ], [ -155.86095, 20.07478 ], [ -155.86111, 20.07483 ], [ -155.86134, 20.07482 ], [ -155.86143, 20.07478 ], [ -155.8615, 20.07458 ], [ -155.86155, 20.07453 ], [ -155.86172, 20.07462 ], [ -155.86183, 20.07463 ], [ -155.86201, 20.07451 ], [ -155.86211, 20.0745 ], [ -155.86215, 20.07452 ], [ -155.86214, 20.07459 ], [ -155.86213, 20.07465 ], [ -155.86217, 20.07472 ], [ -155.86215, 20.07482 ], [ -155.86226, 20.07487 ], [ -155.86236, 20.07488 ], [ -155.8624, 20.07491 ], [ -155.86246, 20.07509 ], [ -155.86254, 20.07516 ], [ -155.86272, 20.07522 ], [ -155.86295, 20.07527 ], [ -155.86318, 20.0754 ], [ -155.86312, 20.07552 ], [ -155.86307, 20.0756 ], [ -155.86312, 20.07565 ], [ -155.86354, 20.07568 ], [ -155.86367, 20.0757 ], [ -155.86377, 20.07567 ], [ -155.86386, 20.07556 ], [ -155.86398, 20.07552 ], [ -155.86407, 20.07552 ], [ -155.86413, 20.07558 ], [ -155.86427, 20.07581 ], [ -155.86457, 20.07595 ], [ -155.86469, 20.07607 ], [ -155.86471, 20.07614 ], [ -155.86466, 20.07626 ], [ -155.86457, 20.07641 ], [ -155.86459, 20.07645 ], [ -155.86465, 20.0765 ], [ -155.86459, 20.0767 ], [ -155.8646, 20.07689 ], [ -155.86453, 20.07699 ], [ -155.8645, 20.07716 ], [ -155.86454, 20.07728 ], [ -155.8646, 20.07736 ], [ -155.86481, 20.07742 ], [ -155.86489, 20.07751 ], [ -155.86493, 20.0776 ], [ -155.86494, 20.07772 ], [ -155.86502, 20.07776 ], [ -155.86522, 20.07782 ], [ -155.86531, 20.07788 ], [ -155.86535, 20.07794 ], [ -155.86527, 20.07815 ], [ -155.86538, 20.07831 ], [ -155.86537, 20.07843 ], [ -155.86529, 20.0786 ], [ -155.86517, 20.07881 ], [ -155.86511, 20.07892 ], [ -155.86517, 20.07899 ], [ -155.86522, 20.07902 ], [ -155.86528, 20.07906 ], [ -155.86525, 20.07915 ], [ -155.86521, 20.07923 ], [ -155.86523, 20.07931 ], [ -155.86542, 20.07948 ], [ -155.8656, 20.07958 ], [ -155.86563, 20.07967 ], [ -155.86555, 20.07976 ], [ -155.86538, 20.07988 ], [ -155.86538, 20.08004 ], [ -155.86543, 20.08012 ], [ -155.86536, 20.08031 ], [ -155.86537, 20.08035 ], [ -155.86544, 20.08044 ], [ -155.86556, 20.08055 ], [ -155.86573, 20.0805 ], [ -155.86588, 20.08035 ], [ -155.86593, 20.08027 ], [ -155.86598, 20.08023 ], [ -155.86611, 20.08023 ], [ -155.86622, 20.08028 ], [ -155.86625, 20.08035 ], [ -155.86623, 20.08043 ], [ -155.86624, 20.08049 ], [ -155.86627, 20.08054 ], [ -155.86638, 20.0806 ], [ -155.86656, 20.08065 ], [ -155.86666, 20.08077 ], [ -155.86685, 20.08111 ], [ -155.86686, 20.08121 ], [ -155.867, 20.08141 ], [ -155.86714, 20.0814 ], [ -155.86729, 20.08136 ], [ -155.86739, 20.08141 ], [ -155.86747, 20.0815 ], [ -155.86748, 20.0816 ], [ -155.86752, 20.0817 ], [ -155.8674, 20.08179 ], [ -155.86738, 20.08193 ], [ -155.86739, 20.08207 ], [ -155.86746, 20.08214 ], [ -155.8675, 20.08221 ], [ -155.8675, 20.0823 ], [ -155.86747, 20.08242 ], [ -155.86751, 20.08253 ], [ -155.86768, 20.08265 ], [ -155.86772, 20.08275 ], [ -155.86772, 20.08289 ], [ -155.86777, 20.08292 ], [ -155.86794, 20.08292 ], [ -155.86798, 20.08295 ], [ -155.86803, 20.08303 ], [ -155.86811, 20.08315 ], [ -155.8681, 20.0832 ], [ -155.86803, 20.08325 ], [ -155.8677, 20.08335 ], [ -155.86755, 20.08347 ], [ -155.86752, 20.08359 ], [ -155.86753, 20.0838 ], [ -155.86759, 20.08388 ], [ -155.86781, 20.08405 ], [ -155.86788, 20.08406 ], [ -155.86806, 20.08399 ], [ -155.86829, 20.08394 ], [ -155.86841, 20.08395 ], [ -155.86848, 20.084 ], [ -155.86853, 20.08415 ], [ -155.86855, 20.08422 ], [ -155.86869, 20.08428 ], [ -155.86918, 20.08439 ], [ -155.86931, 20.08445 ], [ -155.86941, 20.08458 ], [ -155.86943, 20.08461 ], [ -155.86962, 20.08467 ], [ -155.86976, 20.08474 ], [ -155.86987, 20.08483 ], [ -155.86995, 20.08501 ], [ -155.86995, 20.08523 ], [ -155.87006, 20.08549 ], [ -155.87031, 20.08554 ], [ -155.87047, 20.08551 ], [ -155.87056, 20.08548 ], [ -155.87083, 20.08545 ], [ -155.87085, 20.08549 ], [ -155.87082, 20.08554 ], [ -155.87079, 20.0856 ], [ -155.8708, 20.08567 ], [ -155.87092, 20.08573 ], [ -155.87096, 20.08577 ], [ -155.87093, 20.08584 ], [ -155.87085, 20.08594 ], [ -155.87082, 20.08606 ], [ -155.87101, 20.08618 ], [ -155.8714, 20.08631 ], [ -155.87157, 20.08641 ], [ -155.87161, 20.08649 ], [ -155.87156, 20.08657 ], [ -155.87146, 20.08665 ], [ -155.87143, 20.08677 ], [ -155.87145, 20.08685 ], [ -155.87155, 20.08699 ], [ -155.87155, 20.08706 ], [ -155.87151, 20.08711 ], [ -155.87122, 20.08722 ], [ -155.87115, 20.08731 ], [ -155.87107, 20.08738 ], [ -155.87107, 20.08746 ], [ -155.87113, 20.0875 ], [ -155.87136, 20.08755 ], [ -155.87154, 20.08768 ], [ -155.87156, 20.08774 ], [ -155.87154, 20.08785 ], [ -155.87153, 20.08796 ], [ -155.87163, 20.08809 ], [ -155.87193, 20.08833 ], [ -155.87205, 20.08845 ], [ -155.87217, 20.08852 ], [ -155.87221, 20.08854 ], [ -155.87228, 20.08857 ], [ -155.87237, 20.08861 ], [ -155.87242, 20.08867 ], [ -155.87245, 20.08875 ], [ -155.8724, 20.0888 ], [ -155.87235, 20.08885 ], [ -155.87233, 20.08896 ], [ -155.87232, 20.08906 ], [ -155.87228, 20.08913 ], [ -155.87227, 20.08915 ], [ -155.87221, 20.08918 ], [ -155.87211, 20.08925 ], [ -155.87199, 20.08936 ], [ -155.87199, 20.08945 ], [ -155.87205, 20.0895 ], [ -155.87221, 20.08955 ], [ -155.87228, 20.08956 ], [ -155.87249, 20.08961 ], [ -155.87269, 20.08964 ], [ -155.87285, 20.08962 ], [ -155.87295, 20.08964 ], [ -155.87299, 20.08972 ], [ -155.87297, 20.08986 ], [ -155.87297, 20.08997 ], [ -155.87282, 20.09017 ], [ -155.8728, 20.09028 ], [ -155.87285, 20.09036 ], [ -155.87317, 20.09051 ], [ -155.87361, 20.09068 ], [ -155.87384, 20.09079 ], [ -155.87416, 20.09081 ], [ -155.87427, 20.09086 ], [ -155.87436, 20.0911 ], [ -155.87468, 20.09145 ], [ -155.87466, 20.0916 ], [ -155.87447, 20.09186 ], [ -155.87437, 20.09197 ], [ -155.86991, 20.08973 ] ] ] ] } }
]
}
