{
"type": "FeatureCollection",
"name": "Solar_Insolation_600-650",
"crs": { "type": "name", "properties": { "name": "urn:ogc:def:crs:OGC:1.3:CRS84" } },
"xy_coordinate_resolution": 1e-05,
"features": [
{ "type": "Feature", "properties": { "objectid": 8, "solar_cal": "600-650", "st_areasha": 176275667.63933742, "st_perimet": 49293.050244163402 }, "geometry": { "type": "MultiPolygon", "coordinates": [ [ [ [ -155.54264, 19.53803 ], [ -155.53535, 19.5342 ], [ -155.5246, 19.52609 ], [ -155.52021, 19.51659 ], [ -155.51783, 19.50565 ], [ -155.523, 19.48627 ], [ -155.53196, 19.46432 ], [ -155.53987, 19.44319 ], [ -155.5524, 19.42603 ], [ -155.56795, 19.41195 ], [ -155.58971, 19.4014 ], [ -155.61493, 19.39473 ], [ -155.63289, 19.39309 ], [ -155.64456, 19.39887 ], [ -155.65015, 19.41016 ], [ -155.65192, 19.42231 ], [ -155.65297, 19.43669 ], [ -155.65434, 19.45026 ], [ -155.65555, 19.46101 ], [ -155.65613, 19.47136 ], [ -155.65414, 19.48145 ], [ -155.64991, 19.49026 ], [ -155.64507, 19.50179 ], [ -155.63986, 19.50951 ], [ -155.63043, 19.5203 ], [ -155.62115, 19.52676 ], [ -155.60986, 19.53405 ], [ -155.59499, 19.53646 ], [ -155.57946, 19.53706 ], [ -155.56352, 19.53888 ], [ -155.54264, 19.53803 ] ] ] ] } }
]
}
